[
  {
    "vge_id": 414865,
    "Lat": 52.35919189453125,
    "Long": 6.63872766494751,
    "Postcode": "7604KV",
    "Straat": "Catharina van Renneslaan",
    "huisnummer": "2",
    "naam": null,
    "geldig_vanaf": null,
    "wijk_code": null
  },
  {
    "vge_id": 414866,
    "Lat": 52.35921096801758,
    "Long": 6.638829231262207,
    "Postcode": "7604KV",
    "Straat": "Catharina van Renneslaan",
    "huisnummer": "4",
    "naam": null,
    "geldig_vanaf": null,
    "wijk_code": null
  },
  {
    "vge_id": 414867,
    "Lat": 52.359249114990234,
    "Long": 6.638925552368164,
    "Postcode": "7604KV",
    "Straat": "Catharina van Renneslaan",
    "huisnummer": "6",
    "naam": null,
    "geldig_vanaf": null,
    "wijk_code": null
  },
  {
    "vge_id": 414868,
    "Lat": 52.35929489135742,
    "Long": 6.638993263244629,
    "Postcode": "7604KV",
    "Straat": "Catharina van Renneslaan",
    "huisnummer": "8",
    "naam": null,
    "geldig_vanaf": null,
    "wijk_code": null
  },
  {
    "vge_id": 414869,
    "Lat": 52.359352111816406,
    "Long": 6.639040946960449,
    "Postcode": "7604KV",
    "Straat": "Catharina van Renneslaan",
    "huisnummer": "10",
    "naam": null,
    "geldig_vanaf": null,
    "wijk_code": null
  },
  {
    "vge_id": 414870,
    "Lat": 52.359413146972656,
    "Long": 6.63906192779541,
    "Postcode": "7604KV",
    "Straat": "Catharina van Renneslaan",
    "huisnummer": "12",
    "naam": null,
    "geldig_vanaf": null,
    "wijk_code": null
  },
  {
    "vge_id": 414871,
    "Lat": 52.35947799682617,
    "Long": 6.639054775238037,
    "Postcode": "7604KV",
    "Straat": "Catharina van Renneslaan",
    "huisnummer": "14",
    "naam": null,
    "geldig_vanaf": null,
    "wijk_code": null
  },
  {
    "vge_id": 414872,
    "Lat": 52.35918045043945,
    "Long": 6.63872766494751,
    "Postcode": "7604KV",
    "Straat": "Catharina van Renneslaan",
    "huisnummer": "16",
    "naam": null,
    "geldig_vanaf": null,
    "wijk_code": null
  },
  {
    "vge_id": 414873,
    "Lat": 52.35920333862305,
    "Long": 6.638832092285156,
    "Postcode": "7604KV",
    "Straat": "Catharina van Renneslaan",
    "huisnummer": "18",
    "naam": null,
    "geldig_vanaf": null,
    "wijk_code": null
  },
  {
    "vge_id": 414874,
    "Lat": 52.35923767089844,
    "Long": 6.638937950134277,
    "Postcode": "7604KV",
    "Straat": "Catharina van Renneslaan",
    "huisnummer": "20",
    "naam": null,
    "geldig_vanaf": null,
    "wijk_code": null
  },
  {
    "vge_id": 414875,
    "Lat": 52.35928726196289,
    "Long": 6.639005184173584,
    "Postcode": "7604KV",
    "Straat": "Catharina van Renneslaan",
    "huisnummer": "22",
    "naam": null,
    "geldig_vanaf": null,
    "wijk_code": null
  },
  {
    "vge_id": 414876,
    "Lat": 52.35934829711914,
    "Long": 6.639054298400879,
    "Postcode": "7604KV",
    "Straat": "Catharina van Renneslaan",
    "huisnummer": "24",
    "naam": null,
    "geldig_vanaf": null,
    "wijk_code": null
  },
  {
    "vge_id": 414877,
    "Lat": 52.359413146972656,
    "Long": 6.639078140258789,
    "Postcode": "7604KV",
    "Straat": "Catharina van Renneslaan",
    "huisnummer": "26",
    "naam": null,
    "geldig_vanaf": null,
    "wijk_code": null
  },
  {
    "vge_id": 414878,
    "Lat": 52.35947799682617,
    "Long": 6.639070510864258,
    "Postcode": "7604KV",
    "Straat": "Catharina van Renneslaan",
    "huisnummer": "28",
    "naam": null,
    "geldig_vanaf": null,
    "wijk_code": null
  },
  {
    "vge_id": 414879,
    "Lat": 52.35951614379883,
    "Long": 6.63890266418457,
    "Postcode": "7604KV",
    "Straat": "Catharina van Renneslaan",
    "huisnummer": "30",
    "naam": null,
    "geldig_vanaf": null,
    "wijk_code": null
  },
  {
    "vge_id": 414880,
    "Lat": 52.35947036743164,
    "Long": 6.6388421058654785,
    "Postcode": "7604KV",
    "Straat": "Catharina van Renneslaan",
    "huisnummer": "32",
    "naam": null,
    "geldig_vanaf": null,
    "wijk_code": null
  },
  {
    "vge_id": 414881,
    "Lat": 52.35941696166992,
    "Long": 6.6387715339660645,
    "Postcode": "7604KV",
    "Straat": "Catharina van Renneslaan",
    "huisnummer": "34",
    "naam": null,
    "geldig_vanaf": null,
    "wijk_code": null
  },
  {
    "vge_id": 414882,
    "Lat": 52.35936737060547,
    "Long": 6.63870096206665,
    "Postcode": "7604KV",
    "Straat": "Catharina van Renneslaan",
    "huisnummer": "36",
    "naam": null,
    "geldig_vanaf": null,
    "wijk_code": null
  },
  {
    "vge_id": 414883,
    "Lat": 52.35932159423828,
    "Long": 6.638645648956299,
    "Postcode": "7604KV",
    "Straat": "Catharina van Renneslaan",
    "huisnummer": "38",
    "naam": null,
    "geldig_vanaf": null,
    "wijk_code": null
  },
  {
    "vge_id": 414884,
    "Lat": 52.35916519165039,
    "Long": 6.638730049133301,
    "Postcode": "7604KV",
    "Straat": "Catharina van Renneslaan",
    "huisnummer": "40",
    "naam": null,
    "geldig_vanaf": null,
    "wijk_code": null
  },
  {
    "vge_id": 414885,
    "Lat": 52.35918426513672,
    "Long": 6.638839244842529,
    "Postcode": "7604KV",
    "Straat": "Catharina van Renneslaan",
    "huisnummer": "42",
    "naam": null,
    "geldig_vanaf": null,
    "wijk_code": null
  },
  {
    "vge_id": 414886,
    "Lat": 52.35922622680664,
    "Long": 6.638944625854492,
    "Postcode": "7604KV",
    "Straat": "Catharina van Renneslaan",
    "huisnummer": "44",
    "naam": null,
    "geldig_vanaf": null,
    "wijk_code": null
  },
  {
    "vge_id": 414887,
    "Lat": 52.35927963256836,
    "Long": 6.639023303985596,
    "Postcode": "7604KV",
    "Straat": "Catharina van Renneslaan",
    "huisnummer": "46",
    "naam": null,
    "geldig_vanaf": null,
    "wijk_code": null
  },
  {
    "vge_id": 414888,
    "Lat": 52.359344482421875,
    "Long": 6.6390700340271,
    "Postcode": "7604KV",
    "Straat": "Catharina van Renneslaan",
    "huisnummer": "48",
    "naam": null,
    "geldig_vanaf": null,
    "wijk_code": null
  },
  {
    "vge_id": 414889,
    "Lat": 52.35940933227539,
    "Long": 6.639101505279541,
    "Postcode": "7604KV",
    "Straat": "Catharina van Renneslaan",
    "huisnummer": "50",
    "naam": null,
    "geldig_vanaf": null,
    "wijk_code": null
  },
  {
    "vge_id": 414890,
    "Lat": 52.35947799682617,
    "Long": 6.639090061187744,
    "Postcode": "7604KV",
    "Straat": "Catharina van Renneslaan",
    "huisnummer": "52",
    "naam": null,
    "geldig_vanaf": null,
    "wijk_code": null
  },
  {
    "vge_id": 414891,
    "Lat": 52.35953140258789,
    "Long": 6.638879299163818,
    "Postcode": "7604KV",
    "Straat": "Catharina van Renneslaan",
    "huisnummer": "54",
    "naam": null,
    "geldig_vanaf": null,
    "wijk_code": null
  },
  {
    "vge_id": 414892,
    "Lat": 52.3594856262207,
    "Long": 6.638814449310303,
    "Postcode": "7604KV",
    "Straat": "Catharina van Renneslaan",
    "huisnummer": "56",
    "naam": null,
    "geldig_vanaf": null,
    "wijk_code": null
  },
  {
    "vge_id": 414893,
    "Lat": 52.35942840576172,
    "Long": 6.638744354248047,
    "Postcode": "7604KV",
    "Straat": "Catharina van Renneslaan",
    "huisnummer": "58",
    "naam": null,
    "geldig_vanaf": null,
    "wijk_code": null
  },
  {
    "vge_id": 414894,
    "Lat": 52.35938262939453,
    "Long": 6.638674736022949,
    "Postcode": "7604KV",
    "Straat": "Catharina van Renneslaan",
    "huisnummer": "60",
    "naam": null,
    "geldig_vanaf": null,
    "wijk_code": null
  },
  {
    "vge_id": 414895,
    "Lat": 52.35933303833008,
    "Long": 6.638619422912598,
    "Postcode": "7604KV",
    "Straat": "Catharina van Renneslaan",
    "huisnummer": "62",
    "naam": null,
    "geldig_vanaf": null,
    "wijk_code": null
  },
  {
    "vge_id": 414896,
    "Lat": 52.35914993286133,
    "Long": 6.638729572296143,
    "Postcode": "7604KV",
    "Straat": "Catharina van Renneslaan",
    "huisnummer": "64",
    "naam": null,
    "geldig_vanaf": null,
    "wijk_code": null
  },
  {
    "vge_id": 414897,
    "Lat": 52.35917282104492,
    "Long": 6.638839244842529,
    "Postcode": "7604KV",
    "Straat": "Catharina van Renneslaan",
    "huisnummer": "66",
    "naam": null,
    "geldig_vanaf": null,
    "wijk_code": null
  },
  {
    "vge_id": 414898,
    "Lat": 52.35921096801758,
    "Long": 6.638955116271973,
    "Postcode": "7604KV",
    "Straat": "Catharina van Renneslaan",
    "huisnummer": "68",
    "naam": null,
    "geldig_vanaf": null,
    "wijk_code": null
  },
  {
    "vge_id": 414899,
    "Lat": 52.35927200317383,
    "Long": 6.639039993286133,
    "Postcode": "7604KV",
    "Straat": "Catharina van Renneslaan",
    "huisnummer": "70",
    "naam": null,
    "geldig_vanaf": null,
    "wijk_code": null
  },
  {
    "vge_id": 414900,
    "Lat": 52.359336853027344,
    "Long": 6.639085292816162,
    "Postcode": "7604KV",
    "Straat": "Catharina van Renneslaan",
    "huisnummer": "72",
    "naam": null,
    "geldig_vanaf": null,
    "wijk_code": null
  },
  {
    "vge_id": 414901,
    "Lat": 52.35940933227539,
    "Long": 6.639124393463135,
    "Postcode": "7604KV",
    "Straat": "Catharina van Renneslaan",
    "huisnummer": "74",
    "naam": null,
    "geldig_vanaf": null,
    "wijk_code": null
  },
  {
    "vge_id": 414902,
    "Lat": 52.359474182128906,
    "Long": 6.6391096115112305,
    "Postcode": "7604KV",
    "Straat": "Catharina van Renneslaan",
    "huisnummer": "76",
    "naam": null,
    "geldig_vanaf": null,
    "wijk_code": null
  },
  {
    "vge_id": 414903,
    "Lat": 52.35954284667969,
    "Long": 6.638847827911377,
    "Postcode": "7604KV",
    "Straat": "Catharina van Renneslaan",
    "huisnummer": "78",
    "naam": null,
    "geldig_vanaf": null,
    "wijk_code": null
  },
  {
    "vge_id": 414904,
    "Lat": 52.359500885009766,
    "Long": 6.638782978057861,
    "Postcode": "7604KV",
    "Straat": "Catharina van Renneslaan",
    "huisnummer": "80",
    "naam": null,
    "geldig_vanaf": null,
    "wijk_code": null
  },
  {
    "vge_id": 414905,
    "Lat": 52.35944747924805,
    "Long": 6.6387152671813965,
    "Postcode": "7604KV",
    "Straat": "Catharina van Renneslaan",
    "huisnummer": "82",
    "naam": null,
    "geldig_vanaf": null,
    "wijk_code": null
  },
  {
    "vge_id": 414906,
    "Lat": 52.359397888183594,
    "Long": 6.638646125793457,
    "Postcode": "7604KV",
    "Straat": "Catharina van Renneslaan",
    "huisnummer": "84",
    "naam": null,
    "geldig_vanaf": null,
    "wijk_code": null
  },
  {
    "vge_id": 414907,
    "Lat": 52.35934829711914,
    "Long": 6.6385908126831055,
    "Postcode": "7604KV",
    "Straat": "Catharina van Renneslaan",
    "huisnummer": "86",
    "naam": null,
    "geldig_vanaf": null,
    "wijk_code": null
  },
  {
    "vge_id": 414908,
    "Lat": 52.359134674072266,
    "Long": 6.638731956481934,
    "Postcode": "7604KV",
    "Straat": "Catharina van Renneslaan",
    "huisnummer": "88",
    "naam": null,
    "geldig_vanaf": null,
    "wijk_code": null
  },
  {
    "vge_id": 414909,
    "Lat": 52.35915756225586,
    "Long": 6.638844013214111,
    "Postcode": "7604KV",
    "Straat": "Catharina van Renneslaan",
    "huisnummer": "90",
    "naam": null,
    "geldig_vanaf": null,
    "wijk_code": null
  },
  {
    "vge_id": 414910,
    "Lat": 52.35919952392578,
    "Long": 6.6389617919921875,
    "Postcode": "7604KV",
    "Straat": "Catharina van Renneslaan",
    "huisnummer": "92",
    "naam": null,
    "geldig_vanaf": null,
    "wijk_code": null
  },
  {
    "vge_id": 414911,
    "Lat": 52.3592643737793,
    "Long": 6.639052391052246,
    "Postcode": "7604KV",
    "Straat": "Catharina van Renneslaan",
    "huisnummer": "94",
    "naam": null,
    "geldig_vanaf": null,
    "wijk_code": null
  },
  {
    "vge_id": 414912,
    "Lat": 52.35932922363281,
    "Long": 6.639102458953857,
    "Postcode": "7604KV",
    "Straat": "Catharina van Renneslaan",
    "huisnummer": "96",
    "naam": null,
    "geldig_vanaf": null,
    "wijk_code": null
  },
  {
    "vge_id": 414913,
    "Lat": 52.359405517578125,
    "Long": 6.6391448974609375,
    "Postcode": "7604KV",
    "Straat": "Catharina van Renneslaan",
    "huisnummer": "98",
    "naam": null,
    "geldig_vanaf": null,
    "wijk_code": null
  },
  {
    "vge_id": 414914,
    "Lat": 52.35947799682617,
    "Long": 6.639140605926514,
    "Postcode": "7604KV",
    "Straat": "Catharina van Renneslaan",
    "huisnummer": "100",
    "naam": null,
    "geldig_vanaf": null,
    "wijk_code": null
  },
  {
    "vge_id": 414915,
    "Lat": 52.359554290771484,
    "Long": 6.638819217681885,
    "Postcode": "7604KV",
    "Straat": "Catharina van Renneslaan",
    "huisnummer": "102",
    "naam": null,
    "geldig_vanaf": null,
    "wijk_code": null
  },
  {
    "vge_id": 414916,
    "Lat": 52.35951232910156,
    "Long": 6.638760089874268,
    "Postcode": "7604KV",
    "Straat": "Catharina van Renneslaan",
    "huisnummer": "104",
    "naam": null,
    "geldig_vanaf": null,
    "wijk_code": null
  },
  {
    "vge_id": 414917,
    "Lat": 52.359458923339844,
    "Long": 6.638688564300537,
    "Postcode": "7604KV",
    "Straat": "Catharina van Renneslaan",
    "huisnummer": "106",
    "naam": null,
    "geldig_vanaf": null,
    "wijk_code": null
  },
  {
    "vge_id": 414918,
    "Lat": 52.359413146972656,
    "Long": 6.638620853424072,
    "Postcode": "7604KV",
    "Straat": "Catharina van Renneslaan",
    "huisnummer": "108",
    "naam": null,
    "geldig_vanaf": null,
    "wijk_code": null
  },
  {
    "vge_id": 414919,
    "Lat": 52.3593635559082,
    "Long": 6.638563632965088,
    "Postcode": "7604KV",
    "Straat": "Catharina van Renneslaan",
    "huisnummer": "110",
    "naam": null,
    "geldig_vanaf": null,
    "wijk_code": null
  },
  {
    "vge_id": 414920,
    "Lat": 52.35956954956055,
    "Long": 6.638792514801025,
    "Postcode": "7604KV",
    "Straat": "Catharina van Renneslaan",
    "huisnummer": "112",
    "naam": null,
    "geldig_vanaf": null,
    "wijk_code": null
  },
  {
    "vge_id": 414921,
    "Lat": 52.359527587890625,
    "Long": 6.638736724853516,
    "Postcode": "7604KV",
    "Straat": "Catharina van Renneslaan",
    "huisnummer": "114",
    "naam": null,
    "geldig_vanaf": null,
    "wijk_code": null
  },
  {
    "vge_id": 414922,
    "Lat": 52.359474182128906,
    "Long": 6.638667583465576,
    "Postcode": "7604KV",
    "Straat": "Catharina van Renneslaan",
    "huisnummer": "116",
    "naam": null,
    "geldig_vanaf": null,
    "wijk_code": null
  },
  {
    "vge_id": 414923,
    "Lat": 52.35942459106445,
    "Long": 6.638598918914795,
    "Postcode": "7604KV",
    "Straat": "Catharina van Renneslaan",
    "huisnummer": "118",
    "naam": null,
    "geldig_vanaf": null,
    "wijk_code": null
  },
  {
    "vge_id": 414924,
    "Lat": 52.359375,
    "Long": 6.638532638549805,
    "Postcode": "7604KV",
    "Straat": "Catharina van Renneslaan",
    "huisnummer": "120",
    "naam": null,
    "geldig_vanaf": null,
    "wijk_code": null
  },
  {
    "vge_id": 415191,
    "Lat": 52.37075424194336,
    "Long": 5.213932037353516,
    "Postcode": "1315GT",
    "Straat": "Meesterstraat",
    "huisnummer": "21",
    "naam": null,
    "geldig_vanaf": null,
    "wijk_code": null
  },
  {
    "vge_id": 415192,
    "Lat": 52.370811462402344,
    "Long": 5.213909149169922,
    "Postcode": "1315GT",
    "Straat": "Meesterstraat",
    "huisnummer": "22",
    "naam": null,
    "geldig_vanaf": null,
    "wijk_code": null
  },
  {
    "vge_id": 415193,
    "Lat": 52.37086486816406,
    "Long": 5.213889122009277,
    "Postcode": "1315GT",
    "Straat": "Meesterstraat",
    "huisnummer": "23",
    "naam": null,
    "geldig_vanaf": null,
    "wijk_code": null
  },
  {
    "vge_id": 415194,
    "Lat": 52.37092208862305,
    "Long": 5.213865280151367,
    "Postcode": "1315GT",
    "Straat": "Meesterstraat",
    "huisnummer": "24",
    "naam": null,
    "geldig_vanaf": null,
    "wijk_code": null
  },
  {
    "vge_id": 415195,
    "Lat": 52.3709831237793,
    "Long": 5.213841438293457,
    "Postcode": "1315GT",
    "Straat": "Meesterstraat",
    "huisnummer": "25",
    "naam": null,
    "geldig_vanaf": null,
    "wijk_code": null
  },
  {
    "vge_id": 415196,
    "Lat": 52.371036529541016,
    "Long": 5.21381950378418,
    "Postcode": "1315GT",
    "Straat": "Meesterstraat",
    "huisnummer": "26",
    "naam": null,
    "geldig_vanaf": null,
    "wijk_code": null
  },
  {
    "vge_id": 415197,
    "Lat": 52.37109375,
    "Long": 5.213797569274902,
    "Postcode": "1315GT",
    "Straat": "Meesterstraat",
    "huisnummer": "27",
    "naam": null,
    "geldig_vanaf": null,
    "wijk_code": null
  },
  {
    "vge_id": 415198,
    "Lat": 52.37115478515625,
    "Long": 5.213770866394043,
    "Postcode": "1315GT",
    "Straat": "Meesterstraat",
    "huisnummer": "28",
    "naam": null,
    "geldig_vanaf": null,
    "wijk_code": null
  },
  {
    "vge_id": 415199,
    "Lat": 52.37074661254883,
    "Long": 5.213897228240967,
    "Postcode": "1315GT",
    "Straat": "Meesterstraat",
    "huisnummer": "29",
    "naam": null,
    "geldig_vanaf": null,
    "wijk_code": null
  },
  {
    "vge_id": 415200,
    "Lat": 52.37080764770508,
    "Long": 5.2138752937316895,
    "Postcode": "1315GT",
    "Straat": "Meesterstraat",
    "huisnummer": "30",
    "naam": null,
    "geldig_vanaf": null,
    "wijk_code": null
  },
  {
    "vge_id": 415201,
    "Lat": 52.37085723876953,
    "Long": 5.213852882385254,
    "Postcode": "1315GT",
    "Straat": "Meesterstraat",
    "huisnummer": "31",
    "naam": null,
    "geldig_vanaf": null,
    "wijk_code": null
  },
  {
    "vge_id": 415202,
    "Lat": 52.370914459228516,
    "Long": 5.213829517364502,
    "Postcode": "1315GT",
    "Straat": "Meesterstraat",
    "huisnummer": "32",
    "naam": null,
    "geldig_vanaf": null,
    "wijk_code": null
  },
  {
    "vge_id": 415203,
    "Lat": 52.370975494384766,
    "Long": 5.213807106018066,
    "Postcode": "1315GT",
    "Straat": "Meesterstraat",
    "huisnummer": "33",
    "naam": null,
    "geldig_vanaf": null,
    "wijk_code": null
  },
  {
    "vge_id": 415204,
    "Lat": 52.37103271484375,
    "Long": 5.2137837409973145,
    "Postcode": "1315GT",
    "Straat": "Meesterstraat",
    "huisnummer": "34",
    "naam": null,
    "geldig_vanaf": null,
    "wijk_code": null
  },
  {
    "vge_id": 415205,
    "Lat": 52.37108612060547,
    "Long": 5.213761806488037,
    "Postcode": "1315GT",
    "Straat": "Meesterstraat",
    "huisnummer": "35",
    "naam": null,
    "geldig_vanaf": null,
    "wijk_code": null
  },
  {
    "vge_id": 415206,
    "Lat": 52.371150970458984,
    "Long": 5.213735103607178,
    "Postcode": "1315GT",
    "Straat": "Meesterstraat",
    "huisnummer": "36",
    "naam": null,
    "geldig_vanaf": null,
    "wijk_code": null
  },
  {
    "vge_id": 415207,
    "Lat": 52.371280670166016,
    "Long": 5.2136921882629395,
    "Postcode": "1315GT",
    "Straat": "Meesterstraat",
    "huisnummer": "37",
    "naam": null,
    "geldig_vanaf": null,
    "wijk_code": null
  },
  {
    "vge_id": 415208,
    "Lat": 52.371273040771484,
    "Long": 5.213647842407227,
    "Postcode": "1315GT",
    "Straat": "Meesterstraat",
    "huisnummer": "38",
    "naam": null,
    "geldig_vanaf": null,
    "wijk_code": null
  },
  {
    "vge_id": 415209,
    "Lat": 52.37126922607422,
    "Long": 5.213601112365723,
    "Postcode": "1315GT",
    "Straat": "Meesterstraat",
    "huisnummer": "39",
    "naam": null,
    "geldig_vanaf": null,
    "wijk_code": null
  },
  {
    "vge_id": 415210,
    "Lat": 52.37126159667969,
    "Long": 5.2135515213012695,
    "Postcode": "1315GT",
    "Straat": "Meesterstraat",
    "huisnummer": "40",
    "naam": null,
    "geldig_vanaf": null,
    "wijk_code": null
  },
  {
    "vge_id": 415211,
    "Lat": 52.37125778198242,
    "Long": 5.213504314422607,
    "Postcode": "1315GT",
    "Straat": "Meesterstraat",
    "huisnummer": "41",
    "naam": null,
    "geldig_vanaf": null,
    "wijk_code": null
  },
  {
    "vge_id": 415212,
    "Lat": 52.37074279785156,
    "Long": 5.213864803314209,
    "Postcode": "1315GV",
    "Straat": "Meesterstraat",
    "huisnummer": "42",
    "naam": null,
    "geldig_vanaf": null,
    "wijk_code": null
  },
  {
    "vge_id": 415213,
    "Lat": 52.37080001831055,
    "Long": 5.213840961456299,
    "Postcode": "1315GV",
    "Straat": "Meesterstraat",
    "huisnummer": "43",
    "naam": null,
    "geldig_vanaf": null,
    "wijk_code": null
  },
  {
    "vge_id": 415214,
    "Lat": 52.370853424072266,
    "Long": 5.21381950378418,
    "Postcode": "1315GV",
    "Straat": "Meesterstraat",
    "huisnummer": "44",
    "naam": null,
    "geldig_vanaf": null,
    "wijk_code": null
  },
  {
    "vge_id": 415215,
    "Lat": 52.37091064453125,
    "Long": 5.2137956619262695,
    "Postcode": "1315GV",
    "Straat": "Meesterstraat",
    "huisnummer": "45",
    "naam": null,
    "geldig_vanaf": null,
    "wijk_code": null
  },
  {
    "vge_id": 415216,
    "Lat": 52.3709716796875,
    "Long": 5.213773727416992,
    "Postcode": "1315GV",
    "Straat": "Meesterstraat",
    "huisnummer": "46",
    "naam": null,
    "geldig_vanaf": null,
    "wijk_code": null
  },
  {
    "vge_id": 415217,
    "Lat": 52.37102508544922,
    "Long": 5.213749885559082,
    "Postcode": "1315GV",
    "Straat": "Meesterstraat",
    "huisnummer": "47",
    "naam": null,
    "geldig_vanaf": null,
    "wijk_code": null
  },
  {
    "vge_id": 415218,
    "Lat": 52.3710823059082,
    "Long": 5.213727951049805,
    "Postcode": "1315GV",
    "Straat": "Meesterstraat",
    "huisnummer": "48",
    "naam": null,
    "geldig_vanaf": null,
    "wijk_code": null
  },
  {
    "vge_id": 415219,
    "Lat": 52.37114715576172,
    "Long": 5.213700771331787,
    "Postcode": "1315GV",
    "Straat": "Meesterstraat",
    "huisnummer": "49",
    "naam": null,
    "geldig_vanaf": null,
    "wijk_code": null
  },
  {
    "vge_id": 415220,
    "Lat": 52.37130355834961,
    "Long": 5.213683128356934,
    "Postcode": "1315GV",
    "Straat": "Meesterstraat",
    "huisnummer": "50",
    "naam": null,
    "geldig_vanaf": null,
    "wijk_code": null
  },
  {
    "vge_id": 415221,
    "Lat": 52.371299743652344,
    "Long": 5.213637828826904,
    "Postcode": "1315GV",
    "Straat": "Meesterstraat",
    "huisnummer": "51",
    "naam": null,
    "geldig_vanaf": null,
    "wijk_code": null
  },
  {
    "vge_id": 415222,
    "Lat": 52.37129211425781,
    "Long": 5.213593482971191,
    "Postcode": "1315GV",
    "Straat": "Meesterstraat",
    "huisnummer": "52",
    "naam": null,
    "geldig_vanaf": null,
    "wijk_code": null
  },
  {
    "vge_id": 415223,
    "Lat": 52.37128448486328,
    "Long": 5.213542461395264,
    "Postcode": "1315GV",
    "Straat": "Meesterstraat",
    "huisnummer": "53",
    "naam": null,
    "geldig_vanaf": null,
    "wijk_code": null
  },
  {
    "vge_id": 415224,
    "Lat": 52.371280670166016,
    "Long": 5.213493824005127,
    "Postcode": "1315GV",
    "Straat": "Meesterstraat",
    "huisnummer": "54",
    "naam": null,
    "geldig_vanaf": null,
    "wijk_code": null
  },
  {
    "vge_id": 415225,
    "Lat": 52.3707389831543,
    "Long": 5.213831424713135,
    "Postcode": "1315GV",
    "Straat": "Meesterstraat",
    "huisnummer": "55",
    "naam": null,
    "geldig_vanaf": null,
    "wijk_code": null
  },
  {
    "vge_id": 415226,
    "Lat": 52.37079620361328,
    "Long": 5.213807582855225,
    "Postcode": "1315GV",
    "Straat": "Meesterstraat",
    "huisnummer": "56",
    "naam": null,
    "geldig_vanaf": null,
    "wijk_code": null
  },
  {
    "vge_id": 415227,
    "Lat": 52.370845794677734,
    "Long": 5.2137861251831055,
    "Postcode": "1315GV",
    "Straat": "Meesterstraat",
    "huisnummer": "57",
    "naam": null,
    "geldig_vanaf": null,
    "wijk_code": null
  },
  {
    "vge_id": 415228,
    "Lat": 52.370906829833984,
    "Long": 5.21376371383667,
    "Postcode": "1315GV",
    "Straat": "Meesterstraat",
    "huisnummer": "58",
    "naam": null,
    "geldig_vanaf": null,
    "wijk_code": null
  },
  {
    "vge_id": 415229,
    "Lat": 52.37096405029297,
    "Long": 5.213741302490234,
    "Postcode": "1315GV",
    "Straat": "Meesterstraat",
    "huisnummer": "59",
    "naam": null,
    "geldig_vanaf": null,
    "wijk_code": null
  },
  {
    "vge_id": 415230,
    "Lat": 52.37102127075195,
    "Long": 5.213717460632324,
    "Postcode": "1315GV",
    "Straat": "Meesterstraat",
    "huisnummer": "60",
    "naam": null,
    "geldig_vanaf": null,
    "wijk_code": null
  },
  {
    "vge_id": 415231,
    "Lat": 52.37107467651367,
    "Long": 5.213695526123047,
    "Postcode": "1315GV",
    "Straat": "Meesterstraat",
    "huisnummer": "61",
    "naam": null,
    "geldig_vanaf": null,
    "wijk_code": null
  },
  {
    "vge_id": 415232,
    "Lat": 52.37113952636719,
    "Long": 5.213669300079346,
    "Postcode": "1315GV",
    "Straat": "Meesterstraat",
    "huisnummer": "62",
    "naam": null,
    "geldig_vanaf": null,
    "wijk_code": null
  },
  {
    "vge_id": 415233,
    "Lat": 52.3713264465332,
    "Long": 5.2136735916137695,
    "Postcode": "1315GV",
    "Straat": "Meesterstraat",
    "huisnummer": "63",
    "naam": null,
    "geldig_vanaf": null,
    "wijk_code": null
  },
  {
    "vge_id": 415234,
    "Lat": 52.37131881713867,
    "Long": 5.213630199432373,
    "Postcode": "1315GV",
    "Straat": "Meesterstraat",
    "huisnummer": "64",
    "naam": null,
    "geldig_vanaf": null,
    "wijk_code": null
  },
  {
    "vge_id": 415235,
    "Lat": 52.37131118774414,
    "Long": 5.213582992553711,
    "Postcode": "1315GV",
    "Straat": "Meesterstraat",
    "huisnummer": "65",
    "naam": null,
    "geldig_vanaf": null,
    "wijk_code": null
  },
  {
    "vge_id": 415236,
    "Lat": 52.371307373046875,
    "Long": 5.213535308837891,
    "Postcode": "1315GV",
    "Straat": "Meesterstraat",
    "huisnummer": "66",
    "naam": null,
    "geldig_vanaf": null,
    "wijk_code": null
  },
  {
    "vge_id": 415237,
    "Lat": 52.371299743652344,
    "Long": 5.213487148284912,
    "Postcode": "1315GV",
    "Straat": "Meesterstraat",
    "huisnummer": "67",
    "naam": null,
    "geldig_vanaf": null,
    "wijk_code": null
  },
  {
    "vge_id": 415238,
    "Lat": 52.37128448486328,
    "Long": 5.213398456573486,
    "Postcode": "1315GV",
    "Straat": "Meesterstraat",
    "huisnummer": "68",
    "naam": null,
    "geldig_vanaf": null,
    "wijk_code": null
  },
  {
    "vge_id": 415239,
    "Lat": 52.37129211425781,
    "Long": 5.213434219360352,
    "Postcode": "1315GV",
    "Straat": "Meesterstraat",
    "huisnummer": "69",
    "naam": null,
    "geldig_vanaf": null,
    "wijk_code": null
  },
  {
    "vge_id": 415240,
    "Lat": 52.371253967285156,
    "Long": 5.213123798370361,
    "Postcode": "1315GV",
    "Straat": "Meesterstraat",
    "huisnummer": "69",
    "naam": null,
    "geldig_vanaf": null,
    "wijk_code": null
  },
  {
    "vge_id": 415860,
    "Lat": 52.1904182434082,
    "Long": 5.388960361480713,
    "Postcode": "3823DG",
    "Straat": "Petrus Hotton-serre",
    "huisnummer": "1",
    "naam": null,
    "geldig_vanaf": null,
    "wijk_code": null
  },
  {
    "vge_id": 415861,
    "Lat": 52.19050598144531,
    "Long": 5.388833522796631,
    "Postcode": "3823DG",
    "Straat": "Petrus Hotton-serre",
    "huisnummer": "2",
    "naam": null,
    "geldig_vanaf": null,
    "wijk_code": null
  },
  {
    "vge_id": 415862,
    "Lat": 52.19036102294922,
    "Long": 5.388854026794434,
    "Postcode": "3823DG",
    "Straat": "Petrus Hotton-serre",
    "huisnummer": "3",
    "naam": null,
    "geldig_vanaf": null,
    "wijk_code": null
  },
  {
    "vge_id": 415863,
    "Lat": 52.19044494628906,
    "Long": 5.388742446899414,
    "Postcode": "3823DG",
    "Straat": "Petrus Hotton-serre",
    "huisnummer": "4",
    "naam": null,
    "geldig_vanaf": null,
    "wijk_code": null
  },
  {
    "vge_id": 415864,
    "Lat": 52.190303802490234,
    "Long": 5.388742446899414,
    "Postcode": "3823DG",
    "Straat": "Petrus Hotton-serre",
    "huisnummer": "5",
    "naam": null,
    "geldig_vanaf": null,
    "wijk_code": null
  },
  {
    "vge_id": 415865,
    "Lat": 52.19038391113281,
    "Long": 5.3886284828186035,
    "Postcode": "3823DG",
    "Straat": "Petrus Hotton-serre",
    "huisnummer": "6",
    "naam": null,
    "geldig_vanaf": null,
    "wijk_code": null
  },
  {
    "vge_id": 415866,
    "Lat": 52.190242767333984,
    "Long": 5.388623237609863,
    "Postcode": "3823DG",
    "Straat": "Petrus Hotton-serre",
    "huisnummer": "7",
    "naam": null,
    "geldig_vanaf": null,
    "wijk_code": null
  },
  {
    "vge_id": 415867,
    "Lat": 52.1903190612793,
    "Long": 5.3885064125061035,
    "Postcode": "3823DG",
    "Straat": "Petrus Hotton-serre",
    "huisnummer": "8",
    "naam": null,
    "geldig_vanaf": null,
    "wijk_code": null
  },
  {
    "vge_id": 415868,
    "Lat": 52.19019317626953,
    "Long": 5.388542175292969,
    "Postcode": "3823DG",
    "Straat": "Petrus Hotton-serre",
    "huisnummer": "9",
    "naam": null,
    "geldig_vanaf": null,
    "wijk_code": null
  },
  {
    "vge_id": 415869,
    "Lat": 52.190277099609375,
    "Long": 5.388420581817627,
    "Postcode": "3823DG",
    "Straat": "Petrus Hotton-serre",
    "huisnummer": "10",
    "naam": null,
    "geldig_vanaf": null,
    "wijk_code": null
  },
  {
    "vge_id": 415870,
    "Lat": 52.19038772583008,
    "Long": 5.389021396636963,
    "Postcode": "3823DG",
    "Straat": "Petrus Hotton-serre",
    "huisnummer": "11",
    "naam": null,
    "geldig_vanaf": null,
    "wijk_code": null
  },
  {
    "vge_id": 415871,
    "Lat": 52.19054412841797,
    "Long": 5.388782978057861,
    "Postcode": "3823DG",
    "Straat": "Petrus Hotton-serre",
    "huisnummer": "12",
    "naam": null,
    "geldig_vanaf": null,
    "wijk_code": null
  },
  {
    "vge_id": 415872,
    "Lat": 52.19034957885742,
    "Long": 5.388952732086182,
    "Postcode": "3823DG",
    "Straat": "Petrus Hotton-serre",
    "huisnummer": "13",
    "naam": null,
    "geldig_vanaf": null,
    "wijk_code": null
  },
  {
    "vge_id": 415873,
    "Lat": 52.19050979614258,
    "Long": 5.38871955871582,
    "Postcode": "3823DG",
    "Straat": "Petrus Hotton-serre",
    "huisnummer": "14",
    "naam": null,
    "geldig_vanaf": null,
    "wijk_code": null
  },
  {
    "vge_id": 415874,
    "Lat": 52.1903076171875,
    "Long": 5.388871669769287,
    "Postcode": "3823DG",
    "Straat": "Petrus Hotton-serre",
    "huisnummer": "15",
    "naam": null,
    "geldig_vanaf": null,
    "wijk_code": null
  },
  {
    "vge_id": 415875,
    "Lat": 52.190467834472656,
    "Long": 5.388643741607666,
    "Postcode": "3823DG",
    "Straat": "Petrus Hotton-serre",
    "huisnummer": "16",
    "naam": null,
    "geldig_vanaf": null,
    "wijk_code": null
  },
  {
    "vge_id": 415876,
    "Lat": 52.19027328491211,
    "Long": 5.388813495635986,
    "Postcode": "3823DG",
    "Straat": "Petrus Hotton-serre",
    "huisnummer": "17",
    "naam": null,
    "geldig_vanaf": null,
    "wijk_code": null
  },
  {
    "vge_id": 415877,
    "Lat": 52.190433502197266,
    "Long": 5.388587474822998,
    "Postcode": "3823DG",
    "Straat": "Petrus Hotton-serre",
    "huisnummer": "18",
    "naam": null,
    "geldig_vanaf": null,
    "wijk_code": null
  },
  {
    "vge_id": 415878,
    "Lat": 52.19023895263672,
    "Long": 5.388744831085205,
    "Postcode": "3823DG",
    "Straat": "Petrus Hotton-serre",
    "huisnummer": "19",
    "naam": null,
    "geldig_vanaf": null,
    "wijk_code": null
  },
  {
    "vge_id": 415879,
    "Lat": 52.19039535522461,
    "Long": 5.388511657714844,
    "Postcode": "3823DG",
    "Straat": "Petrus Hotton-serre",
    "huisnummer": "20",
    "naam": null,
    "geldig_vanaf": null,
    "wijk_code": null
  },
  {
    "vge_id": 415880,
    "Lat": 52.19020080566406,
    "Long": 5.388673782348633,
    "Postcode": "3823DG",
    "Straat": "Petrus Hotton-serre",
    "huisnummer": "21",
    "naam": null,
    "geldig_vanaf": null,
    "wijk_code": null
  },
  {
    "vge_id": 415881,
    "Lat": 52.19035339355469,
    "Long": 5.3884382247924805,
    "Postcode": "3823DG",
    "Straat": "Petrus Hotton-serre",
    "huisnummer": "22",
    "naam": null,
    "geldig_vanaf": null,
    "wijk_code": null
  },
  {
    "vge_id": 415882,
    "Lat": 52.19015884399414,
    "Long": 5.3886003494262695,
    "Postcode": "3823DG",
    "Straat": "Petrus Hotton-serre",
    "huisnummer": "23",
    "naam": null,
    "geldig_vanaf": null,
    "wijk_code": null
  },
  {
    "vge_id": 415883,
    "Lat": 52.190311431884766,
    "Long": 5.388364315032959,
    "Postcode": "3823DG",
    "Straat": "Petrus Hotton-serre",
    "huisnummer": "24",
    "naam": null,
    "geldig_vanaf": null,
    "wijk_code": null
  },
  {
    "vge_id": 416038,
    "Lat": 52.29621124267578,
    "Long": 4.845788955688477,
    "Postcode": "1185HT",
    "Straat": "Keizer Karelweg",
    "huisnummer": "2",
    "naam": null,
    "geldig_vanaf": null,
    "wijk_code": null
  },
  {
    "vge_id": 416039,
    "Lat": 52.29620361328125,
    "Long": 4.8459601402282715,
    "Postcode": "1185HT",
    "Straat": "Keizer Karelweg",
    "huisnummer": "2",
    "naam": null,
    "geldig_vanaf": null,
    "wijk_code": null
  },
  {
    "vge_id": 416040,
    "Lat": 52.29620361328125,
    "Long": 4.846019268035889,
    "Postcode": "1185HT",
    "Straat": "Keizer Karelweg",
    "huisnummer": "2",
    "naam": null,
    "geldig_vanaf": null,
    "wijk_code": null
  },
  {
    "vge_id": 416041,
    "Lat": 52.29620361328125,
    "Long": 4.84616756439209,
    "Postcode": "1185HT",
    "Straat": "Keizer Karelweg",
    "huisnummer": "2",
    "naam": null,
    "geldig_vanaf": null,
    "wijk_code": null
  },
  {
    "vge_id": 416042,
    "Lat": 52.29620361328125,
    "Long": 4.846224308013916,
    "Postcode": "1185HT",
    "Straat": "Keizer Karelweg",
    "huisnummer": "2",
    "naam": null,
    "geldig_vanaf": null,
    "wijk_code": null
  },
  {
    "vge_id": 416043,
    "Lat": 52.296207427978516,
    "Long": 4.846390724182129,
    "Postcode": "1185HT",
    "Straat": "Keizer Karelweg",
    "huisnummer": "2",
    "naam": null,
    "geldig_vanaf": null,
    "wijk_code": null
  },
  {
    "vge_id": 416044,
    "Lat": 52.29621505737305,
    "Long": 4.846489906311035,
    "Postcode": "1185HT",
    "Straat": "Keizer Karelweg",
    "huisnummer": "2",
    "naam": null,
    "geldig_vanaf": null,
    "wijk_code": null
  },
  {
    "vge_id": 416045,
    "Lat": 52.29618835449219,
    "Long": 4.845784664154053,
    "Postcode": "1185HT",
    "Straat": "Keizer Karelweg",
    "huisnummer": "4",
    "naam": null,
    "geldig_vanaf": null,
    "wijk_code": null
  },
  {
    "vge_id": 416046,
    "Lat": 52.296180725097656,
    "Long": 4.845956325531006,
    "Postcode": "1185HT",
    "Straat": "Keizer Karelweg",
    "huisnummer": "4",
    "naam": null,
    "geldig_vanaf": null,
    "wijk_code": null
  },
  {
    "vge_id": 416047,
    "Lat": 52.296180725097656,
    "Long": 4.84602165222168,
    "Postcode": "1185HT",
    "Straat": "Keizer Karelweg",
    "huisnummer": "4",
    "naam": null,
    "geldig_vanaf": null,
    "wijk_code": null
  },
  {
    "vge_id": 416048,
    "Lat": 52.296180725097656,
    "Long": 4.846169471740723,
    "Postcode": "1185HT",
    "Straat": "Keizer Karelweg",
    "huisnummer": "4",
    "naam": null,
    "geldig_vanaf": null,
    "wijk_code": null
  },
  {
    "vge_id": 416049,
    "Lat": 52.296180725097656,
    "Long": 4.84622859954834,
    "Postcode": "1185HT",
    "Straat": "Keizer Karelweg",
    "huisnummer": "4",
    "naam": null,
    "geldig_vanaf": null,
    "wijk_code": null
  },
  {
    "vge_id": 416050,
    "Lat": 52.29618835449219,
    "Long": 4.846395492553711,
    "Postcode": "1185HT",
    "Straat": "Keizer Karelweg",
    "huisnummer": "4",
    "naam": null,
    "geldig_vanaf": null,
    "wijk_code": null
  },
  {
    "vge_id": 416051,
    "Lat": 52.29619598388672,
    "Long": 4.846496105194092,
    "Postcode": "1185HT",
    "Straat": "Keizer Karelweg",
    "huisnummer": "4",
    "naam": null,
    "geldig_vanaf": null,
    "wijk_code": null
  },
  {
    "vge_id": 416052,
    "Lat": 52.296165466308594,
    "Long": 4.8457794189453125,
    "Postcode": "1185HT",
    "Straat": "Keizer Karelweg",
    "huisnummer": "6",
    "naam": null,
    "geldig_vanaf": null,
    "wijk_code": null
  },
  {
    "vge_id": 416053,
    "Lat": 52.29615783691406,
    "Long": 4.845954418182373,
    "Postcode": "1185HT",
    "Straat": "Keizer Karelweg",
    "huisnummer": "6",
    "naam": null,
    "geldig_vanaf": null,
    "wijk_code": null
  },
  {
    "vge_id": 416054,
    "Lat": 52.29615783691406,
    "Long": 4.846022129058838,
    "Postcode": "1185HT",
    "Straat": "Keizer Karelweg",
    "huisnummer": "6",
    "naam": null,
    "geldig_vanaf": null,
    "wijk_code": null
  },
  {
    "vge_id": 416055,
    "Lat": 52.29615783691406,
    "Long": 4.846169471740723,
    "Postcode": "1185HT",
    "Straat": "Keizer Karelweg",
    "huisnummer": "6",
    "naam": null,
    "geldig_vanaf": null,
    "wijk_code": null
  },
  {
    "vge_id": 416056,
    "Lat": 52.29615783691406,
    "Long": 4.846229553222656,
    "Postcode": "1185HT",
    "Straat": "Keizer Karelweg",
    "huisnummer": "6",
    "naam": null,
    "geldig_vanaf": null,
    "wijk_code": null
  },
  {
    "vge_id": 416057,
    "Lat": 52.296165466308594,
    "Long": 4.846399307250977,
    "Postcode": "1185HT",
    "Straat": "Keizer Karelweg",
    "huisnummer": "6",
    "naam": null,
    "geldig_vanaf": null,
    "wijk_code": null
  },
  {
    "vge_id": 416058,
    "Lat": 52.296173095703125,
    "Long": 4.846500873565674,
    "Postcode": "1185HT",
    "Straat": "Keizer Karelweg",
    "huisnummer": "6",
    "naam": null,
    "geldig_vanaf": null,
    "wijk_code": null
  },
  {
    "vge_id": 416059,
    "Lat": 52.296142578125,
    "Long": 4.845775127410889,
    "Postcode": "1185HT",
    "Straat": "Keizer Karelweg",
    "huisnummer": "8",
    "naam": null,
    "geldig_vanaf": null,
    "wijk_code": null
  },
  {
    "vge_id": 416060,
    "Lat": 52.29613494873047,
    "Long": 4.845951557159424,
    "Postcode": "1185HT",
    "Straat": "Keizer Karelweg",
    "huisnummer": "8",
    "naam": null,
    "geldig_vanaf": null,
    "wijk_code": null
  },
  {
    "vge_id": 416061,
    "Lat": 52.29613494873047,
    "Long": 4.846019268035889,
    "Postcode": "1185HT",
    "Straat": "Keizer Karelweg",
    "huisnummer": "8",
    "naam": null,
    "geldig_vanaf": null,
    "wijk_code": null
  },
  {
    "vge_id": 416062,
    "Lat": 52.29613494873047,
    "Long": 4.846169471740723,
    "Postcode": "1185HT",
    "Straat": "Keizer Karelweg",
    "huisnummer": "8",
    "naam": null,
    "geldig_vanaf": null,
    "wijk_code": null
  },
  {
    "vge_id": 416063,
    "Lat": 52.29613494873047,
    "Long": 4.846230506896973,
    "Postcode": "1185HT",
    "Straat": "Keizer Karelweg",
    "huisnummer": "8",
    "naam": null,
    "geldig_vanaf": null,
    "wijk_code": null
  },
  {
    "vge_id": 416064,
    "Lat": 52.296146392822266,
    "Long": 4.846403121948242,
    "Postcode": "1185HT",
    "Straat": "Keizer Karelweg",
    "huisnummer": "8",
    "naam": null,
    "geldig_vanaf": null,
    "wijk_code": null
  },
  {
    "vge_id": 416065,
    "Lat": 52.29615020751953,
    "Long": 4.846506595611572,
    "Postcode": "1185HT",
    "Straat": "Keizer Karelweg",
    "huisnummer": "8",
    "naam": null,
    "geldig_vanaf": null,
    "wijk_code": null
  },
  {
    "vge_id": 416066,
    "Lat": 52.296119689941406,
    "Long": 4.845767974853516,
    "Postcode": "1185HT",
    "Straat": "Keizer Karelweg",
    "huisnummer": "10",
    "naam": null,
    "geldig_vanaf": null,
    "wijk_code": null
  },
  {
    "vge_id": 416067,
    "Lat": 52.29611587524414,
    "Long": 4.845945835113525,
    "Postcode": "1185HT",
    "Straat": "Keizer Karelweg",
    "huisnummer": "10",
    "naam": null,
    "geldig_vanaf": null,
    "wijk_code": null
  },
  {
    "vge_id": 416068,
    "Lat": 52.296112060546875,
    "Long": 4.846015930175781,
    "Postcode": "1185HT",
    "Straat": "Keizer Karelweg",
    "huisnummer": "10",
    "naam": null,
    "geldig_vanaf": null,
    "wijk_code": null
  },
  {
    "vge_id": 416069,
    "Lat": 52.29611587524414,
    "Long": 4.846164703369141,
    "Postcode": "1185HT",
    "Straat": "Keizer Karelweg",
    "huisnummer": "10",
    "naam": null,
    "geldig_vanaf": null,
    "wijk_code": null
  },
  {
    "vge_id": 416070,
    "Lat": 52.29611587524414,
    "Long": 4.846227645874023,
    "Postcode": "1185HT",
    "Straat": "Keizer Karelweg",
    "huisnummer": "10",
    "naam": null,
    "geldig_vanaf": null,
    "wijk_code": null
  },
  {
    "vge_id": 416071,
    "Lat": 52.29612350463867,
    "Long": 4.846404552459717,
    "Postcode": "1185HT",
    "Straat": "Keizer Karelweg",
    "huisnummer": "10",
    "naam": null,
    "geldig_vanaf": null,
    "wijk_code": null
  },
  {
    "vge_id": 416072,
    "Lat": 52.2961311340332,
    "Long": 4.8465070724487305,
    "Postcode": "1185HT",
    "Straat": "Keizer Karelweg",
    "huisnummer": "10",
    "naam": null,
    "geldig_vanaf": null,
    "wijk_code": null
  },
  {
    "vge_id": 416073,
    "Lat": 52.29609298706055,
    "Long": 4.846372604370117,
    "Postcode": "1185HT",
    "Straat": "Keizer Karelweg",
    "huisnummer": "12",
    "naam": null,
    "geldig_vanaf": null,
    "wijk_code": null
  },
  {
    "vge_id": 416074,
    "Lat": 52.29610061645508,
    "Long": 4.846481800079346,
    "Postcode": "1185HT",
    "Straat": "Keizer Karelweg",
    "huisnummer": "12",
    "naam": null,
    "geldig_vanaf": null,
    "wijk_code": null
  },
  {
    "vge_id": 416075,
    "Lat": 52.296112060546875,
    "Long": 4.8465895652771,
    "Postcode": "1185HT",
    "Straat": "Keizer Karelweg",
    "huisnummer": "12",
    "naam": null,
    "geldig_vanaf": null,
    "wijk_code": null
  },
  {
    "vge_id": 416076,
    "Lat": 52.296119689941406,
    "Long": 4.846685886383057,
    "Postcode": "1185HT",
    "Straat": "Keizer Karelweg",
    "huisnummer": "12",
    "naam": null,
    "geldig_vanaf": null,
    "wijk_code": null
  },
  {
    "vge_id": 416077,
    "Lat": 52.29608917236328,
    "Long": 4.846262454986572,
    "Postcode": "1185HT",
    "Straat": "Keizer Karelweg",
    "huisnummer": "12",
    "naam": null,
    "geldig_vanaf": null,
    "wijk_code": null
  },
  {
    "vge_id": 416078,
    "Lat": 52.29607009887695,
    "Long": 4.846376419067383,
    "Postcode": "1185HT",
    "Straat": "Keizer Karelweg",
    "huisnummer": "14",
    "naam": null,
    "geldig_vanaf": null,
    "wijk_code": null
  },
  {
    "vge_id": 416079,
    "Lat": 52.296077728271484,
    "Long": 4.846487998962402,
    "Postcode": "1185HT",
    "Straat": "Keizer Karelweg",
    "huisnummer": "14",
    "naam": null,
    "geldig_vanaf": null,
    "wijk_code": null
  },
  {
    "vge_id": 416080,
    "Lat": 52.29608917236328,
    "Long": 4.846595287322998,
    "Postcode": "1185HT",
    "Straat": "Keizer Karelweg",
    "huisnummer": "14",
    "naam": null,
    "geldig_vanaf": null,
    "wijk_code": null
  },
  {
    "vge_id": 416081,
    "Lat": 52.29609680175781,
    "Long": 4.846693992614746,
    "Postcode": "1185HT",
    "Straat": "Keizer Karelweg",
    "huisnummer": "14",
    "naam": null,
    "geldig_vanaf": null,
    "wijk_code": null
  },
  {
    "vge_id": 416082,
    "Lat": 52.29613494873047,
    "Long": 4.8467888832092285,
    "Postcode": "1185HT",
    "Straat": "Keizer Karelweg",
    "huisnummer": "14",
    "naam": null,
    "geldig_vanaf": null,
    "wijk_code": null
  },
  {
    "vge_id": 416083,
    "Lat": 52.29606628417969,
    "Long": 4.8462653160095215,
    "Postcode": "1185HT",
    "Straat": "Keizer Karelweg",
    "huisnummer": "14",
    "naam": null,
    "geldig_vanaf": null,
    "wijk_code": null
  },
  {
    "vge_id": 416084,
    "Lat": 52.29604721069336,
    "Long": 4.846379280090332,
    "Postcode": "1185HT",
    "Straat": "Keizer Karelweg",
    "huisnummer": "16",
    "naam": null,
    "geldig_vanaf": null,
    "wijk_code": null
  },
  {
    "vge_id": 416085,
    "Lat": 52.29605484008789,
    "Long": 4.846492767333984,
    "Postcode": "1185HT",
    "Straat": "Keizer Karelweg",
    "huisnummer": "16",
    "naam": null,
    "geldig_vanaf": null,
    "wijk_code": null
  },
  {
    "vge_id": 416086,
    "Lat": 52.29606628417969,
    "Long": 4.846600532531738,
    "Postcode": "1185HT",
    "Straat": "Keizer Karelweg",
    "huisnummer": "16",
    "naam": null,
    "geldig_vanaf": null,
    "wijk_code": null
  },
  {
    "vge_id": 416087,
    "Lat": 52.296077728271484,
    "Long": 4.8467020988464355,
    "Postcode": "1185HT",
    "Straat": "Keizer Karelweg",
    "huisnummer": "16",
    "naam": null,
    "geldig_vanaf": null,
    "wijk_code": null
  },
  {
    "vge_id": 416088,
    "Lat": 52.296112060546875,
    "Long": 4.846797466278076,
    "Postcode": "1185HT",
    "Straat": "Keizer Karelweg",
    "huisnummer": "16",
    "naam": null,
    "geldig_vanaf": null,
    "wijk_code": null
  },
  {
    "vge_id": 416089,
    "Lat": 52.296043395996094,
    "Long": 4.846267223358154,
    "Postcode": "1185HT",
    "Straat": "Keizer Karelweg",
    "huisnummer": "16",
    "naam": null,
    "geldig_vanaf": null,
    "wijk_code": null
  },
  {
    "vge_id": 416090,
    "Lat": 52.29602813720703,
    "Long": 4.846381187438965,
    "Postcode": "1185HT",
    "Straat": "Keizer Karelweg",
    "huisnummer": "18",
    "naam": null,
    "geldig_vanaf": null,
    "wijk_code": null
  },
  {
    "vge_id": 416091,
    "Lat": 52.29603576660156,
    "Long": 4.846497058868408,
    "Postcode": "1185HT",
    "Straat": "Keizer Karelweg",
    "huisnummer": "18",
    "naam": null,
    "geldig_vanaf": null,
    "wijk_code": null
  },
  {
    "vge_id": 416092,
    "Lat": 52.29604721069336,
    "Long": 4.846604347229004,
    "Postcode": "1185HT",
    "Straat": "Keizer Karelweg",
    "huisnummer": "18",
    "naam": null,
    "geldig_vanaf": null,
    "wijk_code": null
  },
  {
    "vge_id": 416093,
    "Lat": 52.29605484008789,
    "Long": 4.846709251403809,
    "Postcode": "1185HT",
    "Straat": "Keizer Karelweg",
    "huisnummer": "18",
    "naam": null,
    "geldig_vanaf": null,
    "wijk_code": null
  },
  {
    "vge_id": 416094,
    "Lat": 52.29609298706055,
    "Long": 4.846806049346924,
    "Postcode": "1185HT",
    "Straat": "Keizer Karelweg",
    "huisnummer": "18",
    "naam": null,
    "geldig_vanaf": null,
    "wijk_code": null
  },
  {
    "vge_id": 416095,
    "Lat": 52.296024322509766,
    "Long": 4.846268653869629,
    "Postcode": "1185HT",
    "Straat": "Keizer Karelweg",
    "huisnummer": "18",
    "naam": null,
    "geldig_vanaf": null,
    "wijk_code": null
  },
  {
    "vge_id": 416176,
    "Lat": 52.31089782714844,
    "Long": 4.863678455352783,
    "Postcode": "1181HD",
    "Straat": "Rembrandtweg",
    "huisnummer": "396",
    "naam": null,
    "geldig_vanaf": null,
    "wijk_code": null
  },
  {
    "vge_id": 416177,
    "Lat": 52.31089782714844,
    "Long": 4.863678455352783,
    "Postcode": "1181HD",
    "Straat": "Rembrandtweg",
    "huisnummer": "398",
    "naam": null,
    "geldig_vanaf": null,
    "wijk_code": null
  },
  {
    "vge_id": 416178,
    "Lat": 52.31087875366211,
    "Long": 4.863656044006348,
    "Postcode": "1181HD",
    "Straat": "Rembrandtweg",
    "huisnummer": "400",
    "naam": null,
    "geldig_vanaf": null,
    "wijk_code": null
  },
  {
    "vge_id": 416179,
    "Lat": 52.31089782714844,
    "Long": 4.863678455352783,
    "Postcode": "1181HD",
    "Straat": "Rembrandtweg",
    "huisnummer": "400",
    "naam": null,
    "geldig_vanaf": null,
    "wijk_code": null
  },
  {
    "vge_id": 416180,
    "Lat": 52.31087875366211,
    "Long": 4.863656044006348,
    "Postcode": "1181HD",
    "Straat": "Rembrandtweg",
    "huisnummer": "402",
    "naam": null,
    "geldig_vanaf": null,
    "wijk_code": null
  },
  {
    "vge_id": 416181,
    "Lat": 52.31089782714844,
    "Long": 4.863678455352783,
    "Postcode": "1181HD",
    "Straat": "Rembrandtweg",
    "huisnummer": "402",
    "naam": null,
    "geldig_vanaf": null,
    "wijk_code": null
  },
  {
    "vge_id": 416182,
    "Lat": 52.31087875366211,
    "Long": 4.863656044006348,
    "Postcode": "1181HD",
    "Straat": "Rembrandtweg",
    "huisnummer": "404",
    "naam": null,
    "geldig_vanaf": null,
    "wijk_code": null
  },
  {
    "vge_id": 416183,
    "Lat": 52.31089782714844,
    "Long": 4.863678455352783,
    "Postcode": "1181HD",
    "Straat": "Rembrandtweg",
    "huisnummer": "404",
    "naam": null,
    "geldig_vanaf": null,
    "wijk_code": null
  },
  {
    "vge_id": 416184,
    "Lat": 52.31087875366211,
    "Long": 4.863656044006348,
    "Postcode": "1181HD",
    "Straat": "Rembrandtweg",
    "huisnummer": "406",
    "naam": null,
    "geldig_vanaf": null,
    "wijk_code": null
  },
  {
    "vge_id": 416185,
    "Lat": 52.31089782714844,
    "Long": 4.863678455352783,
    "Postcode": "1181HD",
    "Straat": "Rembrandtweg",
    "huisnummer": "406",
    "naam": null,
    "geldig_vanaf": null,
    "wijk_code": null
  },
  {
    "vge_id": 416186,
    "Lat": 52.31087875366211,
    "Long": 4.863656044006348,
    "Postcode": "1181HD",
    "Straat": "Rembrandtweg",
    "huisnummer": "408",
    "naam": null,
    "geldig_vanaf": null,
    "wijk_code": null
  },
  {
    "vge_id": 416187,
    "Lat": 52.31089782714844,
    "Long": 4.863678455352783,
    "Postcode": "1181HD",
    "Straat": "Rembrandtweg",
    "huisnummer": "408",
    "naam": null,
    "geldig_vanaf": null,
    "wijk_code": null
  },
  {
    "vge_id": 416188,
    "Lat": 52.31087875366211,
    "Long": 4.863656044006348,
    "Postcode": "1181HD",
    "Straat": "Rembrandtweg",
    "huisnummer": "410",
    "naam": null,
    "geldig_vanaf": null,
    "wijk_code": null
  },
  {
    "vge_id": 416189,
    "Lat": 52.31089782714844,
    "Long": 4.863678455352783,
    "Postcode": "1181HD",
    "Straat": "Rembrandtweg",
    "huisnummer": "410",
    "naam": null,
    "geldig_vanaf": null,
    "wijk_code": null
  },
  {
    "vge_id": 416190,
    "Lat": 52.31087875366211,
    "Long": 4.863656044006348,
    "Postcode": "1181HD",
    "Straat": "Rembrandtweg",
    "huisnummer": "412",
    "naam": null,
    "geldig_vanaf": null,
    "wijk_code": null
  },
  {
    "vge_id": 416191,
    "Lat": 52.31089782714844,
    "Long": 4.863678455352783,
    "Postcode": "1181HD",
    "Straat": "Rembrandtweg",
    "huisnummer": "412",
    "naam": null,
    "geldig_vanaf": null,
    "wijk_code": null
  },
  {
    "vge_id": 416192,
    "Lat": 52.31087875366211,
    "Long": 4.863656044006348,
    "Postcode": "1181HD",
    "Straat": "Rembrandtweg",
    "huisnummer": "414",
    "naam": null,
    "geldig_vanaf": null,
    "wijk_code": null
  },
  {
    "vge_id": 416193,
    "Lat": 52.31089782714844,
    "Long": 4.863678455352783,
    "Postcode": "1181HD",
    "Straat": "Rembrandtweg",
    "huisnummer": "414",
    "naam": null,
    "geldig_vanaf": null,
    "wijk_code": null
  },
  {
    "vge_id": 416194,
    "Lat": 52.31087875366211,
    "Long": 4.863656044006348,
    "Postcode": "1181HD",
    "Straat": "Rembrandtweg",
    "huisnummer": "416",
    "naam": null,
    "geldig_vanaf": null,
    "wijk_code": null
  },
  {
    "vge_id": 416195,
    "Lat": 52.31089782714844,
    "Long": 4.863678455352783,
    "Postcode": "1181HD",
    "Straat": "Rembrandtweg",
    "huisnummer": "416",
    "naam": null,
    "geldig_vanaf": null,
    "wijk_code": null
  },
  {
    "vge_id": 416196,
    "Lat": 52.31087875366211,
    "Long": 4.863656044006348,
    "Postcode": "1181HD",
    "Straat": "Rembrandtweg",
    "huisnummer": "418",
    "naam": null,
    "geldig_vanaf": null,
    "wijk_code": null
  },
  {
    "vge_id": 416197,
    "Lat": 52.31089782714844,
    "Long": 4.863678455352783,
    "Postcode": "1181HD",
    "Straat": "Rembrandtweg",
    "huisnummer": "418",
    "naam": null,
    "geldig_vanaf": null,
    "wijk_code": null
  },
  {
    "vge_id": 416198,
    "Lat": 52.31087875366211,
    "Long": 4.863656044006348,
    "Postcode": "1181HD",
    "Straat": "Rembrandtweg",
    "huisnummer": "420",
    "naam": null,
    "geldig_vanaf": null,
    "wijk_code": null
  },
  {
    "vge_id": 416199,
    "Lat": 52.31089782714844,
    "Long": 4.863678455352783,
    "Postcode": "1181HD",
    "Straat": "Rembrandtweg",
    "huisnummer": "420",
    "naam": null,
    "geldig_vanaf": null,
    "wijk_code": null
  },
  {
    "vge_id": 416200,
    "Lat": 52.31087875366211,
    "Long": 4.863656044006348,
    "Postcode": "1181HD",
    "Straat": "Rembrandtweg",
    "huisnummer": "422",
    "naam": null,
    "geldig_vanaf": null,
    "wijk_code": null
  },
  {
    "vge_id": 416201,
    "Lat": 52.31089782714844,
    "Long": 4.863678455352783,
    "Postcode": "1181HD",
    "Straat": "Rembrandtweg",
    "huisnummer": "422",
    "naam": null,
    "geldig_vanaf": null,
    "wijk_code": null
  },
  {
    "vge_id": 416202,
    "Lat": 52.31087875366211,
    "Long": 4.863656044006348,
    "Postcode": "1181HD",
    "Straat": "Rembrandtweg",
    "huisnummer": "424",
    "naam": null,
    "geldig_vanaf": null,
    "wijk_code": null
  },
  {
    "vge_id": 416203,
    "Lat": 52.31089782714844,
    "Long": 4.863678455352783,
    "Postcode": "1181HD",
    "Straat": "Rembrandtweg",
    "huisnummer": "424",
    "naam": null,
    "geldig_vanaf": null,
    "wijk_code": null
  },
  {
    "vge_id": 416204,
    "Lat": 52.31087875366211,
    "Long": 4.863656044006348,
    "Postcode": "1181HD",
    "Straat": "Rembrandtweg",
    "huisnummer": "426",
    "naam": null,
    "geldig_vanaf": null,
    "wijk_code": null
  },
  {
    "vge_id": 416205,
    "Lat": 52.31089782714844,
    "Long": 4.863678455352783,
    "Postcode": "1181HD",
    "Straat": "Rembrandtweg",
    "huisnummer": "426",
    "naam": null,
    "geldig_vanaf": null,
    "wijk_code": null
  },
  {
    "vge_id": 416369,
    "Lat": 52.3106689453125,
    "Long": 4.8637285232543945,
    "Postcode": "1181LW",
    "Straat": "Zonnestein",
    "huisnummer": "14",
    "naam": null,
    "geldig_vanaf": null,
    "wijk_code": null
  },
  {
    "vge_id": 416370,
    "Lat": 52.31071853637695,
    "Long": 4.8637614250183105,
    "Postcode": "1181LW",
    "Straat": "Zonnestein",
    "huisnummer": "16",
    "naam": null,
    "geldig_vanaf": null,
    "wijk_code": null
  },
  {
    "vge_id": 416371,
    "Lat": 52.31071472167969,
    "Long": 4.863840103149414,
    "Postcode": "1181LW",
    "Straat": "Zonnestein",
    "huisnummer": "18",
    "naam": null,
    "geldig_vanaf": null,
    "wijk_code": null
  },
  {
    "vge_id": 416372,
    "Lat": 52.31071472167969,
    "Long": 4.8639750480651855,
    "Postcode": "1181LW",
    "Straat": "Zonnestein",
    "huisnummer": "20",
    "naam": null,
    "geldig_vanaf": null,
    "wijk_code": null
  },
  {
    "vge_id": 416373,
    "Lat": 52.31071472167969,
    "Long": 4.864054203033447,
    "Postcode": "1181LW",
    "Straat": "Zonnestein",
    "huisnummer": "22",
    "naam": null,
    "geldig_vanaf": null,
    "wijk_code": null
  },
  {
    "vge_id": 416374,
    "Lat": 52.310707092285156,
    "Long": 4.86414098739624,
    "Postcode": "1181LW",
    "Straat": "Zonnestein",
    "huisnummer": "24",
    "naam": null,
    "geldig_vanaf": null,
    "wijk_code": null
  },
  {
    "vge_id": 416375,
    "Lat": 52.31071090698242,
    "Long": 4.864196300506592,
    "Postcode": "1181LW",
    "Straat": "Zonnestein",
    "huisnummer": "24",
    "naam": null,
    "geldig_vanaf": null,
    "wijk_code": null
  },
  {
    "vge_id": 416376,
    "Lat": 52.310760498046875,
    "Long": 4.864434242248535,
    "Postcode": "1181LX",
    "Straat": "Zonnestein",
    "huisnummer": "26",
    "naam": null,
    "geldig_vanaf": null,
    "wijk_code": null
  },
  {
    "vge_id": 416377,
    "Lat": 52.310760498046875,
    "Long": 4.864516258239746,
    "Postcode": "1181LX",
    "Straat": "Zonnestein",
    "huisnummer": "28",
    "naam": null,
    "geldig_vanaf": null,
    "wijk_code": null
  },
  {
    "vge_id": 416378,
    "Lat": 52.310760498046875,
    "Long": 4.864659309387207,
    "Postcode": "1181LX",
    "Straat": "Zonnestein",
    "huisnummer": "30",
    "naam": null,
    "geldig_vanaf": null,
    "wijk_code": null
  },
  {
    "vge_id": 416379,
    "Lat": 52.31067657470703,
    "Long": 4.863622665405273,
    "Postcode": "1181LX",
    "Straat": "Zonnestein",
    "huisnummer": "32",
    "naam": null,
    "geldig_vanaf": null,
    "wijk_code": null
  },
  {
    "vge_id": 416380,
    "Lat": 52.31067657470703,
    "Long": 4.863622665405273,
    "Postcode": "1181LX",
    "Straat": "Zonnestein",
    "huisnummer": "34",
    "naam": null,
    "geldig_vanaf": null,
    "wijk_code": null
  },
  {
    "vge_id": 416381,
    "Lat": 52.31067657470703,
    "Long": 4.863622665405273,
    "Postcode": "1181LX",
    "Straat": "Zonnestein",
    "huisnummer": "36",
    "naam": null,
    "geldig_vanaf": null,
    "wijk_code": null
  },
  {
    "vge_id": 416382,
    "Lat": 52.31067657470703,
    "Long": 4.863622665405273,
    "Postcode": "1181LX",
    "Straat": "Zonnestein",
    "huisnummer": "38",
    "naam": null,
    "geldig_vanaf": null,
    "wijk_code": null
  },
  {
    "vge_id": 416383,
    "Lat": 52.31067657470703,
    "Long": 4.863622665405273,
    "Postcode": "1181LX",
    "Straat": "Zonnestein",
    "huisnummer": "40",
    "naam": null,
    "geldig_vanaf": null,
    "wijk_code": null
  },
  {
    "vge_id": 416384,
    "Lat": 52.31067657470703,
    "Long": 4.863622665405273,
    "Postcode": "1181LX",
    "Straat": "Zonnestein",
    "huisnummer": "42",
    "naam": null,
    "geldig_vanaf": null,
    "wijk_code": null
  },
  {
    "vge_id": 416385,
    "Lat": 52.31067657470703,
    "Long": 4.863622665405273,
    "Postcode": "1181LX",
    "Straat": "Zonnestein",
    "huisnummer": "44",
    "naam": null,
    "geldig_vanaf": null,
    "wijk_code": null
  },
  {
    "vge_id": 416386,
    "Lat": 52.31067657470703,
    "Long": 4.863622665405273,
    "Postcode": "1181LX",
    "Straat": "Zonnestein",
    "huisnummer": "46",
    "naam": null,
    "geldig_vanaf": null,
    "wijk_code": null
  },
  {
    "vge_id": 416387,
    "Lat": 52.31067657470703,
    "Long": 4.863622665405273,
    "Postcode": "1181LX",
    "Straat": "Zonnestein",
    "huisnummer": "48",
    "naam": null,
    "geldig_vanaf": null,
    "wijk_code": null
  },
  {
    "vge_id": 416388,
    "Lat": 52.31067657470703,
    "Long": 4.863622665405273,
    "Postcode": "1181LX",
    "Straat": "Zonnestein",
    "huisnummer": "50",
    "naam": null,
    "geldig_vanaf": null,
    "wijk_code": null
  },
  {
    "vge_id": 416389,
    "Lat": 52.31067657470703,
    "Long": 4.863622665405273,
    "Postcode": "1181LX",
    "Straat": "Zonnestein",
    "huisnummer": "52",
    "naam": null,
    "geldig_vanaf": null,
    "wijk_code": null
  },
  {
    "vge_id": 416390,
    "Lat": 52.31067657470703,
    "Long": 4.863622665405273,
    "Postcode": "1181LX",
    "Straat": "Zonnestein",
    "huisnummer": "54",
    "naam": null,
    "geldig_vanaf": null,
    "wijk_code": null
  },
  {
    "vge_id": 416391,
    "Lat": 52.31067657470703,
    "Long": 4.863622665405273,
    "Postcode": "1181LX",
    "Straat": "Zonnestein",
    "huisnummer": "56",
    "naam": null,
    "geldig_vanaf": null,
    "wijk_code": null
  },
  {
    "vge_id": 416392,
    "Lat": 52.31067657470703,
    "Long": 4.863622665405273,
    "Postcode": "1181LX",
    "Straat": "Zonnestein",
    "huisnummer": "58",
    "naam": null,
    "geldig_vanaf": null,
    "wijk_code": null
  },
  {
    "vge_id": 416393,
    "Lat": 52.31067657470703,
    "Long": 4.863622665405273,
    "Postcode": "1181LX",
    "Straat": "Zonnestein",
    "huisnummer": "60",
    "naam": null,
    "geldig_vanaf": null,
    "wijk_code": null
  },
  {
    "vge_id": 416394,
    "Lat": 52.31067657470703,
    "Long": 4.863622665405273,
    "Postcode": "1181LX",
    "Straat": "Zonnestein",
    "huisnummer": "62",
    "naam": null,
    "geldig_vanaf": null,
    "wijk_code": null
  },
  {
    "vge_id": 416395,
    "Lat": 52.32666015625,
    "Long": 4.858239650726318,
    "Postcode": "1081CT",
    "Straat": "Bolestein",
    "huisnummer": "22",
    "naam": null,
    "geldig_vanaf": null,
    "wijk_code": null
  },
  {
    "vge_id": 416396,
    "Lat": 52.32659912109375,
    "Long": 4.858181953430176,
    "Postcode": "1081CT",
    "Straat": "Bolestein",
    "huisnummer": "24",
    "naam": null,
    "geldig_vanaf": null,
    "wijk_code": null
  },
  {
    "vge_id": 416397,
    "Lat": 52.32668685913086,
    "Long": 4.858180999755859,
    "Postcode": "1081CT",
    "Straat": "Bolestein",
    "huisnummer": "26",
    "naam": null,
    "geldig_vanaf": null,
    "wijk_code": null
  },
  {
    "vge_id": 416398,
    "Lat": 52.32666015625,
    "Long": 4.858151912689209,
    "Postcode": "1081CT",
    "Straat": "Bolestein",
    "huisnummer": "26",
    "naam": null,
    "geldig_vanaf": null,
    "wijk_code": null
  },
  {
    "vge_id": 416399,
    "Lat": 52.32661437988281,
    "Long": 4.858137607574463,
    "Postcode": "1081CT",
    "Straat": "Bolestein",
    "huisnummer": "28",
    "naam": null,
    "geldig_vanaf": null,
    "wijk_code": null
  },
  {
    "vge_id": 416400,
    "Lat": 52.32658767700195,
    "Long": 4.858123302459717,
    "Postcode": "1081CT",
    "Straat": "Bolestein",
    "huisnummer": "28",
    "naam": null,
    "geldig_vanaf": null,
    "wijk_code": null
  },
  {
    "vge_id": 416401,
    "Lat": 52.32664108276367,
    "Long": 4.858108043670654,
    "Postcode": "1081CT",
    "Straat": "Bolestein",
    "huisnummer": "30",
    "naam": null,
    "geldig_vanaf": null,
    "wijk_code": null
  },
  {
    "vge_id": 416402,
    "Lat": 52.32662582397461,
    "Long": 4.858108043670654,
    "Postcode": "1081CT",
    "Straat": "Bolestein",
    "huisnummer": "30",
    "naam": null,
    "geldig_vanaf": null,
    "wijk_code": null
  },
  {
    "vge_id": 416403,
    "Lat": 52.32668685913086,
    "Long": 4.858107566833496,
    "Postcode": "1081CT",
    "Straat": "Bolestein",
    "huisnummer": "32",
    "naam": null,
    "geldig_vanaf": null,
    "wijk_code": null
  },
  {
    "vge_id": 416404,
    "Lat": 52.32666015625,
    "Long": 4.858078479766846,
    "Postcode": "1081CT",
    "Straat": "Bolestein",
    "huisnummer": "32",
    "naam": null,
    "geldig_vanaf": null,
    "wijk_code": null
  },
  {
    "vge_id": 416405,
    "Lat": 52.326698303222656,
    "Long": 4.858268737792969,
    "Postcode": "1081CT",
    "Straat": "Bolestein",
    "huisnummer": "34",
    "naam": null,
    "geldig_vanaf": null,
    "wijk_code": null
  },
  {
    "vge_id": 416406,
    "Lat": 52.3266716003418,
    "Long": 4.858269214630127,
    "Postcode": "1081CT",
    "Straat": "Bolestein",
    "huisnummer": "34",
    "naam": null,
    "geldig_vanaf": null,
    "wijk_code": null
  },
  {
    "vge_id": 416407,
    "Lat": 52.32664489746094,
    "Long": 4.858269214630127,
    "Postcode": "1081CT",
    "Straat": "Bolestein",
    "huisnummer": "36",
    "naam": null,
    "geldig_vanaf": null,
    "wijk_code": null
  },
  {
    "vge_id": 416408,
    "Lat": 52.32664489746094,
    "Long": 4.858210563659668,
    "Postcode": "1081CT",
    "Straat": "Bolestein",
    "huisnummer": "36",
    "naam": null,
    "geldig_vanaf": null,
    "wijk_code": null
  },
  {
    "vge_id": 416409,
    "Lat": 52.3266716003418,
    "Long": 4.858210563659668,
    "Postcode": "1081CT",
    "Straat": "Bolestein",
    "huisnummer": "38",
    "naam": null,
    "geldig_vanaf": null,
    "wijk_code": null
  },
  {
    "vge_id": 416410,
    "Lat": 52.32673263549805,
    "Long": 4.858283042907715,
    "Postcode": "1081CT",
    "Straat": "Bolestein",
    "huisnummer": "38",
    "naam": null,
    "geldig_vanaf": null,
    "wijk_code": null
  },
  {
    "vge_id": 416411,
    "Lat": 52.32658004760742,
    "Long": 4.85816764831543,
    "Postcode": "1081CT",
    "Straat": "Bolestein",
    "huisnummer": "40",
    "naam": null,
    "geldig_vanaf": null,
    "wijk_code": null
  },
  {
    "vge_id": 416412,
    "Lat": 52.32655334472656,
    "Long": 4.85816764831543,
    "Postcode": "1081CT",
    "Straat": "Bolestein",
    "huisnummer": "40",
    "naam": null,
    "geldig_vanaf": null,
    "wijk_code": null
  },
  {
    "vge_id": 416413,
    "Lat": 52.326534271240234,
    "Long": 4.858123779296875,
    "Postcode": "1081CT",
    "Straat": "Bolestein",
    "huisnummer": "42",
    "naam": null,
    "geldig_vanaf": null,
    "wijk_code": null
  },
  {
    "vge_id": 416414,
    "Lat": 52.326515197753906,
    "Long": 4.858124256134033,
    "Postcode": "1081CT",
    "Straat": "Bolestein",
    "huisnummer": "42",
    "naam": null,
    "geldig_vanaf": null,
    "wijk_code": null
  },
  {
    "vge_id": 416415,
    "Lat": 52.32648849487305,
    "Long": 4.858109951019287,
    "Postcode": "1081CT",
    "Straat": "Bolestein",
    "huisnummer": "44",
    "naam": null,
    "geldig_vanaf": null,
    "wijk_code": null
  },
  {
    "vge_id": 416416,
    "Lat": 52.32670593261719,
    "Long": 4.858121871948242,
    "Postcode": "1081CT",
    "Straat": "Bolestein",
    "huisnummer": "44",
    "naam": null,
    "geldig_vanaf": null,
    "wijk_code": null
  },
  {
    "vge_id": 416417,
    "Lat": 52.326698303222656,
    "Long": 4.858121871948242,
    "Postcode": "1081CV",
    "Straat": "Bolestein",
    "huisnummer": "46",
    "naam": null,
    "geldig_vanaf": null,
    "wijk_code": null
  },
  {
    "vge_id": 416418,
    "Lat": 52.326698303222656,
    "Long": 4.858121871948242,
    "Postcode": "1081CV",
    "Straat": "Bolestein",
    "huisnummer": "46",
    "naam": null,
    "geldig_vanaf": null,
    "wijk_code": null
  },
  {
    "vge_id": 416419,
    "Lat": 52.32668685913086,
    "Long": 4.8581223487854,
    "Postcode": "1081CV",
    "Straat": "Bolestein",
    "huisnummer": "48",
    "naam": null,
    "geldig_vanaf": null,
    "wijk_code": null
  },
  {
    "vge_id": 416420,
    "Lat": 52.32668685913086,
    "Long": 4.8581223487854,
    "Postcode": "1081CV",
    "Straat": "Bolestein",
    "huisnummer": "48",
    "naam": null,
    "geldig_vanaf": null,
    "wijk_code": null
  },
  {
    "vge_id": 416421,
    "Lat": 52.32667922973633,
    "Long": 4.8581223487854,
    "Postcode": "1081CV",
    "Straat": "Bolestein",
    "huisnummer": "50",
    "naam": null,
    "geldig_vanaf": null,
    "wijk_code": null
  },
  {
    "vge_id": 416422,
    "Lat": 52.3266716003418,
    "Long": 4.8581223487854,
    "Postcode": "1081CV",
    "Straat": "Bolestein",
    "huisnummer": "50",
    "naam": null,
    "geldig_vanaf": null,
    "wijk_code": null
  },
  {
    "vge_id": 416423,
    "Lat": 52.3266716003418,
    "Long": 4.8581223487854,
    "Postcode": "1081CV",
    "Straat": "Bolestein",
    "huisnummer": "52",
    "naam": null,
    "geldig_vanaf": null,
    "wijk_code": null
  },
  {
    "vge_id": 416424,
    "Lat": 52.32666015625,
    "Long": 4.8581223487854,
    "Postcode": "1081CV",
    "Straat": "Bolestein",
    "huisnummer": "52",
    "naam": null,
    "geldig_vanaf": null,
    "wijk_code": null
  },
  {
    "vge_id": 416425,
    "Lat": 52.32665252685547,
    "Long": 4.8581223487854,
    "Postcode": "1081CV",
    "Straat": "Bolestein",
    "huisnummer": "54",
    "naam": null,
    "geldig_vanaf": null,
    "wijk_code": null
  },
  {
    "vge_id": 416426,
    "Lat": 52.32665252685547,
    "Long": 4.8581223487854,
    "Postcode": "1081CV",
    "Straat": "Bolestein",
    "huisnummer": "54",
    "naam": null,
    "geldig_vanaf": null,
    "wijk_code": null
  },
  {
    "vge_id": 416427,
    "Lat": 52.32664108276367,
    "Long": 4.858122825622559,
    "Postcode": "1081CV",
    "Straat": "Bolestein",
    "huisnummer": "56",
    "naam": null,
    "geldig_vanaf": null,
    "wijk_code": null
  },
  {
    "vge_id": 416428,
    "Lat": 52.32664108276367,
    "Long": 4.858122825622559,
    "Postcode": "1081CV",
    "Straat": "Bolestein",
    "huisnummer": "56",
    "naam": null,
    "geldig_vanaf": null,
    "wijk_code": null
  },
  {
    "vge_id": 416429,
    "Lat": 52.32663345336914,
    "Long": 4.858122825622559,
    "Postcode": "1081CV",
    "Straat": "Bolestein",
    "huisnummer": "58",
    "naam": null,
    "geldig_vanaf": null,
    "wijk_code": null
  },
  {
    "vge_id": 416430,
    "Lat": 52.32662582397461,
    "Long": 4.858122825622559,
    "Postcode": "1081CV",
    "Straat": "Bolestein",
    "huisnummer": "58",
    "naam": null,
    "geldig_vanaf": null,
    "wijk_code": null
  },
  {
    "vge_id": 416431,
    "Lat": 52.32662582397461,
    "Long": 4.858122825622559,
    "Postcode": "1081CV",
    "Straat": "Bolestein",
    "huisnummer": "60",
    "naam": null,
    "geldig_vanaf": null,
    "wijk_code": null
  },
  {
    "vge_id": 416432,
    "Lat": 52.32661437988281,
    "Long": 4.858122825622559,
    "Postcode": "1081CV",
    "Straat": "Bolestein",
    "huisnummer": "60",
    "naam": null,
    "geldig_vanaf": null,
    "wijk_code": null
  },
  {
    "vge_id": 416433,
    "Lat": 52.32660675048828,
    "Long": 4.858123302459717,
    "Postcode": "1081CV",
    "Straat": "Bolestein",
    "huisnummer": "62",
    "naam": null,
    "geldig_vanaf": null,
    "wijk_code": null
  },
  {
    "vge_id": 416434,
    "Lat": 52.32660675048828,
    "Long": 4.858123302459717,
    "Postcode": "1081CV",
    "Straat": "Bolestein",
    "huisnummer": "62",
    "naam": null,
    "geldig_vanaf": null,
    "wijk_code": null
  },
  {
    "vge_id": 416435,
    "Lat": 52.32659912109375,
    "Long": 4.858123302459717,
    "Postcode": "1081CV",
    "Straat": "Bolestein",
    "huisnummer": "64",
    "naam": null,
    "geldig_vanaf": null,
    "wijk_code": null
  },
  {
    "vge_id": 416436,
    "Lat": 52.32659912109375,
    "Long": 4.858123302459717,
    "Postcode": "1081CV",
    "Straat": "Bolestein",
    "huisnummer": "64",
    "naam": null,
    "geldig_vanaf": null,
    "wijk_code": null
  },
  {
    "vge_id": 416437,
    "Lat": 52.32658767700195,
    "Long": 4.858123302459717,
    "Postcode": "1081CV",
    "Straat": "Bolestein",
    "huisnummer": "66",
    "naam": null,
    "geldig_vanaf": null,
    "wijk_code": null
  },
  {
    "vge_id": 416438,
    "Lat": 52.32658004760742,
    "Long": 4.858123302459717,
    "Postcode": "1081CV",
    "Straat": "Bolestein",
    "huisnummer": "66",
    "naam": null,
    "geldig_vanaf": null,
    "wijk_code": null
  },
  {
    "vge_id": 416439,
    "Lat": 52.32658004760742,
    "Long": 4.858123302459717,
    "Postcode": "1081CV",
    "Straat": "Bolestein",
    "huisnummer": "68",
    "naam": null,
    "geldig_vanaf": null,
    "wijk_code": null
  },
  {
    "vge_id": 416440,
    "Lat": 52.32657241821289,
    "Long": 4.858123302459717,
    "Postcode": "1081CV",
    "Straat": "Bolestein",
    "huisnummer": "68",
    "naam": null,
    "geldig_vanaf": null,
    "wijk_code": null
  },
  {
    "vge_id": 416441,
    "Lat": 52.32657241821289,
    "Long": 4.858123302459717,
    "Postcode": "1081CW",
    "Straat": "Bolestein",
    "huisnummer": "70",
    "naam": null,
    "geldig_vanaf": null,
    "wijk_code": null
  },
  {
    "vge_id": 416442,
    "Lat": 52.326560974121094,
    "Long": 4.858123779296875,
    "Postcode": "1081CW",
    "Straat": "Bolestein",
    "huisnummer": "70",
    "naam": null,
    "geldig_vanaf": null,
    "wijk_code": null
  },
  {
    "vge_id": 416443,
    "Lat": 52.32655334472656,
    "Long": 4.858123779296875,
    "Postcode": "1081CW",
    "Straat": "Bolestein",
    "huisnummer": "72",
    "naam": null,
    "geldig_vanaf": null,
    "wijk_code": null
  },
  {
    "vge_id": 416444,
    "Lat": 52.32655334472656,
    "Long": 4.858123779296875,
    "Postcode": "1081CW",
    "Straat": "Bolestein",
    "huisnummer": "72",
    "naam": null,
    "geldig_vanaf": null,
    "wijk_code": null
  },
  {
    "vge_id": 416445,
    "Lat": 52.32654571533203,
    "Long": 4.858123779296875,
    "Postcode": "1081CW",
    "Straat": "Bolestein",
    "huisnummer": "74",
    "naam": null,
    "geldig_vanaf": null,
    "wijk_code": null
  },
  {
    "vge_id": 416446,
    "Lat": 52.32654571533203,
    "Long": 4.858123779296875,
    "Postcode": "1081CW",
    "Straat": "Bolestein",
    "huisnummer": "74",
    "naam": null,
    "geldig_vanaf": null,
    "wijk_code": null
  },
  {
    "vge_id": 416447,
    "Lat": 52.326534271240234,
    "Long": 4.858123779296875,
    "Postcode": "1081CW",
    "Straat": "Bolestein",
    "huisnummer": "76",
    "naam": null,
    "geldig_vanaf": null,
    "wijk_code": null
  },
  {
    "vge_id": 416448,
    "Lat": 52.3265266418457,
    "Long": 4.858124256134033,
    "Postcode": "1081CW",
    "Straat": "Bolestein",
    "huisnummer": "76",
    "naam": null,
    "geldig_vanaf": null,
    "wijk_code": null
  },
  {
    "vge_id": 416449,
    "Lat": 52.3265266418457,
    "Long": 4.858124256134033,
    "Postcode": "1081CW",
    "Straat": "Bolestein",
    "huisnummer": "78",
    "naam": null,
    "geldig_vanaf": null,
    "wijk_code": null
  },
  {
    "vge_id": 416450,
    "Lat": 52.326515197753906,
    "Long": 4.858124256134033,
    "Postcode": "1081CW",
    "Straat": "Bolestein",
    "huisnummer": "78",
    "naam": null,
    "geldig_vanaf": null,
    "wijk_code": null
  },
  {
    "vge_id": 416451,
    "Lat": 52.326507568359375,
    "Long": 4.858124256134033,
    "Postcode": "1081CW",
    "Straat": "Bolestein",
    "huisnummer": "80",
    "naam": null,
    "geldig_vanaf": null,
    "wijk_code": null
  },
  {
    "vge_id": 416452,
    "Lat": 52.326507568359375,
    "Long": 4.858124256134033,
    "Postcode": "1081CW",
    "Straat": "Bolestein",
    "huisnummer": "80",
    "naam": null,
    "geldig_vanaf": null,
    "wijk_code": null
  },
  {
    "vge_id": 416453,
    "Lat": 52.326499938964844,
    "Long": 4.858124256134033,
    "Postcode": "1081CW",
    "Straat": "Bolestein",
    "huisnummer": "82",
    "naam": null,
    "geldig_vanaf": null,
    "wijk_code": null
  },
  {
    "vge_id": 416454,
    "Lat": 52.326499938964844,
    "Long": 4.858124256134033,
    "Postcode": "1081CW",
    "Straat": "Bolestein",
    "huisnummer": "82",
    "naam": null,
    "geldig_vanaf": null,
    "wijk_code": null
  },
  {
    "vge_id": 416455,
    "Lat": 52.32648849487305,
    "Long": 4.858124256134033,
    "Postcode": "1081CW",
    "Straat": "Bolestein",
    "huisnummer": "84",
    "naam": null,
    "geldig_vanaf": null,
    "wijk_code": null
  },
  {
    "vge_id": 416456,
    "Lat": 52.326480865478516,
    "Long": 4.858124732971191,
    "Postcode": "1081CW",
    "Straat": "Bolestein",
    "huisnummer": "84",
    "naam": null,
    "geldig_vanaf": null,
    "wijk_code": null
  },
  {
    "vge_id": 416457,
    "Lat": 52.326480865478516,
    "Long": 4.858124732971191,
    "Postcode": "1081CW",
    "Straat": "Bolestein",
    "huisnummer": "86",
    "naam": null,
    "geldig_vanaf": null,
    "wijk_code": null
  },
  {
    "vge_id": 416458,
    "Lat": 52.326473236083984,
    "Long": 4.858124732971191,
    "Postcode": "1081CW",
    "Straat": "Bolestein",
    "huisnummer": "86",
    "naam": null,
    "geldig_vanaf": null,
    "wijk_code": null
  },
  {
    "vge_id": 416459,
    "Lat": 52.32646179199219,
    "Long": 4.858124732971191,
    "Postcode": "1081CW",
    "Straat": "Bolestein",
    "huisnummer": "88",
    "naam": null,
    "geldig_vanaf": null,
    "wijk_code": null
  },
  {
    "vge_id": 416460,
    "Lat": 52.32646179199219,
    "Long": 4.858124732971191,
    "Postcode": "1081CW",
    "Straat": "Bolestein",
    "huisnummer": "88",
    "naam": null,
    "geldig_vanaf": null,
    "wijk_code": null
  },
  {
    "vge_id": 416461,
    "Lat": 52.326454162597656,
    "Long": 4.858124732971191,
    "Postcode": "1081CW",
    "Straat": "Bolestein",
    "huisnummer": "90",
    "naam": null,
    "geldig_vanaf": null,
    "wijk_code": null
  },
  {
    "vge_id": 416462,
    "Lat": 52.326454162597656,
    "Long": 4.858124732971191,
    "Postcode": "1081CW",
    "Straat": "Bolestein",
    "huisnummer": "90",
    "naam": null,
    "geldig_vanaf": null,
    "wijk_code": null
  },
  {
    "vge_id": 416463,
    "Lat": 52.326446533203125,
    "Long": 4.85812520980835,
    "Postcode": "1081CW",
    "Straat": "Bolestein",
    "huisnummer": "92",
    "naam": null,
    "geldig_vanaf": null,
    "wijk_code": null
  },
  {
    "vge_id": 416464,
    "Lat": 52.32643508911133,
    "Long": 4.85812520980835,
    "Postcode": "1081CW",
    "Straat": "Bolestein",
    "huisnummer": "92",
    "naam": null,
    "geldig_vanaf": null,
    "wijk_code": null
  },
  {
    "vge_id": 416465,
    "Lat": 52.3250617980957,
    "Long": 4.858214855194092,
    "Postcode": "1081EH",
    "Straat": "Bolestein",
    "huisnummer": "422",
    "naam": null,
    "geldig_vanaf": null,
    "wijk_code": null
  },
  {
    "vge_id": 416466,
    "Lat": 52.32508850097656,
    "Long": 4.85811185836792,
    "Postcode": "1081EH",
    "Straat": "Bolestein",
    "huisnummer": "424",
    "naam": null,
    "geldig_vanaf": null,
    "wijk_code": null
  },
  {
    "vge_id": 416467,
    "Lat": 52.32513427734375,
    "Long": 4.858140468597412,
    "Postcode": "1081EH",
    "Straat": "Bolestein",
    "huisnummer": "426",
    "naam": null,
    "geldig_vanaf": null,
    "wijk_code": null
  },
  {
    "vge_id": 416468,
    "Lat": 52.32513427734375,
    "Long": 4.858140468597412,
    "Postcode": "1081EH",
    "Straat": "Bolestein",
    "huisnummer": "426",
    "naam": null,
    "geldig_vanaf": null,
    "wijk_code": null
  },
  {
    "vge_id": 416469,
    "Lat": 52.32512283325195,
    "Long": 4.85814094543457,
    "Postcode": "1081EH",
    "Straat": "Bolestein",
    "huisnummer": "428",
    "naam": null,
    "geldig_vanaf": null,
    "wijk_code": null
  },
  {
    "vge_id": 416470,
    "Lat": 52.32511520385742,
    "Long": 4.85814094543457,
    "Postcode": "1081EH",
    "Straat": "Bolestein",
    "huisnummer": "428",
    "naam": null,
    "geldig_vanaf": null,
    "wijk_code": null
  },
  {
    "vge_id": 416471,
    "Lat": 52.32511520385742,
    "Long": 4.85814094543457,
    "Postcode": "1081EH",
    "Straat": "Bolestein",
    "huisnummer": "430",
    "naam": null,
    "geldig_vanaf": null,
    "wijk_code": null
  },
  {
    "vge_id": 416472,
    "Lat": 52.32520294189453,
    "Long": 4.858095645904541,
    "Postcode": "1081EH",
    "Straat": "Bolestein",
    "huisnummer": "430",
    "naam": null,
    "geldig_vanaf": null,
    "wijk_code": null
  },
  {
    "vge_id": 416473,
    "Lat": 52.3251953125,
    "Long": 4.858096122741699,
    "Postcode": "1081EH",
    "Straat": "Bolestein",
    "huisnummer": "432",
    "naam": null,
    "geldig_vanaf": null,
    "wijk_code": null
  },
  {
    "vge_id": 416474,
    "Lat": 52.3251953125,
    "Long": 4.858096122741699,
    "Postcode": "1081EH",
    "Straat": "Bolestein",
    "huisnummer": "432",
    "naam": null,
    "geldig_vanaf": null,
    "wijk_code": null
  },
  {
    "vge_id": 416475,
    "Lat": 52.32517623901367,
    "Long": 4.858096122741699,
    "Postcode": "1081EH",
    "Straat": "Bolestein",
    "huisnummer": "434",
    "naam": null,
    "geldig_vanaf": null,
    "wijk_code": null
  },
  {
    "vge_id": 416476,
    "Lat": 52.32518768310547,
    "Long": 4.858096122741699,
    "Postcode": "1081EH",
    "Straat": "Bolestein",
    "huisnummer": "434",
    "naam": null,
    "geldig_vanaf": null,
    "wijk_code": null
  },
  {
    "vge_id": 416477,
    "Lat": 52.32516860961914,
    "Long": 4.858096122741699,
    "Postcode": "1081EH",
    "Straat": "Bolestein",
    "huisnummer": "436",
    "naam": null,
    "geldig_vanaf": null,
    "wijk_code": null
  },
  {
    "vge_id": 416478,
    "Lat": 52.32516860961914,
    "Long": 4.858096122741699,
    "Postcode": "1081EH",
    "Straat": "Bolestein",
    "huisnummer": "436",
    "naam": null,
    "geldig_vanaf": null,
    "wijk_code": null
  },
  {
    "vge_id": 416479,
    "Lat": 52.32516098022461,
    "Long": 4.858096122741699,
    "Postcode": "1081EH",
    "Straat": "Bolestein",
    "huisnummer": "438",
    "naam": null,
    "geldig_vanaf": null,
    "wijk_code": null
  },
  {
    "vge_id": 416480,
    "Lat": 52.32516098022461,
    "Long": 4.858096122741699,
    "Postcode": "1081EH",
    "Straat": "Bolestein",
    "huisnummer": "438",
    "naam": null,
    "geldig_vanaf": null,
    "wijk_code": null
  },
  {
    "vge_id": 416481,
    "Lat": 52.32514953613281,
    "Long": 4.858096599578857,
    "Postcode": "1081EH",
    "Straat": "Bolestein",
    "huisnummer": "440",
    "naam": null,
    "geldig_vanaf": null,
    "wijk_code": null
  },
  {
    "vge_id": 416482,
    "Lat": 52.32514953613281,
    "Long": 4.858096599578857,
    "Postcode": "1081EH",
    "Straat": "Bolestein",
    "huisnummer": "440",
    "naam": null,
    "geldig_vanaf": null,
    "wijk_code": null
  },
  {
    "vge_id": 416483,
    "Lat": 52.32513427734375,
    "Long": 4.858096599578857,
    "Postcode": "1081EH",
    "Straat": "Bolestein",
    "huisnummer": "442",
    "naam": null,
    "geldig_vanaf": null,
    "wijk_code": null
  },
  {
    "vge_id": 416484,
    "Lat": 52.32514190673828,
    "Long": 4.858096599578857,
    "Postcode": "1081EH",
    "Straat": "Bolestein",
    "huisnummer": "442",
    "naam": null,
    "geldig_vanaf": null,
    "wijk_code": null
  },
  {
    "vge_id": 416485,
    "Lat": 52.32512283325195,
    "Long": 4.858096599578857,
    "Postcode": "1081EH",
    "Straat": "Bolestein",
    "huisnummer": "444",
    "naam": null,
    "geldig_vanaf": null,
    "wijk_code": null
  },
  {
    "vge_id": 416486,
    "Lat": 52.32512283325195,
    "Long": 4.858096599578857,
    "Postcode": "1081EH",
    "Straat": "Bolestein",
    "huisnummer": "444",
    "naam": null,
    "geldig_vanaf": null,
    "wijk_code": null
  },
  {
    "vge_id": 416487,
    "Lat": 52.32511520385742,
    "Long": 4.858097076416016,
    "Postcode": "1081EH",
    "Straat": "Bolestein",
    "huisnummer": "446",
    "naam": null,
    "geldig_vanaf": null,
    "wijk_code": null
  },
  {
    "vge_id": 416488,
    "Lat": 52.32511520385742,
    "Long": 4.858097076416016,
    "Postcode": "1081EH",
    "Straat": "Bolestein",
    "huisnummer": "446",
    "naam": null,
    "geldig_vanaf": null,
    "wijk_code": null
  },
  {
    "vge_id": 416489,
    "Lat": 52.32510757446289,
    "Long": 4.858097076416016,
    "Postcode": "1081EH",
    "Straat": "Bolestein",
    "huisnummer": "448",
    "naam": null,
    "geldig_vanaf": null,
    "wijk_code": null
  },
  {
    "vge_id": 416490,
    "Lat": 52.32510757446289,
    "Long": 4.858097076416016,
    "Postcode": "1081EH",
    "Straat": "Bolestein",
    "huisnummer": "448",
    "naam": null,
    "geldig_vanaf": null,
    "wijk_code": null
  },
  {
    "vge_id": 416491,
    "Lat": 52.32508850097656,
    "Long": 4.858097076416016,
    "Postcode": "1081EH",
    "Straat": "Bolestein",
    "huisnummer": "450",
    "naam": null,
    "geldig_vanaf": null,
    "wijk_code": null
  },
  {
    "vge_id": 416492,
    "Lat": 52.32508850097656,
    "Long": 4.858097076416016,
    "Postcode": "1081EH",
    "Straat": "Bolestein",
    "huisnummer": "450",
    "naam": null,
    "geldig_vanaf": null,
    "wijk_code": null
  },
  {
    "vge_id": 416493,
    "Lat": 52.325077056884766,
    "Long": 4.8580827713012695,
    "Postcode": "1081EH",
    "Straat": "Bolestein",
    "huisnummer": "452",
    "naam": null,
    "geldig_vanaf": null,
    "wijk_code": null
  },
  {
    "vge_id": 416494,
    "Lat": 52.325077056884766,
    "Long": 4.858097076416016,
    "Postcode": "1081EH",
    "Straat": "Bolestein",
    "huisnummer": "452",
    "naam": null,
    "geldig_vanaf": null,
    "wijk_code": null
  },
  {
    "vge_id": 416495,
    "Lat": 52.325069427490234,
    "Long": 4.8580827713012695,
    "Postcode": "1081EH",
    "Straat": "Bolestein",
    "huisnummer": "454",
    "naam": null,
    "geldig_vanaf": null,
    "wijk_code": null
  },
  {
    "vge_id": 416496,
    "Lat": 52.325069427490234,
    "Long": 4.8580827713012695,
    "Postcode": "1081EH",
    "Straat": "Bolestein",
    "huisnummer": "454",
    "naam": null,
    "geldig_vanaf": null,
    "wijk_code": null
  },
  {
    "vge_id": 416497,
    "Lat": 52.3250617980957,
    "Long": 4.8580827713012695,
    "Postcode": "1081EH",
    "Straat": "Bolestein",
    "huisnummer": "456",
    "naam": null,
    "geldig_vanaf": null,
    "wijk_code": null
  },
  {
    "vge_id": 416498,
    "Lat": 52.325050354003906,
    "Long": 4.8580827713012695,
    "Postcode": "1081EH",
    "Straat": "Bolestein",
    "huisnummer": "456",
    "naam": null,
    "geldig_vanaf": null,
    "wijk_code": null
  },
  {
    "vge_id": 416499,
    "Lat": 52.325042724609375,
    "Long": 4.858083248138428,
    "Postcode": "1081EH",
    "Straat": "Bolestein",
    "huisnummer": "458",
    "naam": null,
    "geldig_vanaf": null,
    "wijk_code": null
  },
  {
    "vge_id": 416500,
    "Lat": 52.325042724609375,
    "Long": 4.858083248138428,
    "Postcode": "1081EH",
    "Straat": "Bolestein",
    "huisnummer": "458",
    "naam": null,
    "geldig_vanaf": null,
    "wijk_code": null
  },
  {
    "vge_id": 416501,
    "Lat": 52.325035095214844,
    "Long": 4.858083248138428,
    "Postcode": "1081EH",
    "Straat": "Bolestein",
    "huisnummer": "460",
    "naam": null,
    "geldig_vanaf": null,
    "wijk_code": null
  },
  {
    "vge_id": 416502,
    "Lat": 52.325035095214844,
    "Long": 4.858083248138428,
    "Postcode": "1081EH",
    "Straat": "Bolestein",
    "huisnummer": "460",
    "naam": null,
    "geldig_vanaf": null,
    "wijk_code": null
  },
  {
    "vge_id": 416503,
    "Lat": 52.32502365112305,
    "Long": 4.858083248138428,
    "Postcode": "1081EH",
    "Straat": "Bolestein",
    "huisnummer": "462",
    "naam": null,
    "geldig_vanaf": null,
    "wijk_code": null
  },
  {
    "vge_id": 416504,
    "Lat": 52.325016021728516,
    "Long": 4.858083248138428,
    "Postcode": "1081EH",
    "Straat": "Bolestein",
    "huisnummer": "462",
    "naam": null,
    "geldig_vanaf": null,
    "wijk_code": null
  },
  {
    "vge_id": 416505,
    "Lat": 52.325008392333984,
    "Long": 4.858083248138428,
    "Postcode": "1081EH",
    "Straat": "Bolestein",
    "huisnummer": "464",
    "naam": null,
    "geldig_vanaf": null,
    "wijk_code": null
  },
  {
    "vge_id": 416506,
    "Lat": 52.325008392333984,
    "Long": 4.858083248138428,
    "Postcode": "1081EH",
    "Straat": "Bolestein",
    "huisnummer": "464",
    "naam": null,
    "geldig_vanaf": null,
    "wijk_code": null
  },
  {
    "vge_id": 416507,
    "Lat": 52.32499694824219,
    "Long": 4.858083724975586,
    "Postcode": "1081EH",
    "Straat": "Bolestein",
    "huisnummer": "466",
    "naam": null,
    "geldig_vanaf": null,
    "wijk_code": null
  },
  {
    "vge_id": 416508,
    "Lat": 52.32499694824219,
    "Long": 4.858083724975586,
    "Postcode": "1081EH",
    "Straat": "Bolestein",
    "huisnummer": "466",
    "naam": null,
    "geldig_vanaf": null,
    "wijk_code": null
  },
  {
    "vge_id": 416509,
    "Lat": 52.324989318847656,
    "Long": 4.858083724975586,
    "Postcode": "1081EH",
    "Straat": "Bolestein",
    "huisnummer": "468",
    "naam": null,
    "geldig_vanaf": null,
    "wijk_code": null
  },
  {
    "vge_id": 416510,
    "Lat": 52.324981689453125,
    "Long": 4.858083724975586,
    "Postcode": "1081EH",
    "Straat": "Bolestein",
    "huisnummer": "468",
    "naam": null,
    "geldig_vanaf": null,
    "wijk_code": null
  },
  {
    "vge_id": 416511,
    "Lat": 52.324981689453125,
    "Long": 4.858083724975586,
    "Postcode": "1081EH",
    "Straat": "Bolestein",
    "huisnummer": "470",
    "naam": null,
    "geldig_vanaf": null,
    "wijk_code": null
  },
  {
    "vge_id": 416512,
    "Lat": 52.32497024536133,
    "Long": 4.858083724975586,
    "Postcode": "1081EH",
    "Straat": "Bolestein",
    "huisnummer": "470",
    "naam": null,
    "geldig_vanaf": null,
    "wijk_code": null
  },
  {
    "vge_id": 416513,
    "Lat": 52.3249626159668,
    "Long": 4.858084201812744,
    "Postcode": "1081EH",
    "Straat": "Bolestein",
    "huisnummer": "472",
    "naam": null,
    "geldig_vanaf": null,
    "wijk_code": null
  },
  {
    "vge_id": 416514,
    "Lat": 52.3249626159668,
    "Long": 4.858084201812744,
    "Postcode": "1081EH",
    "Straat": "Bolestein",
    "huisnummer": "472",
    "naam": null,
    "geldig_vanaf": null,
    "wijk_code": null
  },
  {
    "vge_id": 416515,
    "Lat": 52.324951171875,
    "Long": 4.858084201812744,
    "Postcode": "1081EH",
    "Straat": "Bolestein",
    "huisnummer": "474",
    "naam": null,
    "geldig_vanaf": null,
    "wijk_code": null
  },
  {
    "vge_id": 416516,
    "Lat": 52.32494354248047,
    "Long": 4.858084201812744,
    "Postcode": "1081EH",
    "Straat": "Bolestein",
    "huisnummer": "474",
    "naam": null,
    "geldig_vanaf": null,
    "wijk_code": null
  },
  {
    "vge_id": 416517,
    "Lat": 52.32494354248047,
    "Long": 4.858084201812744,
    "Postcode": "1081EH",
    "Straat": "Bolestein",
    "huisnummer": "476",
    "naam": null,
    "geldig_vanaf": null,
    "wijk_code": null
  },
  {
    "vge_id": 416518,
    "Lat": 52.32493591308594,
    "Long": 4.858084201812744,
    "Postcode": "1081EH",
    "Straat": "Bolestein",
    "huisnummer": "476",
    "naam": null,
    "geldig_vanaf": null,
    "wijk_code": null
  },
  {
    "vge_id": 416519,
    "Lat": 52.32493591308594,
    "Long": 4.858084201812744,
    "Postcode": "1081EH",
    "Straat": "Bolestein",
    "huisnummer": "478",
    "naam": null,
    "geldig_vanaf": null,
    "wijk_code": null
  },
  {
    "vge_id": 416520,
    "Lat": 52.32492446899414,
    "Long": 4.858084678649902,
    "Postcode": "1081EH",
    "Straat": "Bolestein",
    "huisnummer": "478",
    "naam": null,
    "geldig_vanaf": null,
    "wijk_code": null
  },
  {
    "vge_id": 416521,
    "Lat": 52.32491683959961,
    "Long": 4.858084678649902,
    "Postcode": "1081EH",
    "Straat": "Bolestein",
    "huisnummer": "480",
    "naam": null,
    "geldig_vanaf": null,
    "wijk_code": null
  },
  {
    "vge_id": 416522,
    "Lat": 52.32491683959961,
    "Long": 4.858084678649902,
    "Postcode": "1081EH",
    "Straat": "Bolestein",
    "huisnummer": "480",
    "naam": null,
    "geldig_vanaf": null,
    "wijk_code": null
  },
  {
    "vge_id": 416523,
    "Lat": 52.32508087158203,
    "Long": 4.858156204223633,
    "Postcode": "1081EH",
    "Straat": "Bolestein",
    "huisnummer": "482",
    "naam": null,
    "geldig_vanaf": null,
    "wijk_code": null
  },
  {
    "vge_id": 416524,
    "Lat": 52.32508087158203,
    "Long": 4.858156204223633,
    "Postcode": "1081EH",
    "Straat": "Bolestein",
    "huisnummer": "482",
    "naam": null,
    "geldig_vanaf": null,
    "wijk_code": null
  },
  {
    "vge_id": 416525,
    "Lat": 52.32508087158203,
    "Long": 4.858156204223633,
    "Postcode": "1081EH",
    "Straat": "Bolestein",
    "huisnummer": "484",
    "naam": null,
    "geldig_vanaf": null,
    "wijk_code": null
  },
  {
    "vge_id": 416526,
    "Lat": 52.3250617980957,
    "Long": 4.858156204223633,
    "Postcode": "1081EH",
    "Straat": "Bolestein",
    "huisnummer": "484",
    "naam": null,
    "geldig_vanaf": null,
    "wijk_code": null
  },
  {
    "vge_id": 416527,
    "Lat": 52.325050354003906,
    "Long": 4.858170986175537,
    "Postcode": "1081EH",
    "Straat": "Bolestein",
    "huisnummer": "486",
    "naam": null,
    "geldig_vanaf": null,
    "wijk_code": null
  },
  {
    "vge_id": 416528,
    "Lat": 52.325035095214844,
    "Long": 4.858156681060791,
    "Postcode": "1081EH",
    "Straat": "Bolestein",
    "huisnummer": "486",
    "naam": null,
    "geldig_vanaf": null,
    "wijk_code": null
  },
  {
    "vge_id": 416529,
    "Lat": 52.32502365112305,
    "Long": 4.858185768127441,
    "Postcode": "1081EH",
    "Straat": "Bolestein",
    "huisnummer": "488",
    "naam": null,
    "geldig_vanaf": null,
    "wijk_code": null
  },
  {
    "vge_id": 416530,
    "Lat": 52.325008392333984,
    "Long": 4.858201026916504,
    "Postcode": "1081EH",
    "Straat": "Bolestein",
    "huisnummer": "488",
    "naam": null,
    "geldig_vanaf": null,
    "wijk_code": null
  },
  {
    "vge_id": 416531,
    "Lat": 52.324989318847656,
    "Long": 4.858201026916504,
    "Postcode": "1081EH",
    "Straat": "Bolestein",
    "huisnummer": "490",
    "naam": null,
    "geldig_vanaf": null,
    "wijk_code": null
  },
  {
    "vge_id": 416532,
    "Lat": 52.32497024536133,
    "Long": 4.858186721801758,
    "Postcode": "1081EH",
    "Straat": "Bolestein",
    "huisnummer": "490",
    "naam": null,
    "geldig_vanaf": null,
    "wijk_code": null
  },
  {
    "vge_id": 416533,
    "Lat": 52.3249626159668,
    "Long": 4.858186721801758,
    "Postcode": "1081EH",
    "Straat": "Bolestein",
    "huisnummer": "492",
    "naam": null,
    "geldig_vanaf": null,
    "wijk_code": null
  },
  {
    "vge_id": 416534,
    "Lat": 52.324954986572266,
    "Long": 4.858201503753662,
    "Postcode": "1081EH",
    "Straat": "Bolestein",
    "huisnummer": "492",
    "naam": null,
    "geldig_vanaf": null,
    "wijk_code": null
  },
  {
    "vge_id": 416605,
    "Lat": 52.32588195800781,
    "Long": 4.865143299102783,
    "Postcode": "1081AZ",
    "Straat": "Goudestein",
    "huisnummer": "1",
    "naam": null,
    "geldig_vanaf": null,
    "wijk_code": null
  },
  {
    "vge_id": 416606,
    "Lat": 52.32582092285156,
    "Long": 4.865159034729004,
    "Postcode": "1081AZ",
    "Straat": "Goudestein",
    "huisnummer": "3",
    "naam": null,
    "geldig_vanaf": null,
    "wijk_code": null
  },
  {
    "vge_id": 416607,
    "Lat": 52.32575607299805,
    "Long": 4.865145206451416,
    "Postcode": "1081AZ",
    "Straat": "Goudestein",
    "huisnummer": "5",
    "naam": null,
    "geldig_vanaf": null,
    "wijk_code": null
  },
  {
    "vge_id": 416608,
    "Lat": 52.325714111328125,
    "Long": 4.865145683288574,
    "Postcode": "1081AZ",
    "Straat": "Goudestein",
    "huisnummer": "7",
    "naam": null,
    "geldig_vanaf": null,
    "wijk_code": null
  },
  {
    "vge_id": 416609,
    "Lat": 52.32565689086914,
    "Long": 4.865146160125732,
    "Postcode": "1081AZ",
    "Straat": "Goudestein",
    "huisnummer": "9",
    "naam": null,
    "geldig_vanaf": null,
    "wijk_code": null
  },
  {
    "vge_id": 416610,
    "Lat": 52.32558822631836,
    "Long": 4.865147113800049,
    "Postcode": "1081AZ",
    "Straat": "Goudestein",
    "huisnummer": "11",
    "naam": null,
    "geldig_vanaf": null,
    "wijk_code": null
  },
  {
    "vge_id": 416611,
    "Lat": 52.32554244995117,
    "Long": 4.865162372589111,
    "Postcode": "1081AZ",
    "Straat": "Goudestein",
    "huisnummer": "13",
    "naam": null,
    "geldig_vanaf": null,
    "wijk_code": null
  },
  {
    "vge_id": 416612,
    "Lat": 52.325477600097656,
    "Long": 4.865148067474365,
    "Postcode": "1081AZ",
    "Straat": "Goudestein",
    "huisnummer": "15",
    "naam": null,
    "geldig_vanaf": null,
    "wijk_code": null
  },
  {
    "vge_id": 416613,
    "Lat": 52.325416564941406,
    "Long": 4.865163803100586,
    "Postcode": "1081AZ",
    "Straat": "Goudestein",
    "huisnummer": "17",
    "naam": null,
    "geldig_vanaf": null,
    "wijk_code": null
  },
  {
    "vge_id": 416614,
    "Lat": 52.32536315917969,
    "Long": 4.86514949798584,
    "Postcode": "1081AZ",
    "Straat": "Goudestein",
    "huisnummer": "19",
    "naam": null,
    "geldig_vanaf": null,
    "wijk_code": null
  },
  {
    "vge_id": 416615,
    "Lat": 52.32537078857422,
    "Long": 4.864958763122559,
    "Postcode": "1081AZ",
    "Straat": "Goudestein",
    "huisnummer": "21",
    "naam": null,
    "geldig_vanaf": null,
    "wijk_code": null
  },
  {
    "vge_id": 416616,
    "Lat": 52.32543182373047,
    "Long": 4.8649582862854,
    "Postcode": "1081AZ",
    "Straat": "Goudestein",
    "huisnummer": "23",
    "naam": null,
    "geldig_vanaf": null,
    "wijk_code": null
  },
  {
    "vge_id": 416617,
    "Lat": 52.32548522949219,
    "Long": 4.864957332611084,
    "Postcode": "1081AZ",
    "Straat": "Goudestein",
    "huisnummer": "25",
    "naam": null,
    "geldig_vanaf": null,
    "wijk_code": null
  },
  {
    "vge_id": 416618,
    "Lat": 52.32554244995117,
    "Long": 4.864956855773926,
    "Postcode": "1081AZ",
    "Straat": "Goudestein",
    "huisnummer": "27",
    "naam": null,
    "geldig_vanaf": null,
    "wijk_code": null
  },
  {
    "vge_id": 416619,
    "Lat": 52.32560348510742,
    "Long": 4.864955902099609,
    "Postcode": "1081AZ",
    "Straat": "Goudestein",
    "huisnummer": "29",
    "naam": null,
    "geldig_vanaf": null,
    "wijk_code": null
  },
  {
    "vge_id": 416620,
    "Lat": 52.32565689086914,
    "Long": 4.864955425262451,
    "Postcode": "1081AZ",
    "Straat": "Goudestein",
    "huisnummer": "31",
    "naam": null,
    "geldig_vanaf": null,
    "wijk_code": null
  },
  {
    "vge_id": 416621,
    "Lat": 52.325721740722656,
    "Long": 4.864954948425293,
    "Postcode": "1081AZ",
    "Straat": "Goudestein",
    "huisnummer": "33",
    "naam": null,
    "geldig_vanaf": null,
    "wijk_code": null
  },
  {
    "vge_id": 416622,
    "Lat": 52.32576370239258,
    "Long": 4.864953994750977,
    "Postcode": "1081AZ",
    "Straat": "Goudestein",
    "huisnummer": "35",
    "naam": null,
    "geldig_vanaf": null,
    "wijk_code": null
  },
  {
    "vge_id": 416623,
    "Lat": 52.325828552246094,
    "Long": 4.864953517913818,
    "Postcode": "1081AZ",
    "Straat": "Goudestein",
    "huisnummer": "37",
    "naam": null,
    "geldig_vanaf": null,
    "wijk_code": null
  },
  {
    "vge_id": 416624,
    "Lat": 52.32588195800781,
    "Long": 4.86495304107666,
    "Postcode": "1081AZ",
    "Straat": "Goudestein",
    "huisnummer": "39",
    "naam": null,
    "geldig_vanaf": null,
    "wijk_code": null
  },
  {
    "vge_id": 416625,
    "Lat": 52.32588195800781,
    "Long": 4.865231513977051,
    "Postcode": "1081AZ",
    "Straat": "Goudestein",
    "huisnummer": "41",
    "naam": null,
    "geldig_vanaf": null,
    "wijk_code": null
  },
  {
    "vge_id": 416626,
    "Lat": 52.32581329345703,
    "Long": 4.865217685699463,
    "Postcode": "1081AZ",
    "Straat": "Goudestein",
    "huisnummer": "43",
    "naam": null,
    "geldig_vanaf": null,
    "wijk_code": null
  },
  {
    "vge_id": 416627,
    "Lat": 52.32575607299805,
    "Long": 4.865232944488525,
    "Postcode": "1081AZ",
    "Straat": "Goudestein",
    "huisnummer": "45",
    "naam": null,
    "geldig_vanaf": null,
    "wijk_code": null
  },
  {
    "vge_id": 416628,
    "Lat": 52.325721740722656,
    "Long": 4.865218639373779,
    "Postcode": "1081AZ",
    "Straat": "Goudestein",
    "huisnummer": "47",
    "naam": null,
    "geldig_vanaf": null,
    "wijk_code": null
  },
  {
    "vge_id": 416629,
    "Lat": 52.32564163208008,
    "Long": 4.865219593048096,
    "Postcode": "1081AZ",
    "Straat": "Goudestein",
    "huisnummer": "49",
    "naam": null,
    "geldig_vanaf": null,
    "wijk_code": null
  },
  {
    "vge_id": 416630,
    "Lat": 52.32560348510742,
    "Long": 4.865220069885254,
    "Postcode": "1081AZ",
    "Straat": "Goudestein",
    "huisnummer": "51",
    "naam": null,
    "geldig_vanaf": null,
    "wijk_code": null
  },
  {
    "vge_id": 416631,
    "Lat": 52.32554244995117,
    "Long": 4.86522102355957,
    "Postcode": "1081AZ",
    "Straat": "Goudestein",
    "huisnummer": "53",
    "naam": null,
    "geldig_vanaf": null,
    "wijk_code": null
  },
  {
    "vge_id": 416632,
    "Lat": 52.325477600097656,
    "Long": 4.865206718444824,
    "Postcode": "1081AZ",
    "Straat": "Goudestein",
    "huisnummer": "55",
    "naam": null,
    "geldig_vanaf": null,
    "wijk_code": null
  },
  {
    "vge_id": 416633,
    "Lat": 52.325416564941406,
    "Long": 4.865207672119141,
    "Postcode": "1081AZ",
    "Straat": "Goudestein",
    "huisnummer": "57",
    "naam": null,
    "geldig_vanaf": null,
    "wijk_code": null
  },
  {
    "vge_id": 416634,
    "Lat": 52.32536315917969,
    "Long": 4.865222930908203,
    "Postcode": "1081AZ",
    "Straat": "Goudestein",
    "huisnummer": "59",
    "naam": null,
    "geldig_vanaf": null,
    "wijk_code": null
  },
  {
    "vge_id": 416635,
    "Lat": 52.32534408569336,
    "Long": 4.864959239959717,
    "Postcode": "1081AZ",
    "Straat": "Goudestein",
    "huisnummer": "61",
    "naam": null,
    "geldig_vanaf": null,
    "wijk_code": null
  },
  {
    "vge_id": 416636,
    "Lat": 52.325416564941406,
    "Long": 4.86492919921875,
    "Postcode": "1081AZ",
    "Straat": "Goudestein",
    "huisnummer": "63",
    "naam": null,
    "geldig_vanaf": null,
    "wijk_code": null
  },
  {
    "vge_id": 416637,
    "Lat": 52.32545852661133,
    "Long": 4.864957809448242,
    "Postcode": "1081AZ",
    "Straat": "Goudestein",
    "huisnummer": "65",
    "naam": null,
    "geldig_vanaf": null,
    "wijk_code": null
  },
  {
    "vge_id": 416638,
    "Lat": 52.32551193237305,
    "Long": 4.864957332611084,
    "Postcode": "1081AZ",
    "Straat": "Goudestein",
    "huisnummer": "67",
    "naam": null,
    "geldig_vanaf": null,
    "wijk_code": null
  },
  {
    "vge_id": 416639,
    "Lat": 52.32557678222656,
    "Long": 4.864941596984863,
    "Postcode": "1081AZ",
    "Straat": "Goudestein",
    "huisnummer": "69",
    "naam": null,
    "geldig_vanaf": null,
    "wijk_code": null
  },
  {
    "vge_id": 416640,
    "Lat": 52.32563018798828,
    "Long": 4.864955902099609,
    "Postcode": "1081AZ",
    "Straat": "Goudestein",
    "huisnummer": "71",
    "naam": null,
    "geldig_vanaf": null,
    "wijk_code": null
  },
  {
    "vge_id": 416641,
    "Lat": 52.32568359375,
    "Long": 4.864954948425293,
    "Postcode": "1081AZ",
    "Straat": "Goudestein",
    "huisnummer": "73",
    "naam": null,
    "geldig_vanaf": null,
    "wijk_code": null
  },
  {
    "vge_id": 416642,
    "Lat": 52.32575607299805,
    "Long": 4.864924907684326,
    "Postcode": "1081AZ",
    "Straat": "Goudestein",
    "huisnummer": "75",
    "naam": null,
    "geldig_vanaf": null,
    "wijk_code": null
  },
  {
    "vge_id": 416643,
    "Lat": 52.325801849365234,
    "Long": 4.864953994750977,
    "Postcode": "1081AZ",
    "Straat": "Goudestein",
    "huisnummer": "77",
    "naam": null,
    "geldig_vanaf": null,
    "wijk_code": null
  },
  {
    "vge_id": 416644,
    "Lat": 52.32585525512695,
    "Long": 4.86495304107666,
    "Postcode": "1081AZ",
    "Straat": "Goudestein",
    "huisnummer": "79",
    "naam": null,
    "geldig_vanaf": null,
    "wijk_code": null
  },
  {
    "vge_id": 416862,
    "Lat": 52.34548568725586,
    "Long": 4.824276447296143,
    "Postcode": "1066DM",
    "Straat": "Louweshoek",
    "huisnummer": "1",
    "naam": null,
    "geldig_vanaf": null,
    "wijk_code": null
  },
  {
    "vge_id": 416863,
    "Lat": 52.34551239013672,
    "Long": 4.824290752410889,
    "Postcode": "1066DM",
    "Straat": "Louweshoek",
    "huisnummer": "2",
    "naam": null,
    "geldig_vanaf": null,
    "wijk_code": null
  },
  {
    "vge_id": 416864,
    "Lat": 52.34553146362305,
    "Long": 4.824319839477539,
    "Postcode": "1066DM",
    "Straat": "Louweshoek",
    "huisnummer": "3",
    "naam": null,
    "geldig_vanaf": null,
    "wijk_code": null
  },
  {
    "vge_id": 416865,
    "Lat": 52.34553146362305,
    "Long": 4.824349403381348,
    "Postcode": "1066DM",
    "Straat": "Louweshoek",
    "huisnummer": "4",
    "naam": null,
    "geldig_vanaf": null,
    "wijk_code": null
  },
  {
    "vge_id": 416866,
    "Lat": 52.345523834228516,
    "Long": 4.824364185333252,
    "Postcode": "1066DM",
    "Straat": "Louweshoek",
    "huisnummer": "5",
    "naam": null,
    "geldig_vanaf": null,
    "wijk_code": null
  },
  {
    "vge_id": 416867,
    "Lat": 52.345516204833984,
    "Long": 4.824408054351807,
    "Postcode": "1066DM",
    "Straat": "Louweshoek",
    "huisnummer": "6",
    "naam": null,
    "geldig_vanaf": null,
    "wijk_code": null
  },
  {
    "vge_id": 416868,
    "Lat": 52.34548568725586,
    "Long": 4.824349880218506,
    "Postcode": "1066DM",
    "Straat": "Louweshoek",
    "huisnummer": "7",
    "naam": null,
    "geldig_vanaf": null,
    "wijk_code": null
  },
  {
    "vge_id": 416869,
    "Lat": 52.34548568725586,
    "Long": 4.8243937492370605,
    "Postcode": "1066DM",
    "Straat": "Louweshoek",
    "huisnummer": "8",
    "naam": null,
    "geldig_vanaf": null,
    "wijk_code": null
  },
  {
    "vge_id": 416870,
    "Lat": 52.345497131347656,
    "Long": 4.824423313140869,
    "Postcode": "1066DM",
    "Straat": "Louweshoek",
    "huisnummer": "9",
    "naam": null,
    "geldig_vanaf": null,
    "wijk_code": null
  },
  {
    "vge_id": 416871,
    "Lat": 52.345794677734375,
    "Long": 4.824434280395508,
    "Postcode": "1066DM",
    "Straat": "Louweshoek",
    "huisnummer": "10",
    "naam": null,
    "geldig_vanaf": null,
    "wijk_code": null
  },
  {
    "vge_id": 416872,
    "Lat": 52.345279693603516,
    "Long": 4.824044227600098,
    "Postcode": "1066DM",
    "Straat": "Louweshoek",
    "huisnummer": "11",
    "naam": null,
    "geldig_vanaf": null,
    "wijk_code": null
  },
  {
    "vge_id": 416873,
    "Lat": 52.345829010009766,
    "Long": 4.824419021606445,
    "Postcode": "1066DM",
    "Straat": "Louweshoek",
    "huisnummer": "12",
    "naam": null,
    "geldig_vanaf": null,
    "wijk_code": null
  },
  {
    "vge_id": 416874,
    "Lat": 52.3452262878418,
    "Long": 4.823986530303955,
    "Postcode": "1066DM",
    "Straat": "Louweshoek",
    "huisnummer": "13",
    "naam": null,
    "geldig_vanaf": null,
    "wijk_code": null
  },
  {
    "vge_id": 416875,
    "Lat": 52.345863342285156,
    "Long": 4.824418544769287,
    "Postcode": "1066DM",
    "Straat": "Louweshoek",
    "huisnummer": "14",
    "naam": null,
    "geldig_vanaf": null,
    "wijk_code": null
  },
  {
    "vge_id": 416876,
    "Lat": 52.34516906738281,
    "Long": 4.823957443237305,
    "Postcode": "1066DM",
    "Straat": "Louweshoek",
    "huisnummer": "15",
    "naam": null,
    "geldig_vanaf": null,
    "wijk_code": null
  },
  {
    "vge_id": 416877,
    "Lat": 52.34590148925781,
    "Long": 4.824418067932129,
    "Postcode": "1066DM",
    "Straat": "Louweshoek",
    "huisnummer": "16",
    "naam": null,
    "geldig_vanaf": null,
    "wijk_code": null
  },
  {
    "vge_id": 416878,
    "Lat": 52.34518814086914,
    "Long": 4.82391357421875,
    "Postcode": "1066DM",
    "Straat": "Louweshoek",
    "huisnummer": "17",
    "naam": null,
    "geldig_vanaf": null,
    "wijk_code": null
  },
  {
    "vge_id": 416879,
    "Lat": 52.345970153808594,
    "Long": 4.824226379394531,
    "Postcode": "1066DM",
    "Straat": "Louweshoek",
    "huisnummer": "18",
    "naam": null,
    "geldig_vanaf": null,
    "wijk_code": null
  },
  {
    "vge_id": 416880,
    "Lat": 52.34518814086914,
    "Long": 4.82391357421875,
    "Postcode": "1066DM",
    "Straat": "Louweshoek",
    "huisnummer": "19",
    "naam": null,
    "geldig_vanaf": null,
    "wijk_code": null
  },
  {
    "vge_id": 416881,
    "Lat": 52.34602737426758,
    "Long": 4.824328422546387,
    "Postcode": "1066DN",
    "Straat": "Louweshoek",
    "huisnummer": "20",
    "naam": null,
    "geldig_vanaf": null,
    "wijk_code": null
  },
  {
    "vge_id": 416882,
    "Lat": 52.34518814086914,
    "Long": 4.82391357421875,
    "Postcode": "1066DN",
    "Straat": "Louweshoek",
    "huisnummer": "21",
    "naam": null,
    "geldig_vanaf": null,
    "wijk_code": null
  },
  {
    "vge_id": 416883,
    "Lat": 52.34600067138672,
    "Long": 4.824357986450195,
    "Postcode": "1066DN",
    "Straat": "Louweshoek",
    "huisnummer": "22",
    "naam": null,
    "geldig_vanaf": null,
    "wijk_code": null
  },
  {
    "vge_id": 416884,
    "Lat": 52.34516906738281,
    "Long": 4.82391357421875,
    "Postcode": "1066DN",
    "Straat": "Louweshoek",
    "huisnummer": "23",
    "naam": null,
    "geldig_vanaf": null,
    "wijk_code": null
  },
  {
    "vge_id": 416885,
    "Lat": 52.34600067138672,
    "Long": 4.824387550354004,
    "Postcode": "1066DN",
    "Straat": "Louweshoek",
    "huisnummer": "24",
    "naam": null,
    "geldig_vanaf": null,
    "wijk_code": null
  },
  {
    "vge_id": 416886,
    "Lat": 52.34515380859375,
    "Long": 4.823943138122559,
    "Postcode": "1066DN",
    "Straat": "Louweshoek",
    "huisnummer": "25",
    "naam": null,
    "geldig_vanaf": null,
    "wijk_code": null
  },
  {
    "vge_id": 416887,
    "Lat": 52.34600067138672,
    "Long": 4.824431419372559,
    "Postcode": "1066DN",
    "Straat": "Louweshoek",
    "huisnummer": "26",
    "naam": null,
    "geldig_vanaf": null,
    "wijk_code": null
  },
  {
    "vge_id": 416888,
    "Lat": 52.34527587890625,
    "Long": 4.82345724105835,
    "Postcode": "1066DN",
    "Straat": "Louweshoek",
    "huisnummer": "27",
    "naam": null,
    "geldig_vanaf": null,
    "wijk_code": null
  },
  {
    "vge_id": 416889,
    "Lat": 52.34597396850586,
    "Long": 4.824446678161621,
    "Postcode": "1066DN",
    "Straat": "Louweshoek",
    "huisnummer": "28",
    "naam": null,
    "geldig_vanaf": null,
    "wijk_code": null
  },
  {
    "vge_id": 416890,
    "Lat": 52.34527587890625,
    "Long": 4.8235015869140625,
    "Postcode": "1066DN",
    "Straat": "Louweshoek",
    "huisnummer": "29",
    "naam": null,
    "geldig_vanaf": null,
    "wijk_code": null
  },
  {
    "vge_id": 416891,
    "Lat": 52.34608840942383,
    "Long": 4.823740482330322,
    "Postcode": "1066DN",
    "Straat": "Louweshoek",
    "huisnummer": "30",
    "naam": null,
    "geldig_vanaf": null,
    "wijk_code": null
  },
  {
    "vge_id": 416892,
    "Lat": 52.34525680541992,
    "Long": 4.823472499847412,
    "Postcode": "1066DN",
    "Straat": "Louweshoek",
    "huisnummer": "31",
    "naam": null,
    "geldig_vanaf": null,
    "wijk_code": null
  },
  {
    "vge_id": 416893,
    "Lat": 52.3460578918457,
    "Long": 4.8237409591674805,
    "Postcode": "1066DN",
    "Straat": "Louweshoek",
    "huisnummer": "32",
    "naam": null,
    "geldig_vanaf": null,
    "wijk_code": null
  },
  {
    "vge_id": 416894,
    "Lat": 52.34524154663086,
    "Long": 4.823487281799316,
    "Postcode": "1066DN",
    "Straat": "Louweshoek",
    "huisnummer": "33",
    "naam": null,
    "geldig_vanaf": null,
    "wijk_code": null
  },
  {
    "vge_id": 416895,
    "Lat": 52.34604263305664,
    "Long": 4.8237409591674805,
    "Postcode": "1066DN",
    "Straat": "Louweshoek",
    "huisnummer": "34",
    "naam": null,
    "geldig_vanaf": null,
    "wijk_code": null
  },
  {
    "vge_id": 416896,
    "Lat": 52.34523010253906,
    "Long": 4.823502063751221,
    "Postcode": "1066DN",
    "Straat": "Louweshoek",
    "huisnummer": "35",
    "naam": null,
    "geldig_vanaf": null,
    "wijk_code": null
  },
  {
    "vge_id": 416897,
    "Lat": 52.346004486083984,
    "Long": 4.823741436004639,
    "Postcode": "1066DN",
    "Straat": "Louweshoek",
    "huisnummer": "36",
    "naam": null,
    "geldig_vanaf": null,
    "wijk_code": null
  },
  {
    "vge_id": 416898,
    "Lat": 52.34528350830078,
    "Long": 4.823413372039795,
    "Postcode": "1066DN",
    "Straat": "Louweshoek",
    "huisnummer": "37",
    "naam": null,
    "geldig_vanaf": null,
    "wijk_code": null
  },
  {
    "vge_id": 416899,
    "Lat": 52.34526824951172,
    "Long": 4.823428153991699,
    "Postcode": "1066DN",
    "Straat": "Louweshoek",
    "huisnummer": "39",
    "naam": null,
    "geldig_vanaf": null,
    "wijk_code": null
  },
  {
    "vge_id": 416900,
    "Lat": 52.34543991088867,
    "Long": 4.824233055114746,
    "Postcode": "1066DP",
    "Straat": "Louweshoek",
    "huisnummer": "101",
    "naam": null,
    "geldig_vanaf": null,
    "wijk_code": null
  },
  {
    "vge_id": 416901,
    "Lat": 52.3455696105957,
    "Long": 4.824451446533203,
    "Postcode": "1066DP",
    "Straat": "Louweshoek",
    "huisnummer": "102",
    "naam": null,
    "geldig_vanaf": null,
    "wijk_code": null
  },
  {
    "vge_id": 416902,
    "Lat": 52.34559631347656,
    "Long": 4.824436664581299,
    "Postcode": "1066DP",
    "Straat": "Louweshoek",
    "huisnummer": "103",
    "naam": null,
    "geldig_vanaf": null,
    "wijk_code": null
  },
  {
    "vge_id": 416903,
    "Lat": 52.34561538696289,
    "Long": 4.824436187744141,
    "Postcode": "1066DP",
    "Straat": "Louweshoek",
    "huisnummer": "104",
    "naam": null,
    "geldig_vanaf": null,
    "wijk_code": null
  },
  {
    "vge_id": 416904,
    "Lat": 52.34564208984375,
    "Long": 4.824436187744141,
    "Postcode": "1066DP",
    "Straat": "Louweshoek",
    "huisnummer": "105",
    "naam": null,
    "geldig_vanaf": null,
    "wijk_code": null
  },
  {
    "vge_id": 416905,
    "Lat": 52.3455696105957,
    "Long": 4.824392795562744,
    "Postcode": "1066DP",
    "Straat": "Louweshoek",
    "huisnummer": "106",
    "naam": null,
    "geldig_vanaf": null,
    "wijk_code": null
  },
  {
    "vge_id": 416906,
    "Lat": 52.34567642211914,
    "Long": 4.824406147003174,
    "Postcode": "1066DP",
    "Straat": "Louweshoek",
    "huisnummer": "107",
    "naam": null,
    "geldig_vanaf": null,
    "wijk_code": null
  },
  {
    "vge_id": 416907,
    "Lat": 52.34567642211914,
    "Long": 4.824406147003174,
    "Postcode": "1066DP",
    "Straat": "Louweshoek",
    "huisnummer": "108",
    "naam": null,
    "geldig_vanaf": null,
    "wijk_code": null
  },
  {
    "vge_id": 416908,
    "Lat": 52.34566879272461,
    "Long": 4.824391841888428,
    "Postcode": "1066DP",
    "Straat": "Louweshoek",
    "huisnummer": "109",
    "naam": null,
    "geldig_vanaf": null,
    "wijk_code": null
  },
  {
    "vge_id": 416909,
    "Lat": 52.34578323364258,
    "Long": 4.824389934539795,
    "Postcode": "1066DP",
    "Straat": "Louweshoek",
    "huisnummer": "110",
    "naam": null,
    "geldig_vanaf": null,
    "wijk_code": null
  },
  {
    "vge_id": 416910,
    "Lat": 52.345359802246094,
    "Long": 4.824131488800049,
    "Postcode": "1066DP",
    "Straat": "Louweshoek",
    "huisnummer": "111",
    "naam": null,
    "geldig_vanaf": null,
    "wijk_code": null
  },
  {
    "vge_id": 416911,
    "Lat": 52.34575653076172,
    "Long": 4.824405193328857,
    "Postcode": "1066DP",
    "Straat": "Louweshoek",
    "huisnummer": "112",
    "naam": null,
    "geldig_vanaf": null,
    "wijk_code": null
  },
  {
    "vge_id": 416912,
    "Lat": 52.345306396484375,
    "Long": 4.824088096618652,
    "Postcode": "1066DP",
    "Straat": "Louweshoek",
    "huisnummer": "113",
    "naam": null,
    "geldig_vanaf": null,
    "wijk_code": null
  },
  {
    "vge_id": 416913,
    "Lat": 52.345855712890625,
    "Long": 4.824477195739746,
    "Postcode": "1066DP",
    "Straat": "Louweshoek",
    "huisnummer": "114",
    "naam": null,
    "geldig_vanaf": null,
    "wijk_code": null
  },
  {
    "vge_id": 416914,
    "Lat": 52.34524154663086,
    "Long": 4.824029922485352,
    "Postcode": "1066DP",
    "Straat": "Louweshoek",
    "huisnummer": "115",
    "naam": null,
    "geldig_vanaf": null,
    "wijk_code": null
  },
  {
    "vge_id": 416915,
    "Lat": 52.345909118652344,
    "Long": 4.824461936950684,
    "Postcode": "1066DP",
    "Straat": "Louweshoek",
    "huisnummer": "116",
    "naam": null,
    "geldig_vanaf": null,
    "wijk_code": null
  },
  {
    "vge_id": 416916,
    "Lat": 52.34520721435547,
    "Long": 4.824045181274414,
    "Postcode": "1066DP",
    "Straat": "Louweshoek",
    "huisnummer": "117",
    "naam": null,
    "geldig_vanaf": null,
    "wijk_code": null
  },
  {
    "vge_id": 416917,
    "Lat": 52.34592056274414,
    "Long": 4.824491024017334,
    "Postcode": "1066DP",
    "Straat": "Louweshoek",
    "huisnummer": "118",
    "naam": null,
    "geldig_vanaf": null,
    "wijk_code": null
  },
  {
    "vge_id": 416918,
    "Lat": 52.34517288208008,
    "Long": 4.824030876159668,
    "Postcode": "1066DP",
    "Straat": "Louweshoek",
    "huisnummer": "119",
    "naam": null,
    "geldig_vanaf": null,
    "wijk_code": null
  },
  {
    "vge_id": 416919,
    "Lat": 52.34605026245117,
    "Long": 4.82371187210083,
    "Postcode": "1066DP",
    "Straat": "Louweshoek",
    "huisnummer": "120",
    "naam": null,
    "geldig_vanaf": null,
    "wijk_code": null
  },
  {
    "vge_id": 416920,
    "Lat": 52.34513473510742,
    "Long": 4.8239874839782715,
    "Postcode": "1066DP",
    "Straat": "Louweshoek",
    "huisnummer": "121",
    "naam": null,
    "geldig_vanaf": null,
    "wijk_code": null
  },
  {
    "vge_id": 416921,
    "Lat": 52.34603500366211,
    "Long": 4.824269771575928,
    "Postcode": "1066DR",
    "Straat": "Louweshoek",
    "huisnummer": "122",
    "naam": null,
    "geldig_vanaf": null,
    "wijk_code": null
  },
  {
    "vge_id": 416922,
    "Lat": 52.34523391723633,
    "Long": 4.823619365692139,
    "Postcode": "1066DR",
    "Straat": "Louweshoek",
    "huisnummer": "123",
    "naam": null,
    "geldig_vanaf": null,
    "wijk_code": null
  },
  {
    "vge_id": 416923,
    "Lat": 52.3460807800293,
    "Long": 4.824268817901611,
    "Postcode": "1066DR",
    "Straat": "Louweshoek",
    "huisnummer": "124",
    "naam": null,
    "geldig_vanaf": null,
    "wijk_code": null
  },
  {
    "vge_id": 416924,
    "Lat": 52.34527587890625,
    "Long": 4.823486804962158,
    "Postcode": "1066DR",
    "Straat": "Louweshoek",
    "huisnummer": "125",
    "naam": null,
    "geldig_vanaf": null,
    "wijk_code": null
  },
  {
    "vge_id": 416925,
    "Lat": 52.346107482910156,
    "Long": 4.824283123016357,
    "Postcode": "1066DR",
    "Straat": "Louweshoek",
    "huisnummer": "126",
    "naam": null,
    "geldig_vanaf": null,
    "wijk_code": null
  },
  {
    "vge_id": 416926,
    "Lat": 52.34513473510742,
    "Long": 4.8239874839782715,
    "Postcode": "1066DR",
    "Straat": "Louweshoek",
    "huisnummer": "127",
    "naam": null,
    "geldig_vanaf": null,
    "wijk_code": null
  },
  {
    "vge_id": 416927,
    "Lat": 52.3460693359375,
    "Long": 4.824283599853516,
    "Postcode": "1066DR",
    "Straat": "Louweshoek",
    "huisnummer": "128",
    "naam": null,
    "geldig_vanaf": null,
    "wijk_code": null
  },
  {
    "vge_id": 416928,
    "Lat": 52.345115661621094,
    "Long": 4.823973178863525,
    "Postcode": "1066DR",
    "Straat": "Louweshoek",
    "huisnummer": "129",
    "naam": null,
    "geldig_vanaf": null,
    "wijk_code": null
  },
  {
    "vge_id": 416929,
    "Lat": 52.34605407714844,
    "Long": 4.824284076690674,
    "Postcode": "1066DR",
    "Straat": "Louweshoek",
    "huisnummer": "130",
    "naam": null,
    "geldig_vanaf": null,
    "wijk_code": null
  },
  {
    "vge_id": 416930,
    "Lat": 52.34526824951172,
    "Long": 4.823428153991699,
    "Postcode": "1066DR",
    "Straat": "Louweshoek",
    "huisnummer": "131",
    "naam": null,
    "geldig_vanaf": null,
    "wijk_code": null
  },
  {
    "vge_id": 416931,
    "Lat": 52.34609603881836,
    "Long": 4.823770046234131,
    "Postcode": "1066DR",
    "Straat": "Louweshoek",
    "huisnummer": "132",
    "naam": null,
    "geldig_vanaf": null,
    "wijk_code": null
  },
  {
    "vge_id": 416932,
    "Lat": 52.34524917602539,
    "Long": 4.8234429359436035,
    "Postcode": "1066DR",
    "Straat": "Louweshoek",
    "huisnummer": "133",
    "naam": null,
    "geldig_vanaf": null,
    "wijk_code": null
  },
  {
    "vge_id": 416933,
    "Lat": 52.34609603881836,
    "Long": 4.823623180389404,
    "Postcode": "1066DR",
    "Straat": "Louweshoek",
    "huisnummer": "134",
    "naam": null,
    "geldig_vanaf": null,
    "wijk_code": null
  },
  {
    "vge_id": 416934,
    "Lat": 52.34523010253906,
    "Long": 4.823487281799316,
    "Postcode": "1066DR",
    "Straat": "Louweshoek",
    "huisnummer": "135",
    "naam": null,
    "geldig_vanaf": null,
    "wijk_code": null
  },
  {
    "vge_id": 416935,
    "Lat": 52.34607696533203,
    "Long": 4.823711395263672,
    "Postcode": "1066DR",
    "Straat": "Louweshoek",
    "huisnummer": "136",
    "naam": null,
    "geldig_vanaf": null,
    "wijk_code": null
  },
  {
    "vge_id": 416936,
    "Lat": 52.34523010253906,
    "Long": 4.82356071472168,
    "Postcode": "1066DR",
    "Straat": "Louweshoek",
    "huisnummer": "137",
    "naam": null,
    "geldig_vanaf": null,
    "wijk_code": null
  },
  {
    "vge_id": 416937,
    "Lat": 52.34605026245117,
    "Long": 4.823653221130371,
    "Postcode": "1066DR",
    "Straat": "Louweshoek",
    "huisnummer": "138",
    "naam": null,
    "geldig_vanaf": null,
    "wijk_code": null
  },
  {
    "vge_id": 416938,
    "Lat": 52.34523010253906,
    "Long": 4.82356071472168,
    "Postcode": "1066DR",
    "Straat": "Louweshoek",
    "huisnummer": "139",
    "naam": null,
    "geldig_vanaf": null,
    "wijk_code": null
  },
  {
    "vge_id": 416939,
    "Lat": 52.3460693359375,
    "Long": 4.8236823081970215,
    "Postcode": "1066DR",
    "Straat": "Louweshoek",
    "huisnummer": "140",
    "naam": null,
    "geldig_vanaf": null,
    "wijk_code": null
  },
  {
    "vge_id": 416940,
    "Lat": 52.34529495239258,
    "Long": 4.823412895202637,
    "Postcode": "1066DR",
    "Straat": "Louweshoek",
    "huisnummer": "141",
    "naam": null,
    "geldig_vanaf": null,
    "wijk_code": null
  },
  {
    "vge_id": 416941,
    "Lat": 52.345333099365234,
    "Long": 4.823999404907227,
    "Postcode": "1066DR",
    "Straat": "Louweshoek",
    "huisnummer": "143",
    "naam": null,
    "geldig_vanaf": null,
    "wijk_code": null
  },
  {
    "vge_id": 416942,
    "Lat": 52.345489501953125,
    "Long": 4.824496746063232,
    "Postcode": "1066DS",
    "Straat": "Louweshoek",
    "huisnummer": "201",
    "naam": null,
    "geldig_vanaf": null,
    "wijk_code": null
  },
  {
    "vge_id": 416943,
    "Lat": 52.34553146362305,
    "Long": 4.824496269226074,
    "Postcode": "1066DS",
    "Straat": "Louweshoek",
    "huisnummer": "202",
    "naam": null,
    "geldig_vanaf": null,
    "wijk_code": null
  },
  {
    "vge_id": 416944,
    "Lat": 52.3454704284668,
    "Long": 4.8243207931518555,
    "Postcode": "1066DS",
    "Straat": "Louweshoek",
    "huisnummer": "203",
    "naam": null,
    "geldig_vanaf": null,
    "wijk_code": null
  },
  {
    "vge_id": 416945,
    "Lat": 52.34550476074219,
    "Long": 4.824320316314697,
    "Postcode": "1066DS",
    "Straat": "Louweshoek",
    "huisnummer": "204",
    "naam": null,
    "geldig_vanaf": null,
    "wijk_code": null
  },
  {
    "vge_id": 416946,
    "Lat": 52.34550476074219,
    "Long": 4.824320316314697,
    "Postcode": "1066DS",
    "Straat": "Louweshoek",
    "huisnummer": "205",
    "naam": null,
    "geldig_vanaf": null,
    "wijk_code": null
  },
  {
    "vge_id": 416947,
    "Lat": 52.34542465209961,
    "Long": 4.82421875,
    "Postcode": "1066DS",
    "Straat": "Louweshoek",
    "huisnummer": "206",
    "naam": null,
    "geldig_vanaf": null,
    "wijk_code": null
  },
  {
    "vge_id": 416948,
    "Lat": 52.34539794921875,
    "Long": 4.824204444885254,
    "Postcode": "1066DS",
    "Straat": "Louweshoek",
    "huisnummer": "207",
    "naam": null,
    "geldig_vanaf": null,
    "wijk_code": null
  },
  {
    "vge_id": 416949,
    "Lat": 52.34538650512695,
    "Long": 4.824204444885254,
    "Postcode": "1066DS",
    "Straat": "Louweshoek",
    "huisnummer": "208",
    "naam": null,
    "geldig_vanaf": null,
    "wijk_code": null
  },
  {
    "vge_id": 416950,
    "Lat": 52.34539794921875,
    "Long": 4.82421875,
    "Postcode": "1066DS",
    "Straat": "Louweshoek",
    "huisnummer": "209",
    "naam": null,
    "geldig_vanaf": null,
    "wijk_code": null
  },
  {
    "vge_id": 416951,
    "Lat": 52.34572219848633,
    "Long": 4.824405670166016,
    "Postcode": "1066DS",
    "Straat": "Louweshoek",
    "huisnummer": "210",
    "naam": null,
    "geldig_vanaf": null,
    "wijk_code": null
  },
  {
    "vge_id": 416952,
    "Lat": 52.34528732299805,
    "Long": 4.824132442474365,
    "Postcode": "1066DS",
    "Straat": "Louweshoek",
    "huisnummer": "211",
    "naam": null,
    "geldig_vanaf": null,
    "wijk_code": null
  },
  {
    "vge_id": 416953,
    "Lat": 52.345741271972656,
    "Long": 4.824478626251221,
    "Postcode": "1066DS",
    "Straat": "Louweshoek",
    "huisnummer": "212",
    "naam": null,
    "geldig_vanaf": null,
    "wijk_code": null
  },
  {
    "vge_id": 416954,
    "Lat": 52.34521484375,
    "Long": 4.824089050292969,
    "Postcode": "1066DS",
    "Straat": "Louweshoek",
    "huisnummer": "213",
    "naam": null,
    "geldig_vanaf": null,
    "wijk_code": null
  },
  {
    "vge_id": 416955,
    "Lat": 52.345794677734375,
    "Long": 4.8244781494140625,
    "Postcode": "1066DS",
    "Straat": "Louweshoek",
    "huisnummer": "214",
    "naam": null,
    "geldig_vanaf": null,
    "wijk_code": null
  },
  {
    "vge_id": 416956,
    "Lat": 52.3452262878418,
    "Long": 4.824132919311523,
    "Postcode": "1066DT",
    "Straat": "Louweshoek",
    "huisnummer": "215",
    "naam": null,
    "geldig_vanaf": null,
    "wijk_code": null
  },
  {
    "vge_id": 416957,
    "Lat": 52.34587478637695,
    "Long": 4.8243889808654785,
    "Postcode": "1066DT",
    "Straat": "Louweshoek",
    "huisnummer": "216",
    "naam": null,
    "geldig_vanaf": null,
    "wijk_code": null
  },
  {
    "vge_id": 416958,
    "Lat": 52.34520721435547,
    "Long": 4.823986530303955,
    "Postcode": "1066DT",
    "Straat": "Louweshoek",
    "huisnummer": "217",
    "naam": null,
    "geldig_vanaf": null,
    "wijk_code": null
  },
  {
    "vge_id": 416959,
    "Lat": 52.34595489501953,
    "Long": 4.824226379394531,
    "Postcode": "1066DT",
    "Straat": "Louweshoek",
    "huisnummer": "218",
    "naam": null,
    "geldig_vanaf": null,
    "wijk_code": null
  },
  {
    "vge_id": 416960,
    "Lat": 52.34512710571289,
    "Long": 4.823914051055908,
    "Postcode": "1066DT",
    "Straat": "Louweshoek",
    "huisnummer": "219",
    "naam": null,
    "geldig_vanaf": null,
    "wijk_code": null
  },
  {
    "vge_id": 416961,
    "Lat": 52.34598922729492,
    "Long": 4.824225902557373,
    "Postcode": "1066DT",
    "Straat": "Louweshoek",
    "huisnummer": "220",
    "naam": null,
    "geldig_vanaf": null,
    "wijk_code": null
  },
  {
    "vge_id": 416962,
    "Lat": 52.34510803222656,
    "Long": 4.823929309844971,
    "Postcode": "1066DT",
    "Straat": "Louweshoek",
    "huisnummer": "221",
    "naam": null,
    "geldig_vanaf": null,
    "wijk_code": null
  },
  {
    "vge_id": 416963,
    "Lat": 52.34601593017578,
    "Long": 4.824269771575928,
    "Postcode": "1066DT",
    "Straat": "Louweshoek",
    "huisnummer": "222",
    "naam": null,
    "geldig_vanaf": null,
    "wijk_code": null
  },
  {
    "vge_id": 416964,
    "Lat": 52.34603500366211,
    "Long": 4.824269771575928,
    "Postcode": "1066DT",
    "Straat": "Louweshoek",
    "huisnummer": "224",
    "naam": null,
    "geldig_vanaf": null,
    "wijk_code": null
  },
  {
    "vge_id": 416965,
    "Lat": 52.34603500366211,
    "Long": 4.824284076690674,
    "Postcode": "1066DT",
    "Straat": "Louweshoek",
    "huisnummer": "226",
    "naam": null,
    "geldig_vanaf": null,
    "wijk_code": null
  },
  {
    "vge_id": 416966,
    "Lat": 52.3460807800293,
    "Long": 4.824283599853516,
    "Postcode": "1066DT",
    "Straat": "Louweshoek",
    "huisnummer": "228",
    "naam": null,
    "geldig_vanaf": null,
    "wijk_code": null
  },
  {
    "vge_id": 416967,
    "Lat": 52.34609603881836,
    "Long": 4.823843002319336,
    "Postcode": "1066DT",
    "Straat": "Louweshoek",
    "huisnummer": "230",
    "naam": null,
    "geldig_vanaf": null,
    "wijk_code": null
  },
  {
    "vge_id": 416968,
    "Lat": 52.34609603881836,
    "Long": 4.823725700378418,
    "Postcode": "1066DT",
    "Straat": "Louweshoek",
    "huisnummer": "232",
    "naam": null,
    "geldig_vanaf": null,
    "wijk_code": null
  },
  {
    "vge_id": 416969,
    "Lat": 52.34609603881836,
    "Long": 4.8236083984375,
    "Postcode": "1066DT",
    "Straat": "Louweshoek",
    "huisnummer": "234",
    "naam": null,
    "geldig_vanaf": null,
    "wijk_code": null
  },
  {
    "vge_id": 416970,
    "Lat": 52.34543228149414,
    "Long": 4.824174404144287,
    "Postcode": "1066DV",
    "Straat": "Louweshoek",
    "huisnummer": "301",
    "naam": null,
    "geldig_vanaf": null,
    "wijk_code": null
  },
  {
    "vge_id": 416971,
    "Lat": 52.34543991088867,
    "Long": 4.8241448402404785,
    "Postcode": "1066DV",
    "Straat": "Louweshoek",
    "huisnummer": "302",
    "naam": null,
    "geldig_vanaf": null,
    "wijk_code": null
  },
  {
    "vge_id": 416972,
    "Lat": 52.34541320800781,
    "Long": 4.824174880981445,
    "Postcode": "1066DV",
    "Straat": "Louweshoek",
    "huisnummer": "303",
    "naam": null,
    "geldig_vanaf": null,
    "wijk_code": null
  },
  {
    "vge_id": 416973,
    "Lat": 52.34535217285156,
    "Long": 4.824190139770508,
    "Postcode": "1066DV",
    "Straat": "Louweshoek",
    "huisnummer": "304",
    "naam": null,
    "geldig_vanaf": null,
    "wijk_code": null
  },
  {
    "vge_id": 416974,
    "Lat": 52.3453254699707,
    "Long": 4.82420539855957,
    "Postcode": "1066DV",
    "Straat": "Louweshoek",
    "huisnummer": "305",
    "naam": null,
    "geldig_vanaf": null,
    "wijk_code": null
  },
  {
    "vge_id": 416975,
    "Lat": 52.345298767089844,
    "Long": 4.824191093444824,
    "Postcode": "1066DV",
    "Straat": "Louweshoek",
    "huisnummer": "306",
    "naam": null,
    "geldig_vanaf": null,
    "wijk_code": null
  },
  {
    "vge_id": 416976,
    "Lat": 52.345340728759766,
    "Long": 4.824146270751953,
    "Postcode": "1066DV",
    "Straat": "Louweshoek",
    "huisnummer": "307",
    "naam": null,
    "geldig_vanaf": null,
    "wijk_code": null
  },
  {
    "vge_id": 416977,
    "Lat": 52.345314025878906,
    "Long": 4.8240437507629395,
    "Postcode": "1066DV",
    "Straat": "Louweshoek",
    "huisnummer": "308",
    "naam": null,
    "geldig_vanaf": null,
    "wijk_code": null
  },
  {
    "vge_id": 416978,
    "Lat": 52.34528732299805,
    "Long": 4.824014663696289,
    "Postcode": "1066DV",
    "Straat": "Louweshoek",
    "huisnummer": "309",
    "naam": null,
    "geldig_vanaf": null,
    "wijk_code": null
  },
  {
    "vge_id": 416979,
    "Lat": 52.34565734863281,
    "Long": 4.824347496032715,
    "Postcode": "1066DV",
    "Straat": "Louweshoek",
    "huisnummer": "310",
    "naam": null,
    "geldig_vanaf": null,
    "wijk_code": null
  },
  {
    "vge_id": 416980,
    "Lat": 52.34526824951172,
    "Long": 4.824000358581543,
    "Postcode": "1066DV",
    "Straat": "Louweshoek",
    "huisnummer": "311",
    "naam": null,
    "geldig_vanaf": null,
    "wijk_code": null
  },
  {
    "vge_id": 416981,
    "Lat": 52.34571075439453,
    "Long": 4.824464321136475,
    "Postcode": "1066DV",
    "Straat": "Louweshoek",
    "huisnummer": "312",
    "naam": null,
    "geldig_vanaf": null,
    "wijk_code": null
  },
  {
    "vge_id": 416982,
    "Lat": 52.34526062011719,
    "Long": 4.8241472244262695,
    "Postcode": "1066DV",
    "Straat": "Louweshoek",
    "huisnummer": "313",
    "naam": null,
    "geldig_vanaf": null,
    "wijk_code": null
  },
  {
    "vge_id": 416983,
    "Lat": 52.345829010009766,
    "Long": 4.824389457702637,
    "Postcode": "1066DV",
    "Straat": "Louweshoek",
    "huisnummer": "314",
    "naam": null,
    "geldig_vanaf": null,
    "wijk_code": null
  },
  {
    "vge_id": 416984,
    "Lat": 52.34587478637695,
    "Long": 4.824315547943115,
    "Postcode": "1066DV",
    "Straat": "Louweshoek",
    "huisnummer": "316",
    "naam": null,
    "geldig_vanaf": null,
    "wijk_code": null
  },
  {
    "vge_id": 416985,
    "Lat": 52.34596252441406,
    "Long": 4.8242411613464355,
    "Postcode": "1066DV",
    "Straat": "Louweshoek",
    "huisnummer": "318",
    "naam": null,
    "geldig_vanaf": null,
    "wijk_code": null
  },
  {
    "vge_id": 416986,
    "Lat": 52.34600830078125,
    "Long": 4.824240684509277,
    "Postcode": "1066DV",
    "Straat": "Louweshoek",
    "huisnummer": "320",
    "naam": null,
    "geldig_vanaf": null,
    "wijk_code": null
  },
  {
    "vge_id": 416987,
    "Lat": 52.34605407714844,
    "Long": 4.824254512786865,
    "Postcode": "1066DV",
    "Straat": "Louweshoek",
    "huisnummer": "322",
    "naam": null,
    "geldig_vanaf": null,
    "wijk_code": null
  },
  {
    "vge_id": 416988,
    "Lat": 52.34565734863281,
    "Long": 4.82452392578125,
    "Postcode": "1066DW",
    "Straat": "Louweshoek",
    "huisnummer": "402",
    "naam": null,
    "geldig_vanaf": null,
    "wijk_code": null
  },
  {
    "vge_id": 416989,
    "Lat": 52.34563064575195,
    "Long": 4.8244948387146,
    "Postcode": "1066DW",
    "Straat": "Louweshoek",
    "huisnummer": "404",
    "naam": null,
    "geldig_vanaf": null,
    "wijk_code": null
  },
  {
    "vge_id": 416990,
    "Lat": 52.345523834228516,
    "Long": 4.824554920196533,
    "Postcode": "1066DW",
    "Straat": "Louweshoek",
    "huisnummer": "406",
    "naam": null,
    "geldig_vanaf": null,
    "wijk_code": null
  },
  {
    "vge_id": 416991,
    "Lat": 52.345462799072266,
    "Long": 4.824497222900391,
    "Postcode": "1066DW",
    "Straat": "Louweshoek",
    "huisnummer": "408",
    "naam": null,
    "geldig_vanaf": null,
    "wijk_code": null
  },
  {
    "vge_id": 416992,
    "Lat": 52.34563064575195,
    "Long": 4.824392318725586,
    "Postcode": "1066DW",
    "Straat": "Louweshoek",
    "huisnummer": "410",
    "naam": null,
    "geldig_vanaf": null,
    "wijk_code": null
  },
  {
    "vge_id": 416993,
    "Lat": 52.34561538696289,
    "Long": 4.8244948387146,
    "Postcode": "1066DW",
    "Straat": "Louweshoek",
    "huisnummer": "412",
    "naam": null,
    "geldig_vanaf": null,
    "wijk_code": null
  },
  {
    "vge_id": 416994,
    "Lat": 52.345802307128906,
    "Long": 4.824316501617432,
    "Postcode": "1066DW",
    "Straat": "Louweshoek",
    "huisnummer": "414",
    "naam": null,
    "geldig_vanaf": null,
    "wijk_code": null
  },
  {
    "vge_id": 416995,
    "Lat": 52.345703125,
    "Long": 4.824317932128906,
    "Postcode": "1066DW",
    "Straat": "Louweshoek",
    "huisnummer": "416",
    "naam": null,
    "geldig_vanaf": null,
    "wijk_code": null
  },
  {
    "vge_id": 416996,
    "Lat": 52.34568405151367,
    "Long": 4.824303150177002,
    "Postcode": "1066DW",
    "Straat": "Louweshoek",
    "huisnummer": "418",
    "naam": null,
    "geldig_vanaf": null,
    "wijk_code": null
  },
  {
    "vge_id": 416997,
    "Lat": 52.34598922729492,
    "Long": 4.824240684509277,
    "Postcode": "1066DW",
    "Straat": "Louweshoek",
    "huisnummer": "420",
    "naam": null,
    "geldig_vanaf": null,
    "wijk_code": null
  },
  {
    "vge_id": 416998,
    "Lat": 52.3460693359375,
    "Long": 4.8242692947387695,
    "Postcode": "1066DW",
    "Straat": "Louweshoek",
    "huisnummer": "422",
    "naam": null,
    "geldig_vanaf": null,
    "wijk_code": null
  },
  {
    "vge_id": 416999,
    "Lat": 52.345497131347656,
    "Long": 4.824159145355225,
    "Postcode": "1066DX",
    "Straat": "Louweshoek",
    "huisnummer": "502",
    "naam": null,
    "geldig_vanaf": null,
    "wijk_code": null
  },
  {
    "vge_id": 417000,
    "Lat": 52.34564971923828,
    "Long": 4.82430362701416,
    "Postcode": "1066DX",
    "Straat": "Louweshoek",
    "huisnummer": "504",
    "naam": null,
    "geldig_vanaf": null,
    "wijk_code": null
  },
  {
    "vge_id": 417001,
    "Lat": 52.345638275146484,
    "Long": 4.824347972869873,
    "Postcode": "1066DX",
    "Straat": "Louweshoek",
    "huisnummer": "506",
    "naam": null,
    "geldig_vanaf": null,
    "wijk_code": null
  },
  {
    "vge_id": 417002,
    "Lat": 52.345550537109375,
    "Long": 4.824437141418457,
    "Postcode": "1066DX",
    "Straat": "Louweshoek",
    "huisnummer": "508",
    "naam": null,
    "geldig_vanaf": null,
    "wijk_code": null
  },
  {
    "vge_id": 417003,
    "Lat": 52.3454704284668,
    "Long": 4.824394226074219,
    "Postcode": "1066DX",
    "Straat": "Louweshoek",
    "huisnummer": "510",
    "naam": null,
    "geldig_vanaf": null,
    "wijk_code": null
  },
  {
    "vge_id": 417004,
    "Lat": 52.34547805786133,
    "Long": 4.82414436340332,
    "Postcode": "1066DX",
    "Straat": "Louweshoek",
    "huisnummer": "512",
    "naam": null,
    "geldig_vanaf": null,
    "wijk_code": null
  },
  {
    "vge_id": 417005,
    "Lat": 52.34563064575195,
    "Long": 4.824553489685059,
    "Postcode": "1066DX",
    "Straat": "Louweshoek",
    "huisnummer": "514",
    "naam": null,
    "geldig_vanaf": null,
    "wijk_code": null
  },
  {
    "vge_id": 417006,
    "Lat": 52.34592819213867,
    "Long": 4.824373722076416,
    "Postcode": "1066DX",
    "Straat": "Louweshoek",
    "huisnummer": "516",
    "naam": null,
    "geldig_vanaf": null,
    "wijk_code": null
  },
  {
    "vge_id": 417007,
    "Lat": 52.34596252441406,
    "Long": 4.8242411613464355,
    "Postcode": "1066DX",
    "Straat": "Louweshoek",
    "huisnummer": "518",
    "naam": null,
    "geldig_vanaf": null,
    "wijk_code": null
  },
  {
    "vge_id": 417008,
    "Lat": 52.34600830078125,
    "Long": 4.824240684509277,
    "Postcode": "1066DX",
    "Straat": "Louweshoek",
    "huisnummer": "520",
    "naam": null,
    "geldig_vanaf": null,
    "wijk_code": null
  },
  {
    "vge_id": 417009,
    "Lat": 52.34606170654297,
    "Long": 4.82429838180542,
    "Postcode": "1066DX",
    "Straat": "Louweshoek",
    "huisnummer": "522",
    "naam": null,
    "geldig_vanaf": null,
    "wijk_code": null
  },
  {
    "vge_id": 417050,
    "Lat": 52.32746124267578,
    "Long": 4.866283893585205,
    "Postcode": "1081AS",
    "Straat": "Noordhollandstraat",
    "huisnummer": "1",
    "naam": null,
    "geldig_vanaf": null,
    "wijk_code": null
  },
  {
    "vge_id": 417051,
    "Lat": 52.32745361328125,
    "Long": 4.866298675537109,
    "Postcode": "1081AS",
    "Straat": "Noordhollandstraat",
    "huisnummer": "1",
    "naam": null,
    "geldig_vanaf": null,
    "wijk_code": null
  },
  {
    "vge_id": 417052,
    "Lat": 52.32744216918945,
    "Long": 4.866313457489014,
    "Postcode": "1081AS",
    "Straat": "Noordhollandstraat",
    "huisnummer": "1",
    "naam": null,
    "geldig_vanaf": null,
    "wijk_code": null
  },
  {
    "vge_id": 417053,
    "Lat": 52.32742691040039,
    "Long": 4.866328239440918,
    "Postcode": "1081AS",
    "Straat": "Noordhollandstraat",
    "huisnummer": "1",
    "naam": null,
    "geldig_vanaf": null,
    "wijk_code": null
  },
  {
    "vge_id": 417054,
    "Lat": 52.327415466308594,
    "Long": 4.866313934326172,
    "Postcode": "1081AS",
    "Straat": "Noordhollandstraat",
    "huisnummer": "1",
    "naam": null,
    "geldig_vanaf": null,
    "wijk_code": null
  },
  {
    "vge_id": 417055,
    "Lat": 52.32740783691406,
    "Long": 4.866313934326172,
    "Postcode": "1081AS",
    "Straat": "Noordhollandstraat",
    "huisnummer": "1",
    "naam": null,
    "geldig_vanaf": null,
    "wijk_code": null
  },
  {
    "vge_id": 417056,
    "Lat": 52.327396392822266,
    "Long": 4.866313934326172,
    "Postcode": "1081AS",
    "Straat": "Noordhollandstraat",
    "huisnummer": "3",
    "naam": null,
    "geldig_vanaf": null,
    "wijk_code": null
  },
  {
    "vge_id": 417057,
    "Lat": 52.327388763427734,
    "Long": 4.866313934326172,
    "Postcode": "1081AS",
    "Straat": "Noordhollandstraat",
    "huisnummer": "3",
    "naam": null,
    "geldig_vanaf": null,
    "wijk_code": null
  },
  {
    "vge_id": 417058,
    "Lat": 52.3273811340332,
    "Long": 4.866313934326172,
    "Postcode": "1081AS",
    "Straat": "Noordhollandstraat",
    "huisnummer": "3",
    "naam": null,
    "geldig_vanaf": null,
    "wijk_code": null
  },
  {
    "vge_id": 417059,
    "Lat": 52.3273811340332,
    "Long": 4.866313934326172,
    "Postcode": "1081AS",
    "Straat": "Noordhollandstraat",
    "huisnummer": "3",
    "naam": null,
    "geldig_vanaf": null,
    "wijk_code": null
  },
  {
    "vge_id": 417060,
    "Lat": 52.327369689941406,
    "Long": 4.866328716278076,
    "Postcode": "1081AS",
    "Straat": "Noordhollandstraat",
    "huisnummer": "3",
    "naam": null,
    "geldig_vanaf": null,
    "wijk_code": null
  },
  {
    "vge_id": 417061,
    "Lat": 52.327362060546875,
    "Long": 4.866329193115234,
    "Postcode": "1081AS",
    "Straat": "Noordhollandstraat",
    "huisnummer": "3",
    "naam": null,
    "geldig_vanaf": null,
    "wijk_code": null
  },
  {
    "vge_id": 417062,
    "Lat": 52.327362060546875,
    "Long": 4.866329193115234,
    "Postcode": "1081AS",
    "Straat": "Noordhollandstraat",
    "huisnummer": "3",
    "naam": null,
    "geldig_vanaf": null,
    "wijk_code": null
  },
  {
    "vge_id": 417063,
    "Lat": 52.327396392822266,
    "Long": 4.866284370422363,
    "Postcode": "1081AS",
    "Straat": "Noordhollandstraat",
    "huisnummer": "5",
    "naam": null,
    "geldig_vanaf": null,
    "wijk_code": null
  },
  {
    "vge_id": 417064,
    "Lat": 52.327388763427734,
    "Long": 4.8662848472595215,
    "Postcode": "1081AS",
    "Straat": "Noordhollandstraat",
    "huisnummer": "5",
    "naam": null,
    "geldig_vanaf": null,
    "wijk_code": null
  },
  {
    "vge_id": 417065,
    "Lat": 52.327388763427734,
    "Long": 4.8662848472595215,
    "Postcode": "1081AS",
    "Straat": "Noordhollandstraat",
    "huisnummer": "5",
    "naam": null,
    "geldig_vanaf": null,
    "wijk_code": null
  },
  {
    "vge_id": 417066,
    "Lat": 52.327388763427734,
    "Long": 4.866299152374268,
    "Postcode": "1081AS",
    "Straat": "Noordhollandstraat",
    "huisnummer": "5",
    "naam": null,
    "geldig_vanaf": null,
    "wijk_code": null
  },
  {
    "vge_id": 417067,
    "Lat": 52.3273811340332,
    "Long": 4.866299629211426,
    "Postcode": "1081AS",
    "Straat": "Noordhollandstraat",
    "huisnummer": "5",
    "naam": null,
    "geldig_vanaf": null,
    "wijk_code": null
  },
  {
    "vge_id": 417068,
    "Lat": 52.3273811340332,
    "Long": 4.866299629211426,
    "Postcode": "1081AS",
    "Straat": "Noordhollandstraat",
    "huisnummer": "5",
    "naam": null,
    "geldig_vanaf": null,
    "wijk_code": null
  },
  {
    "vge_id": 417069,
    "Lat": 52.327362060546875,
    "Long": 4.866299629211426,
    "Postcode": "1081AS",
    "Straat": "Noordhollandstraat",
    "huisnummer": "5",
    "naam": null,
    "geldig_vanaf": null,
    "wijk_code": null
  },
  {
    "vge_id": 417070,
    "Lat": 52.32745361328125,
    "Long": 4.866283893585205,
    "Postcode": "1081AS",
    "Straat": "Noordhollandstraat",
    "huisnummer": "7",
    "naam": null,
    "geldig_vanaf": null,
    "wijk_code": null
  },
  {
    "vge_id": 417071,
    "Lat": 52.32744216918945,
    "Long": 4.866283893585205,
    "Postcode": "1081AS",
    "Straat": "Noordhollandstraat",
    "huisnummer": "7",
    "naam": null,
    "geldig_vanaf": null,
    "wijk_code": null
  },
  {
    "vge_id": 417072,
    "Lat": 52.32743453979492,
    "Long": 4.866284370422363,
    "Postcode": "1081AS",
    "Straat": "Noordhollandstraat",
    "huisnummer": "7",
    "naam": null,
    "geldig_vanaf": null,
    "wijk_code": null
  },
  {
    "vge_id": 417073,
    "Lat": 52.32743453979492,
    "Long": 4.866284370422363,
    "Postcode": "1081AS",
    "Straat": "Noordhollandstraat",
    "huisnummer": "7",
    "naam": null,
    "geldig_vanaf": null,
    "wijk_code": null
  },
  {
    "vge_id": 417074,
    "Lat": 52.32742691040039,
    "Long": 4.866284370422363,
    "Postcode": "1081AS",
    "Straat": "Noordhollandstraat",
    "huisnummer": "7",
    "naam": null,
    "geldig_vanaf": null,
    "wijk_code": null
  },
  {
    "vge_id": 417075,
    "Lat": 52.32742691040039,
    "Long": 4.866299152374268,
    "Postcode": "1081AS",
    "Straat": "Noordhollandstraat",
    "huisnummer": "7",
    "naam": null,
    "geldig_vanaf": null,
    "wijk_code": null
  },
  {
    "vge_id": 417076,
    "Lat": 52.327415466308594,
    "Long": 4.866299152374268,
    "Postcode": "1081AS",
    "Straat": "Noordhollandstraat",
    "huisnummer": "7",
    "naam": null,
    "geldig_vanaf": null,
    "wijk_code": null
  },
  {
    "vge_id": 417077,
    "Lat": 52.327354431152344,
    "Long": 4.86628532409668,
    "Postcode": "1081AS",
    "Straat": "Noordhollandstraat",
    "huisnummer": "9",
    "naam": null,
    "geldig_vanaf": null,
    "wijk_code": null
  },
  {
    "vge_id": 417078,
    "Lat": 52.327354431152344,
    "Long": 4.866299629211426,
    "Postcode": "1081AS",
    "Straat": "Noordhollandstraat",
    "huisnummer": "9",
    "naam": null,
    "geldig_vanaf": null,
    "wijk_code": null
  },
  {
    "vge_id": 417079,
    "Lat": 52.327354431152344,
    "Long": 4.866299629211426,
    "Postcode": "1081AS",
    "Straat": "Noordhollandstraat",
    "huisnummer": "9",
    "naam": null,
    "geldig_vanaf": null,
    "wijk_code": null
  },
  {
    "vge_id": 417080,
    "Lat": 52.327354431152344,
    "Long": 4.866299629211426,
    "Postcode": "1081AS",
    "Straat": "Noordhollandstraat",
    "huisnummer": "9",
    "naam": null,
    "geldig_vanaf": null,
    "wijk_code": null
  },
  {
    "vge_id": 417081,
    "Lat": 52.32734298706055,
    "Long": 4.866300106048584,
    "Postcode": "1081AS",
    "Straat": "Noordhollandstraat",
    "huisnummer": "9",
    "naam": null,
    "geldig_vanaf": null,
    "wijk_code": null
  },
  {
    "vge_id": 417082,
    "Lat": 52.32734298706055,
    "Long": 4.866300106048584,
    "Postcode": "1081AS",
    "Straat": "Noordhollandstraat",
    "huisnummer": "9",
    "naam": null,
    "geldig_vanaf": null,
    "wijk_code": null
  },
  {
    "vge_id": 417083,
    "Lat": 52.32725524902344,
    "Long": 4.866271495819092,
    "Postcode": "1081AS",
    "Straat": "Noordhollandstraat",
    "huisnummer": "9",
    "naam": null,
    "geldig_vanaf": null,
    "wijk_code": null
  },
  {
    "vge_id": 417084,
    "Lat": 52.32734298706055,
    "Long": 4.86628532409668,
    "Postcode": "1081AS",
    "Straat": "Noordhollandstraat",
    "huisnummer": "11",
    "naam": null,
    "geldig_vanaf": null,
    "wijk_code": null
  },
  {
    "vge_id": 417085,
    "Lat": 52.32734298706055,
    "Long": 4.86628532409668,
    "Postcode": "1081AS",
    "Straat": "Noordhollandstraat",
    "huisnummer": "11",
    "naam": null,
    "geldig_vanaf": null,
    "wijk_code": null
  },
  {
    "vge_id": 417086,
    "Lat": 52.32734298706055,
    "Long": 4.86628532409668,
    "Postcode": "1081AS",
    "Straat": "Noordhollandstraat",
    "huisnummer": "11",
    "naam": null,
    "geldig_vanaf": null,
    "wijk_code": null
  },
  {
    "vge_id": 417087,
    "Lat": 52.327335357666016,
    "Long": 4.866300106048584,
    "Postcode": "1081AS",
    "Straat": "Noordhollandstraat",
    "huisnummer": "11",
    "naam": null,
    "geldig_vanaf": null,
    "wijk_code": null
  },
  {
    "vge_id": 417088,
    "Lat": 52.327335357666016,
    "Long": 4.866300106048584,
    "Postcode": "1081AS",
    "Straat": "Noordhollandstraat",
    "huisnummer": "11",
    "naam": null,
    "geldig_vanaf": null,
    "wijk_code": null
  },
  {
    "vge_id": 417089,
    "Lat": 52.327327728271484,
    "Long": 4.866300106048584,
    "Postcode": "1081AS",
    "Straat": "Noordhollandstraat",
    "huisnummer": "11",
    "naam": null,
    "geldig_vanaf": null,
    "wijk_code": null
  },
  {
    "vge_id": 417090,
    "Lat": 52.327327728271484,
    "Long": 4.866300106048584,
    "Postcode": "1081AS",
    "Straat": "Noordhollandstraat",
    "huisnummer": "11",
    "naam": null,
    "geldig_vanaf": null,
    "wijk_code": null
  },
  {
    "vge_id": 417091,
    "Lat": 52.327354431152344,
    "Long": 4.866329193115234,
    "Postcode": "1081AS",
    "Straat": "Noordhollandstraat",
    "huisnummer": "13",
    "naam": null,
    "geldig_vanaf": null,
    "wijk_code": null
  },
  {
    "vge_id": 417092,
    "Lat": 52.32734298706055,
    "Long": 4.866329193115234,
    "Postcode": "1081AS",
    "Straat": "Noordhollandstraat",
    "huisnummer": "13",
    "naam": null,
    "geldig_vanaf": null,
    "wijk_code": null
  },
  {
    "vge_id": 417093,
    "Lat": 52.32734298706055,
    "Long": 4.866329193115234,
    "Postcode": "1081AS",
    "Straat": "Noordhollandstraat",
    "huisnummer": "13",
    "naam": null,
    "geldig_vanaf": null,
    "wijk_code": null
  },
  {
    "vge_id": 417094,
    "Lat": 52.32734298706055,
    "Long": 4.866329193115234,
    "Postcode": "1081AS",
    "Straat": "Noordhollandstraat",
    "huisnummer": "13",
    "naam": null,
    "geldig_vanaf": null,
    "wijk_code": null
  },
  {
    "vge_id": 417095,
    "Lat": 52.327335357666016,
    "Long": 4.866329193115234,
    "Postcode": "1081AS",
    "Straat": "Noordhollandstraat",
    "huisnummer": "13",
    "naam": null,
    "geldig_vanaf": null,
    "wijk_code": null
  },
  {
    "vge_id": 417096,
    "Lat": 52.32723617553711,
    "Long": 4.866286277770996,
    "Postcode": "1081AS",
    "Straat": "Noordhollandstraat",
    "huisnummer": "13",
    "naam": null,
    "geldig_vanaf": null,
    "wijk_code": null
  },
  {
    "vge_id": 417097,
    "Lat": 52.32682418823242,
    "Long": 4.866526126861572,
    "Postcode": "1081AS",
    "Straat": "Noordhollandstraat",
    "huisnummer": "15",
    "naam": null,
    "geldig_vanaf": null,
    "wijk_code": null
  },
  {
    "vge_id": 417098,
    "Lat": 52.32681655883789,
    "Long": 4.866526126861572,
    "Postcode": "1081AS",
    "Straat": "Noordhollandstraat",
    "huisnummer": "15",
    "naam": null,
    "geldig_vanaf": null,
    "wijk_code": null
  },
  {
    "vge_id": 417099,
    "Lat": 52.326805114746094,
    "Long": 4.866526126861572,
    "Postcode": "1081AS",
    "Straat": "Noordhollandstraat",
    "huisnummer": "15",
    "naam": null,
    "geldig_vanaf": null,
    "wijk_code": null
  },
  {
    "vge_id": 417100,
    "Lat": 52.326778411865234,
    "Long": 4.866511821746826,
    "Postcode": "1081AS",
    "Straat": "Noordhollandstraat",
    "huisnummer": "17",
    "naam": null,
    "geldig_vanaf": null,
    "wijk_code": null
  },
  {
    "vge_id": 417101,
    "Lat": 52.326778411865234,
    "Long": 4.866511821746826,
    "Postcode": "1081AS",
    "Straat": "Noordhollandstraat",
    "huisnummer": "17",
    "naam": null,
    "geldig_vanaf": null,
    "wijk_code": null
  },
  {
    "vge_id": 417102,
    "Lat": 52.326778411865234,
    "Long": 4.866511821746826,
    "Postcode": "1081AS",
    "Straat": "Noordhollandstraat",
    "huisnummer": "17",
    "naam": null,
    "geldig_vanaf": null,
    "wijk_code": null
  },
  {
    "vge_id": 417103,
    "Lat": 52.326786041259766,
    "Long": 4.866511821746826,
    "Postcode": "1081AS",
    "Straat": "Noordhollandstraat",
    "huisnummer": "17",
    "naam": null,
    "geldig_vanaf": null,
    "wijk_code": null
  },
  {
    "vge_id": 417104,
    "Lat": 52.326751708984375,
    "Long": 4.866512298583984,
    "Postcode": "1081AS",
    "Straat": "Noordhollandstraat",
    "huisnummer": "23",
    "naam": null,
    "geldig_vanaf": null,
    "wijk_code": null
  },
  {
    "vge_id": 417105,
    "Lat": 52.326751708984375,
    "Long": 4.866512298583984,
    "Postcode": "1081AS",
    "Straat": "Noordhollandstraat",
    "huisnummer": "23",
    "naam": null,
    "geldig_vanaf": null,
    "wijk_code": null
  },
  {
    "vge_id": 417106,
    "Lat": 52.326744079589844,
    "Long": 4.866512298583984,
    "Postcode": "1081AS",
    "Straat": "Noordhollandstraat",
    "huisnummer": "23",
    "naam": null,
    "geldig_vanaf": null,
    "wijk_code": null
  },
  {
    "vge_id": 417107,
    "Lat": 52.326744079589844,
    "Long": 4.866512298583984,
    "Postcode": "1081AS",
    "Straat": "Noordhollandstraat",
    "huisnummer": "23",
    "naam": null,
    "geldig_vanaf": null,
    "wijk_code": null
  },
  {
    "vge_id": 417108,
    "Lat": 52.326744079589844,
    "Long": 4.866512298583984,
    "Postcode": "1081AS",
    "Straat": "Noordhollandstraat",
    "huisnummer": "23",
    "naam": null,
    "geldig_vanaf": null,
    "wijk_code": null
  },
  {
    "vge_id": 417109,
    "Lat": 52.326744079589844,
    "Long": 4.866512298583984,
    "Postcode": "1081AS",
    "Straat": "Noordhollandstraat",
    "huisnummer": "23",
    "naam": null,
    "geldig_vanaf": null,
    "wijk_code": null
  },
  {
    "vge_id": 417110,
    "Lat": 52.32673263549805,
    "Long": 4.866512298583984,
    "Postcode": "1081AS",
    "Straat": "Noordhollandstraat",
    "huisnummer": "23",
    "naam": null,
    "geldig_vanaf": null,
    "wijk_code": null
  },
  {
    "vge_id": 417111,
    "Lat": 52.326778411865234,
    "Long": 4.866570472717285,
    "Postcode": "1081AS",
    "Straat": "Noordhollandstraat",
    "huisnummer": "25",
    "naam": null,
    "geldig_vanaf": null,
    "wijk_code": null
  },
  {
    "vge_id": 417112,
    "Lat": 52.3267707824707,
    "Long": 4.866570472717285,
    "Postcode": "1081AS",
    "Straat": "Noordhollandstraat",
    "huisnummer": "25",
    "naam": null,
    "geldig_vanaf": null,
    "wijk_code": null
  },
  {
    "vge_id": 417113,
    "Lat": 52.3267707824707,
    "Long": 4.866570472717285,
    "Postcode": "1081AS",
    "Straat": "Noordhollandstraat",
    "huisnummer": "25",
    "naam": null,
    "geldig_vanaf": null,
    "wijk_code": null
  },
  {
    "vge_id": 417114,
    "Lat": 52.326759338378906,
    "Long": 4.866570949554443,
    "Postcode": "1081AS",
    "Straat": "Noordhollandstraat",
    "huisnummer": "25",
    "naam": null,
    "geldig_vanaf": null,
    "wijk_code": null
  },
  {
    "vge_id": 417115,
    "Lat": 52.32676315307617,
    "Long": 4.8665852546691895,
    "Postcode": "1081AS",
    "Straat": "Noordhollandstraat",
    "huisnummer": "25",
    "naam": null,
    "geldig_vanaf": null,
    "wijk_code": null
  },
  {
    "vge_id": 417116,
    "Lat": 52.326751708984375,
    "Long": 4.866570949554443,
    "Postcode": "1081AS",
    "Straat": "Noordhollandstraat",
    "huisnummer": "25",
    "naam": null,
    "geldig_vanaf": null,
    "wijk_code": null
  },
  {
    "vge_id": 417117,
    "Lat": 52.326751708984375,
    "Long": 4.866585731506348,
    "Postcode": "1081AS",
    "Straat": "Noordhollandstraat",
    "huisnummer": "25",
    "naam": null,
    "geldig_vanaf": null,
    "wijk_code": null
  },
  {
    "vge_id": 417118,
    "Lat": 52.326744079589844,
    "Long": 4.866570949554443,
    "Postcode": "1081AS",
    "Straat": "Noordhollandstraat",
    "huisnummer": "27",
    "naam": null,
    "geldig_vanaf": null,
    "wijk_code": null
  },
  {
    "vge_id": 417119,
    "Lat": 52.32673263549805,
    "Long": 4.866570949554443,
    "Postcode": "1081AS",
    "Straat": "Noordhollandstraat",
    "huisnummer": "27",
    "naam": null,
    "geldig_vanaf": null,
    "wijk_code": null
  },
  {
    "vge_id": 417120,
    "Lat": 52.32673263549805,
    "Long": 4.866570949554443,
    "Postcode": "1081AS",
    "Straat": "Noordhollandstraat",
    "huisnummer": "27",
    "naam": null,
    "geldig_vanaf": null,
    "wijk_code": null
  },
  {
    "vge_id": 417121,
    "Lat": 52.32673263549805,
    "Long": 4.866570949554443,
    "Postcode": "1081AS",
    "Straat": "Noordhollandstraat",
    "huisnummer": "27",
    "naam": null,
    "geldig_vanaf": null,
    "wijk_code": null
  },
  {
    "vge_id": 417122,
    "Lat": 52.32673263549805,
    "Long": 4.866570949554443,
    "Postcode": "1081AS",
    "Straat": "Noordhollandstraat",
    "huisnummer": "27",
    "naam": null,
    "geldig_vanaf": null,
    "wijk_code": null
  },
  {
    "vge_id": 417123,
    "Lat": 52.326725006103516,
    "Long": 4.866571426391602,
    "Postcode": "1081AS",
    "Straat": "Noordhollandstraat",
    "huisnummer": "27",
    "naam": null,
    "geldig_vanaf": null,
    "wijk_code": null
  },
  {
    "vge_id": 417124,
    "Lat": 52.326534271240234,
    "Long": 4.865957260131836,
    "Postcode": "1081AS",
    "Straat": "Noordhollandstraat",
    "huisnummer": "31",
    "naam": null,
    "geldig_vanaf": null,
    "wijk_code": null
  },
  {
    "vge_id": 417125,
    "Lat": 52.3265266418457,
    "Long": 4.865957260131836,
    "Postcode": "1081AS",
    "Straat": "Noordhollandstraat",
    "huisnummer": "31",
    "naam": null,
    "geldig_vanaf": null,
    "wijk_code": null
  },
  {
    "vge_id": 417126,
    "Lat": 52.3265266418457,
    "Long": 4.865957260131836,
    "Postcode": "1081AS",
    "Straat": "Noordhollandstraat",
    "huisnummer": "31",
    "naam": null,
    "geldig_vanaf": null,
    "wijk_code": null
  },
  {
    "vge_id": 417127,
    "Lat": 52.3265266418457,
    "Long": 4.865957260131836,
    "Postcode": "1081AS",
    "Straat": "Noordhollandstraat",
    "huisnummer": "31",
    "naam": null,
    "geldig_vanaf": null,
    "wijk_code": null
  },
  {
    "vge_id": 417128,
    "Lat": 52.3265266418457,
    "Long": 4.865957260131836,
    "Postcode": "1081AS",
    "Straat": "Noordhollandstraat",
    "huisnummer": "31",
    "naam": null,
    "geldig_vanaf": null,
    "wijk_code": null
  },
  {
    "vge_id": 417129,
    "Lat": 52.326515197753906,
    "Long": 4.865957736968994,
    "Postcode": "1081AS",
    "Straat": "Noordhollandstraat",
    "huisnummer": "31",
    "naam": null,
    "geldig_vanaf": null,
    "wijk_code": null
  },
  {
    "vge_id": 417130,
    "Lat": 52.326515197753906,
    "Long": 4.865957736968994,
    "Postcode": "1081AS",
    "Straat": "Noordhollandstraat",
    "huisnummer": "31",
    "naam": null,
    "geldig_vanaf": null,
    "wijk_code": null
  },
  {
    "vge_id": 417131,
    "Lat": 52.326515197753906,
    "Long": 4.865957736968994,
    "Postcode": "1081AS",
    "Straat": "Noordhollandstraat",
    "huisnummer": "31",
    "naam": null,
    "geldig_vanaf": null,
    "wijk_code": null
  },
  {
    "vge_id": 417132,
    "Lat": 52.3265266418457,
    "Long": 4.865957260131836,
    "Postcode": "1081AS",
    "Straat": "Noordhollandstraat",
    "huisnummer": "31",
    "naam": null,
    "geldig_vanaf": null,
    "wijk_code": null
  },
  {
    "vge_id": 417133,
    "Lat": 52.32648849487305,
    "Long": 4.865957736968994,
    "Postcode": "1081AS",
    "Straat": "Noordhollandstraat",
    "huisnummer": "33",
    "naam": null,
    "geldig_vanaf": null,
    "wijk_code": null
  },
  {
    "vge_id": 417134,
    "Lat": 52.32648849487305,
    "Long": 4.865957736968994,
    "Postcode": "1081AS",
    "Straat": "Noordhollandstraat",
    "huisnummer": "33",
    "naam": null,
    "geldig_vanaf": null,
    "wijk_code": null
  },
  {
    "vge_id": 417135,
    "Lat": 52.32648849487305,
    "Long": 4.865957736968994,
    "Postcode": "1081AS",
    "Straat": "Noordhollandstraat",
    "huisnummer": "33",
    "naam": null,
    "geldig_vanaf": null,
    "wijk_code": null
  },
  {
    "vge_id": 417136,
    "Lat": 52.326480865478516,
    "Long": 4.865957736968994,
    "Postcode": "1081AS",
    "Straat": "Noordhollandstraat",
    "huisnummer": "33",
    "naam": null,
    "geldig_vanaf": null,
    "wijk_code": null
  },
  {
    "vge_id": 417137,
    "Lat": 52.326480865478516,
    "Long": 4.865957736968994,
    "Postcode": "1081AS",
    "Straat": "Noordhollandstraat",
    "huisnummer": "33",
    "naam": null,
    "geldig_vanaf": null,
    "wijk_code": null
  },
  {
    "vge_id": 417138,
    "Lat": 52.32646942138672,
    "Long": 4.865958213806152,
    "Postcode": "1081AS",
    "Straat": "Noordhollandstraat",
    "huisnummer": "35",
    "naam": null,
    "geldig_vanaf": null,
    "wijk_code": null
  },
  {
    "vge_id": 417139,
    "Lat": 52.32646179199219,
    "Long": 4.865958213806152,
    "Postcode": "1081AS",
    "Straat": "Noordhollandstraat",
    "huisnummer": "35",
    "naam": null,
    "geldig_vanaf": null,
    "wijk_code": null
  },
  {
    "vge_id": 417140,
    "Lat": 52.32646179199219,
    "Long": 4.865958213806152,
    "Postcode": "1081AS",
    "Straat": "Noordhollandstraat",
    "huisnummer": "35",
    "naam": null,
    "geldig_vanaf": null,
    "wijk_code": null
  },
  {
    "vge_id": 417141,
    "Lat": 52.32646179199219,
    "Long": 4.865958213806152,
    "Postcode": "1081AS",
    "Straat": "Noordhollandstraat",
    "huisnummer": "35",
    "naam": null,
    "geldig_vanaf": null,
    "wijk_code": null
  },
  {
    "vge_id": 417142,
    "Lat": 52.32646179199219,
    "Long": 4.865958213806152,
    "Postcode": "1081AS",
    "Straat": "Noordhollandstraat",
    "huisnummer": "35",
    "naam": null,
    "geldig_vanaf": null,
    "wijk_code": null
  },
  {
    "vge_id": 417143,
    "Lat": 52.32646179199219,
    "Long": 4.865972995758057,
    "Postcode": "1081AS",
    "Straat": "Noordhollandstraat",
    "huisnummer": "37",
    "naam": null,
    "geldig_vanaf": null,
    "wijk_code": null
  },
  {
    "vge_id": 417144,
    "Lat": 52.326454162597656,
    "Long": 4.865972995758057,
    "Postcode": "1081AS",
    "Straat": "Noordhollandstraat",
    "huisnummer": "37",
    "naam": null,
    "geldig_vanaf": null,
    "wijk_code": null
  },
  {
    "vge_id": 417145,
    "Lat": 52.326454162597656,
    "Long": 4.865972995758057,
    "Postcode": "1081AS",
    "Straat": "Noordhollandstraat",
    "huisnummer": "37",
    "naam": null,
    "geldig_vanaf": null,
    "wijk_code": null
  },
  {
    "vge_id": 417146,
    "Lat": 52.326454162597656,
    "Long": 4.865958213806152,
    "Postcode": "1081AS",
    "Straat": "Noordhollandstraat",
    "huisnummer": "37",
    "naam": null,
    "geldig_vanaf": null,
    "wijk_code": null
  },
  {
    "vge_id": 417147,
    "Lat": 52.326454162597656,
    "Long": 4.865958213806152,
    "Postcode": "1081AS",
    "Straat": "Noordhollandstraat",
    "huisnummer": "37",
    "naam": null,
    "geldig_vanaf": null,
    "wijk_code": null
  },
  {
    "vge_id": 417148,
    "Lat": 52.32627487182617,
    "Long": 4.866282939910889,
    "Postcode": "1081AS",
    "Straat": "Noordhollandstraat",
    "huisnummer": "39",
    "naam": null,
    "geldig_vanaf": null,
    "wijk_code": null
  },
  {
    "vge_id": 417149,
    "Lat": 52.32627487182617,
    "Long": 4.866297721862793,
    "Postcode": "1081AS",
    "Straat": "Noordhollandstraat",
    "huisnummer": "39",
    "naam": null,
    "geldig_vanaf": null,
    "wijk_code": null
  },
  {
    "vge_id": 417150,
    "Lat": 52.32626724243164,
    "Long": 4.866297721862793,
    "Postcode": "1081AS",
    "Straat": "Noordhollandstraat",
    "huisnummer": "39",
    "naam": null,
    "geldig_vanaf": null,
    "wijk_code": null
  },
  {
    "vge_id": 417151,
    "Lat": 52.32626724243164,
    "Long": 4.866297721862793,
    "Postcode": "1081AS",
    "Straat": "Noordhollandstraat",
    "huisnummer": "39",
    "naam": null,
    "geldig_vanaf": null,
    "wijk_code": null
  },
  {
    "vge_id": 417152,
    "Lat": 52.326255798339844,
    "Long": 4.866298198699951,
    "Postcode": "1081AS",
    "Straat": "Noordhollandstraat",
    "huisnummer": "39",
    "naam": null,
    "geldig_vanaf": null,
    "wijk_code": null
  },
  {
    "vge_id": 417153,
    "Lat": 52.326255798339844,
    "Long": 4.866298198699951,
    "Postcode": "1081AS",
    "Straat": "Noordhollandstraat",
    "huisnummer": "39",
    "naam": null,
    "geldig_vanaf": null,
    "wijk_code": null
  },
  {
    "vge_id": 417154,
    "Lat": 52.326255798339844,
    "Long": 4.866298198699951,
    "Postcode": "1081AS",
    "Straat": "Noordhollandstraat",
    "huisnummer": "39",
    "naam": null,
    "geldig_vanaf": null,
    "wijk_code": null
  },
  {
    "vge_id": 417155,
    "Lat": 52.326255798339844,
    "Long": 4.866298198699951,
    "Postcode": "1081AS",
    "Straat": "Noordhollandstraat",
    "huisnummer": "39",
    "naam": null,
    "geldig_vanaf": null,
    "wijk_code": null
  },
  {
    "vge_id": 417156,
    "Lat": 52.32626724243164,
    "Long": 4.866297721862793,
    "Postcode": "1081AS",
    "Straat": "Noordhollandstraat",
    "huisnummer": "39",
    "naam": null,
    "geldig_vanaf": null,
    "wijk_code": null
  },
  {
    "vge_id": 417157,
    "Lat": 52.32627487182617,
    "Long": 4.866341590881348,
    "Postcode": "1081AS",
    "Straat": "Noordhollandstraat",
    "huisnummer": "41",
    "naam": null,
    "geldig_vanaf": null,
    "wijk_code": null
  },
  {
    "vge_id": 417158,
    "Lat": 52.32627487182617,
    "Long": 4.866341590881348,
    "Postcode": "1081AS",
    "Straat": "Noordhollandstraat",
    "huisnummer": "41",
    "naam": null,
    "geldig_vanaf": null,
    "wijk_code": null
  },
  {
    "vge_id": 417159,
    "Lat": 52.32626724243164,
    "Long": 4.866342067718506,
    "Postcode": "1081AS",
    "Straat": "Noordhollandstraat",
    "huisnummer": "41",
    "naam": null,
    "geldig_vanaf": null,
    "wijk_code": null
  },
  {
    "vge_id": 417160,
    "Lat": 52.32626724243164,
    "Long": 4.866342067718506,
    "Postcode": "1081AS",
    "Straat": "Noordhollandstraat",
    "huisnummer": "41",
    "naam": null,
    "geldig_vanaf": null,
    "wijk_code": null
  },
  {
    "vge_id": 417161,
    "Lat": 52.326255798339844,
    "Long": 4.866342067718506,
    "Postcode": "1081AS",
    "Straat": "Noordhollandstraat",
    "huisnummer": "41",
    "naam": null,
    "geldig_vanaf": null,
    "wijk_code": null
  },
  {
    "vge_id": 417162,
    "Lat": 52.3262825012207,
    "Long": 4.866385459899902,
    "Postcode": "1081AS",
    "Straat": "Noordhollandstraat",
    "huisnummer": "43",
    "naam": null,
    "geldig_vanaf": null,
    "wijk_code": null
  },
  {
    "vge_id": 417163,
    "Lat": 52.32626724243164,
    "Long": 4.8663859367370605,
    "Postcode": "1081AS",
    "Straat": "Noordhollandstraat",
    "huisnummer": "43",
    "naam": null,
    "geldig_vanaf": null,
    "wijk_code": null
  },
  {
    "vge_id": 417164,
    "Lat": 52.32626724243164,
    "Long": 4.8663859367370605,
    "Postcode": "1081AS",
    "Straat": "Noordhollandstraat",
    "huisnummer": "43",
    "naam": null,
    "geldig_vanaf": null,
    "wijk_code": null
  },
  {
    "vge_id": 417165,
    "Lat": 52.32626724243164,
    "Long": 4.8663859367370605,
    "Postcode": "1081AS",
    "Straat": "Noordhollandstraat",
    "huisnummer": "43",
    "naam": null,
    "geldig_vanaf": null,
    "wijk_code": null
  },
  {
    "vge_id": 417166,
    "Lat": 52.32626724243164,
    "Long": 4.8663859367370605,
    "Postcode": "1081AS",
    "Straat": "Noordhollandstraat",
    "huisnummer": "43",
    "naam": null,
    "geldig_vanaf": null,
    "wijk_code": null
  },
  {
    "vge_id": 417167,
    "Lat": 52.32627487182617,
    "Long": 4.866429805755615,
    "Postcode": "1081AS",
    "Straat": "Noordhollandstraat",
    "huisnummer": "45",
    "naam": null,
    "geldig_vanaf": null,
    "wijk_code": null
  },
  {
    "vge_id": 417168,
    "Lat": 52.32626724243164,
    "Long": 4.866429805755615,
    "Postcode": "1081AS",
    "Straat": "Noordhollandstraat",
    "huisnummer": "45",
    "naam": null,
    "geldig_vanaf": null,
    "wijk_code": null
  },
  {
    "vge_id": 417169,
    "Lat": 52.32626724243164,
    "Long": 4.866429805755615,
    "Postcode": "1081AS",
    "Straat": "Noordhollandstraat",
    "huisnummer": "45",
    "naam": null,
    "geldig_vanaf": null,
    "wijk_code": null
  },
  {
    "vge_id": 417170,
    "Lat": 52.326255798339844,
    "Long": 4.866429805755615,
    "Postcode": "1081AS",
    "Straat": "Noordhollandstraat",
    "huisnummer": "45",
    "naam": null,
    "geldig_vanaf": null,
    "wijk_code": null
  },
  {
    "vge_id": 417171,
    "Lat": 52.326255798339844,
    "Long": 4.866429805755615,
    "Postcode": "1081AS",
    "Straat": "Noordhollandstraat",
    "huisnummer": "45",
    "naam": null,
    "geldig_vanaf": null,
    "wijk_code": null
  },
  {
    "vge_id": 417172,
    "Lat": 52.362945556640625,
    "Long": 4.789190292358398,
    "Postcode": "1069MZ",
    "Straat": "Ookmeerweg",
    "huisnummer": "268",
    "naam": null,
    "geldig_vanaf": null,
    "wijk_code": null
  },
  {
    "vge_id": 417173,
    "Lat": 52.3629264831543,
    "Long": 4.789094924926758,
    "Postcode": "1069MZ",
    "Straat": "Ookmeerweg",
    "huisnummer": "268",
    "naam": null,
    "geldig_vanaf": null,
    "wijk_code": null
  },
  {
    "vge_id": 417174,
    "Lat": 52.36290740966797,
    "Long": 4.788999080657959,
    "Postcode": "1069MZ",
    "Straat": "Ookmeerweg",
    "huisnummer": "268",
    "naam": null,
    "geldig_vanaf": null,
    "wijk_code": null
  },
  {
    "vge_id": 417175,
    "Lat": 52.36288833618164,
    "Long": 4.78890323638916,
    "Postcode": "1069MZ",
    "Straat": "Ookmeerweg",
    "huisnummer": "268",
    "naam": null,
    "geldig_vanaf": null,
    "wijk_code": null
  },
  {
    "vge_id": 417176,
    "Lat": 52.36286926269531,
    "Long": 4.7888078689575195,
    "Postcode": "1069MZ",
    "Straat": "Ookmeerweg",
    "huisnummer": "268",
    "naam": null,
    "geldig_vanaf": null,
    "wijk_code": null
  },
  {
    "vge_id": 417177,
    "Lat": 52.362850189208984,
    "Long": 4.788712024688721,
    "Postcode": "1069MZ",
    "Straat": "Ookmeerweg",
    "huisnummer": "268",
    "naam": null,
    "geldig_vanaf": null,
    "wijk_code": null
  }
]